{"type": "FeatureCollection", "features": [{"type": "Feature", "properties": {"name": "District 7", "slug": "district-7", "ccd": 7}, "geometry": {"type": "MultiPolygon", "coordinates": [[[[-85.61198669602663, 36.12571887918679], [-85.61175969641715, 36.12579187977145], [-85.61117969530984, 36.12596387953163], [-85.61092069542148, 36.12603687993814], [-85.61077569539165, 36.126077879918924], [-85.61062269579418, 36.126127879993355], [-85.61007369551653, 36.12629987986352], [-85.60988269562675, 36.12636487925643], [-85.60965469496428, 36.126448879693385], [-85.60942469495211, 36.12653587981885], [-85.60896769472492, 36.12672687987254], [-85.60850969534323, 36.12694387981458], [-85.60818969516978, 36.127118879805224], [-85.60759369510642, 36.12747488033338], [-85.60753269510329, 36.12751188036748], [-85.60705269453292, 36.127806879950924], [-85.60646469402123, 36.12813487995885], [-85.60640469480296, 36.128165880315414], [-85.60625769410932, 36.12824188035261], [-85.60622369420206, 36.12825788024061], [-85.60616369420443, 36.12828788007959], [-85.60594569449417, 36.12839388058259], [-85.60575569484757, 36.12847387991915], [-85.60564869414861, 36.12852388069497], [-85.60554169405987, 36.12856188024546], [-85.60547169376953, 36.128587880610475], [-85.6054426938316, 36.12859988063027], [-85.60499969362911, 36.12872988011885], [-85.60454269404961, 36.128836880692994], [-85.60422769397695, 36.12889588040001], [-85.6039396940088, 36.12894288027762], [-85.60325369310273, 36.12901588019051], [-85.60272669369685, 36.1290728807824], [-85.60250469330087, 36.129103880955185], [-85.60242169365287, 36.12908788052351], [-85.60216969288386, 36.129057880598104], [-85.60192569370375, 36.129046880703406], [-85.60171169319732, 36.12903888050383], [-85.60158969308007, 36.12901988023057], [-85.60152869358275, 36.12899688057744], [-85.60145969283931, 36.12895488030533], [-85.60139869352992, 36.128900880963585], [-85.60137569269494, 36.12885588092641], [-85.60134569334097, 36.12876388065571], [-85.60136869257083, 36.12844388074651], [-85.60141369312443, 36.12810788048766], [-85.60147569298812, 36.12774087993142], [-85.60153669281127, 36.127382880466016], [-85.60154369343151, 36.12720788038195], [-85.60153669315005, 36.12716588031319], [-85.60152869329956, 36.12713888016768], [-85.60149069255728, 36.12706587989899], [-85.60139869311953, 36.126982880209724], [-85.60131469269348, 36.12694388011847], [-85.60123069260341, 36.126917879701544], [-85.60113969317533, 36.1269138801036], [-85.60084769290806, 36.12688788008544], [-85.60000269291257, 36.1268148805179], [-85.59964369199383, 36.126768880021196], [-85.59864469179949, 36.12662388013436], [-85.5984676922368, 36.12660088046139], [-85.59767569134402, 36.126501880170345], [-85.5975966920558, 36.1264918803949], [-85.59735969132025, 36.12646488013239], [-85.59728169130986, 36.12645588027622], [-85.59728369144992, 36.126707880302284], [-85.5973556916532, 36.127054880265746], [-85.59737869223412, 36.12722687995179], [-85.59737869180205, 36.12731788078663], [-85.5972856919373, 36.12756388033188], [-85.59727869204569, 36.127584880588486], [-85.59725469172895, 36.12762488026969], [-85.59710369144425, 36.12801288093418], [-85.59703469189495, 36.12824488096353], [-85.5969816919412, 36.1284468810797], [-85.59697369147021, 36.12856188086729], [-85.59697369213943, 36.128971880624746], [-85.59696669194531, 36.129087880528246], [-85.59688969201149, 36.12970588083935], [-85.59685969234735, 36.12983588058873], [-85.59680569131264, 36.129984880616206], [-85.59678269148962, 36.13001888115729], [-85.59670669177969, 36.130167880608], [-85.59668369226621, 36.130258881097184], [-85.59668369216209, 36.130342880904664], [-85.59669169202391, 36.130449881382944], [-85.59672969147596, 36.13066388106543], [-85.59675369241315, 36.13086088130225], [-85.59676069144011, 36.130911881557644], [-85.5967526921488, 36.13102588086902], [-85.59670669198148, 36.13143788150789], [-85.59669169171501, 36.131681881625134], [-85.59669869187458, 36.13174688108873], [-85.59675869181667, 36.13197688122983], [-85.59678969221602, 36.13209388136006], [-85.5968206923773, 36.132179880973794], [-85.59663069147106, 36.13229588100945], [-85.59631169174556, 36.1324888814799], [-85.59630969176, 36.13249088188485], [-85.59543269176461, 36.13300188175917], [-85.59412369102888, 36.133771881990484], [-85.59325869113621, 36.13428888168226], [-85.59309769153452, 36.134371881588855], [-85.59299169120317, 36.134423881586095], [-85.59268569046166, 36.13457388221783], [-85.5925456906802, 36.13463888210518], [-85.59199969073313, 36.13489388214052], [-85.59151169085362, 36.13511188217324], [-85.59122169028508, 36.135217882588314], [-85.59128969078041, 36.135340881994814], [-85.59146569063489, 36.135568881966066], [-85.5915566912327, 36.135698882531905], [-85.59163369112687, 36.13581388200643], [-85.59183969048632, 36.136076882243586], [-85.59187269128853, 36.13612288219683], [-85.59202269099846, 36.13632888202592], [-85.59228969068916, 36.13667988257788], [-85.59255669073868, 36.13699988293069], [-85.59298369076629, 36.13754488277308], [-85.5933346913613, 36.13800688247158], [-85.5936476920006, 36.138475882930614], [-85.59387769112982, 36.13880688244003], [-85.59399869131467, 36.13897988262228], [-85.59447869137269, 36.139685883101635], [-85.59452669219988, 36.1397078827168], [-85.59457869222832, 36.139804882816584], [-85.59473769220972, 36.140098883402075], [-85.59479069209947, 36.14019688264323], [-85.59483369246277, 36.14050488286651], [-85.59483769148797, 36.140519883250775], [-85.59507569182969, 36.14083188346015], [-85.5954196921651, 36.141283883444125], [-85.59609669279952, 36.14217288353816], [-85.59634069279683, 36.142561883550144], [-85.59645569290284, 36.14273288363868], [-85.59705769255355, 36.14362588368516], [-85.59763669295269, 36.144531883669835], [-85.59837769336585, 36.145643883950335], [-85.59889669325624, 36.14645988399254], [-85.59920069334527, 36.146923884686764], [-85.59988869443588, 36.14797488409867], [-85.600025693689, 36.148195884605684], [-85.60011069381987, 36.14832488405337], [-85.59684569278235, 36.14833888452331], [-85.5967426929684, 36.14833888463596], [-85.59059769083362, 36.148367884865905], [-85.5887566906738, 36.14837588524889], [-85.58836369052115, 36.148377885295574], [-85.58824369102594, 36.14837788505218], [-85.58823069060949, 36.14825688538383], [-85.58821569026314, 36.14819988494506], [-85.588215690383, 36.14814288522365], [-85.58818469034709, 36.148054884768065], [-85.58814669030055, 36.14800188489177], [-85.588138691037, 36.14797888465887], [-85.58803969047874, 36.14800188465067], [-85.58732268978407, 36.14819588524087], [-85.5872006898608, 36.14820388474781], [-85.58708568966743, 36.14818088516501], [-85.58699468999305, 36.148126885217614], [-85.5869256897099, 36.14805488498705], [-85.58687369060324, 36.147901885153736], [-85.58679368975882, 36.14761488487311], [-85.58666469032374, 36.14714588440689], [-85.58659069043658, 36.14690688449041], [-85.5865416900665, 36.14678388483224], [-85.58642968957419, 36.146498884401566], [-85.58638668983006, 36.146419884581135], [-85.58632369024654, 36.146303884629354], [-85.58613268967879, 36.146379884858284], [-85.58593269000605, 36.14647488476505], [-85.58580468921068, 36.14653688517696], [-85.585705689632, 36.14658588441386], [-85.58549168926719, 36.146658884597535], [-85.58536968971374, 36.14668488478057], [-85.58518668909763, 36.14669688507986], [-85.58509768960704, 36.14668788470609], [-85.5849646896206, 36.1466548848754], [-85.5847816893033, 36.146578884404654], [-85.5847226893167, 36.14654288449516], [-85.58466768957449, 36.1465098850781], [-85.58459068959691, 36.146436884383554], [-85.5845306890352, 36.146353885086185], [-85.58449168886348, 36.146269884680095], [-85.58448468981594, 36.146208884489816], [-85.58443568985736, 36.14620388502991], [-85.58433768885227, 36.14619388514531], [-85.58429168979154, 36.14619088503004], [-85.58424368946719, 36.14618788431052], [-85.58408068969202, 36.146176885166796], [-85.58359368889215, 36.1461448846887], [-85.58351568896273, 36.14613988481407], [-85.58343168899779, 36.14613988505742], [-85.58339768947405, 36.14641388475591], [-85.58339368879658, 36.14644888463089], [-85.58335268925053, 36.14673288476606], [-85.58332268880122, 36.14710588463827], [-85.58330568880682, 36.147237884740356], [-85.58329968934919, 36.14729588488971], [-85.58327368887112, 36.147512885315166], [-85.58325468949333, 36.14766988465554], [-85.58325468933039, 36.147981884887706], [-85.58327668873461, 36.14814688562633], [-85.58330568894972, 36.14824288538077], [-85.58333768966996, 36.14834288533213], [-85.58344368952156, 36.14853288568802], [-85.58359968971868, 36.14872588571825], [-85.58399668985481, 36.14919588563345], [-85.58430068956595, 36.149556885401786], [-85.5844616897319, 36.14975588579161], [-85.58453768956423, 36.149839885539556], [-85.58464868912091, 36.14998788557564], [-85.58472068941725, 36.15008388512854], [-85.58475168925563, 36.150125885618955], [-85.58504868997301, 36.15060688536702], [-85.58532368963238, 36.15107988580252], [-85.58545368977342, 36.1512818857555], [-85.58546769046018, 36.151307885401664], [-85.58574369020874, 36.151785885652714], [-85.58586569017784, 36.15205988569639], [-85.58603368965468, 36.15255988625815], [-85.58624669070112, 36.15328888569558], [-85.58626969084345, 36.15334588579235], [-85.58633769020697, 36.15358788590896], [-85.58634569047291, 36.15361688586111], [-85.58642269091902, 36.153852886491514], [-85.58658269036867, 36.15426888632969], [-85.58659769048124, 36.15431888596004], [-85.58659769064607, 36.15436088606966], [-85.58574069037353, 36.1545468864457], [-85.5849116897968, 36.15470788621857], [-85.58478269016568, 36.154731886175874], [-85.58453068956902, 36.154779886501764], [-85.58414868988675, 36.154852886132836], [-85.58353668911265, 36.154957886671646], [-85.58293068921864, 36.15502688634492], [-85.58264568965716, 36.155046886680395], [-85.58261568955906, 36.155050886321845], [-85.58241668949009, 36.15506288660738], [-85.5822966893331, 36.15506488666789], [-85.58171268927828, 36.15510588690557], [-85.581684688919, 36.15510788706177], [-85.58158568885875, 36.15511588673646], [-85.58074568864151, 36.15518088699272], [-85.58051768834383, 36.1552108868288], [-85.58022768855902, 36.15527588698367], [-85.5799526885177, 36.15535588680534], [-85.57961668901562, 36.15548188698582], [-85.57932468802677, 36.15560688691116], [-85.57886168822796, 36.15580588697683], [-85.57873168788166, 36.15585588708791], [-85.57820568840059, 36.15603888739824], [-85.57766368777371, 36.15619888717037], [-85.57757968808924, 36.156221886911865], [-85.57711468744986, 36.156351887001634], [-85.57691568785232, 36.156408886708185], [-85.57682068764765, 36.156431887010605], [-85.57618168771995, 36.15659188693693], [-85.57584768774566, 36.15665688697096], [-85.57563468713155, 36.15668888692482], [-85.57534868757074, 36.156715887275745], [-85.57490368720926, 36.15673688702983], [-85.5744896874823, 36.15672288711629], [-85.57420868711097, 36.15671388749715], [-85.57394968734837, 36.1566888874762], [-85.57370468738752, 36.15668788710199], [-85.57327968673282, 36.15666688741771], [-85.57246868688857, 36.15662688732061], [-85.57200768682104, 36.15662488737758], [-85.57167868595572, 36.156623887775304], [-85.57158368634131, 36.15663388701784], [-85.5712936864052, 36.15667188766782], [-85.57100368634083, 36.15673288755332], [-85.57077468612519, 36.156797887166604], [-85.5705146855081, 36.15690088723631], [-85.57045268553897, 36.15693188771947], [-85.57017968604106, 36.15706888736617], [-85.57010268575713, 36.15711488784223], [-85.5699676863138, 36.15720288720602], [-85.56925668552189, 36.15768688751279], [-85.56843568553263, 36.15825888769721], [-85.56801468560005, 36.15858188770589], [-85.56772968566904, 36.158830887750135], [-85.56758068571328, 36.15896588768228], [-85.5672346850936, 36.1592818877516], [-85.56689068556081, 36.15958688791956], [-85.56669268515508, 36.159735888454975], [-85.56646368496286, 36.15988388867439], [-85.56639168475279, 36.15992188810233], [-85.5662276845729, 36.16000988810161], [-85.56588368485787, 36.16015088839269], [-85.5655256849519, 36.16025388834201], [-85.56539868426366, 36.16027888869973], [-85.56522068452706, 36.160314888828715], [-85.56515968495016, 36.16032288846672], [-85.56505268492027, 36.1603498882971], [-85.5650146845556, 36.16034288831751], [-85.56458968394789, 36.16036488832572], [-85.56440468438203, 36.16035688817657], [-85.56437268478072, 36.160353888674635], [-85.56374168376614, 36.16029988842201], [-85.56331268366016, 36.16025088877225], [-85.5625206836763, 36.16016688805474], [-85.56234268374068, 36.16014488845489], [-85.56171068351992, 36.16006688805613], [-85.56166768347944, 36.16006188856671], [-85.5614286837947, 36.160032888644984], [-85.56065268303738, 36.159946888850094], [-85.56019268324953, 36.15989588883196], [-85.56000968332529, 36.159876888557214], [-85.5599256830396, 36.15986488855507], [-85.55862468243208, 36.159720888857805], [-85.55787368262551, 36.15964788833939], [-85.55760668186893, 36.159618888205436], [-85.55659168260563, 36.159509888160414], [-85.55660268239423, 36.1594598884038], [-85.55662668188394, 36.15926588851958], [-85.55671968226444, 36.158533888639255], [-85.55675168224289, 36.158289888700246], [-85.55681068166092, 36.15783988788335], [-85.55694968200685, 36.15680588838733], [-85.55699968164296, 36.15649388820793], [-85.5570736824256, 36.15604688831748], [-85.55708768184134, 36.155958888278], [-85.5571486825306, 36.15564988805745], [-85.55718668160083, 36.15558488769628], [-85.55723968196648, 36.1555428873387], [-85.5573086817914, 36.155515887508415], [-85.55738468247176, 36.15551288752317], [-85.55780468184503, 36.15554788800125], [-85.55901768275172, 36.155649888011], [-85.55950568253596, 36.155657887981285], [-85.55991068228842, 36.15564988802391], [-85.55998668288996, 36.15563888778847], [-85.56007868331382, 36.15562688776147], [-85.56017268267001, 36.15559288727772], [-85.56028368258602, 36.15552788791774], [-85.56038768268807, 36.155435887582804], [-85.56071368259384, 36.15503288748855], [-85.56084268294615, 36.15489188745381], [-85.56084468330495, 36.15489088713332], [-85.56107068362938, 36.1546208875837], [-85.56159568338491, 36.15406488749072], [-85.56167268333701, 36.15398288736788], [-85.56204468316152, 36.15357988751556], [-85.5625656838805, 36.152994887009584], [-85.56268368331526, 36.152871887251685], [-85.56285568295779, 36.1526938866909], [-85.56297768365026, 36.15257888713255], [-85.56303868348203, 36.15251388708038], [-85.56319868303504, 36.15231588703118], [-85.563244683034, 36.152242887133326], [-85.56329768387697, 36.152166887046675], [-85.56347268322789, 36.151869886919826], [-85.56354968389162, 36.15173588689046], [-85.56398468317309, 36.150915886325514], [-85.56409868326143, 36.150617886110616], [-85.5641826842726, 36.15033988618548], [-85.56429068328588, 36.150060885924475], [-85.5643146839659, 36.15002488640626], [-85.564525683525, 36.14956588634672], [-85.56456368389615, 36.14948888611225], [-85.56473168425754, 36.14916488602326], [-85.56483368418574, 36.14901588648482], [-85.5648466842914, 36.14899688627756], [-85.56499168419644, 36.1488178857191], [-85.56500668354387, 36.148786886203226], [-85.5650146837553, 36.148733886193405], [-85.56500268424756, 36.148684885950644], [-85.56499868339425, 36.148664886233355], [-85.56496068422521, 36.148569886010904], [-85.56485368413972, 36.1483978862216], [-85.5646706832757, 36.14813488567679], [-85.56460968326724, 36.14798988551543], [-85.56455668378278, 36.14782188625613], [-85.56451068326086, 36.14757788606808], [-85.56451068331411, 36.1474828858155], [-85.56453368388236, 36.14736388616593], [-85.56455668323986, 36.14729188598716], [-85.56460568316528, 36.14720988557916], [-85.56473968371559, 36.146983885729846], [-85.56482368337693, 36.14684588588768], [-85.56509868377078, 36.14637588565882], [-85.56514568356941, 36.14630888548837], [-85.56521268397687, 36.14621588589174], [-85.56528868343464, 36.1460898859145], [-85.56541868390819, 36.14587288519091], [-85.5654276840816, 36.14585288543094], [-85.56546468434989, 36.14578088590931], [-85.56548068409533, 36.14573588532773], [-85.56552568406713, 36.14561388507515], [-85.56556368410934, 36.145513885350475], [-85.56566268395619, 36.145189885772936], [-85.56569568399442, 36.14507188527302], [-85.56574668348894, 36.14489588533178], [-85.56575468401473, 36.144804885637924], [-85.5660696834406, 36.14483788540095], [-85.56701768365694, 36.144938884996314], [-85.56733368428803, 36.144972885439444], [-85.56786668471814, 36.14502488535819], [-85.5680586845773, 36.14503988563228], [-85.56826468455755, 36.1450568851066], [-85.56849368410685, 36.145056885010206], [-85.56864568515304, 36.14503788479026], [-85.5687506844077, 36.1450118848985], [-85.56895468459275, 36.14492488483887], [-85.56946268472564, 36.14460288508147], [-85.56972468537535, 36.144441884986996], [-85.57002268544267, 36.144245885322725], [-85.57012568510466, 36.144178885360866], [-85.57036268487684, 36.144016884534764], [-85.57051468484075, 36.14390788450671], [-85.57058368514409, 36.14386288441615], [-85.57062168474953, 36.14383188491236], [-85.57078168469106, 36.143724884957635], [-85.57106968516287, 36.14355488435794], [-85.57161368563688, 36.143236884262734], [-85.57182768514384, 36.143087885093976], [-85.57208668554536, 36.14287788421075], [-85.57223968532095, 36.142774884289246], [-85.57238768533732, 36.14268988433437], [-85.57239168514404, 36.14268788420551], [-85.57268968562246, 36.14255788489587], [-85.57287268579354, 36.142484884122005], [-85.5730586853161, 36.142415884438556], [-85.57361768585402, 36.14221188478084], [-85.57374568556976, 36.14216588456967], [-85.57380468633616, 36.142142884780455], [-85.57410868581479, 36.142023884039254], [-85.57423068565201, 36.14197088462204], [-85.57427268607044, 36.14194988398038], [-85.57452068641726, 36.14183288456486], [-85.57563568653234, 36.14128188440359], [-85.57608968668143, 36.14105888401898], [-85.576220686785, 36.14099388425807], [-85.57662068656086, 36.14080188372283], [-85.5767716869054, 36.1407308835892], [-85.5771376869801, 36.14056288415651], [-85.57741968687678, 36.14045588378738], [-85.57759468707198, 36.140417884108196], [-85.57782368689776, 36.14038688391471], [-85.57806068680506, 36.140379883741666], [-85.57830968668489, 36.1403908834473], [-85.57889968742613, 36.14041788355881], [-85.57891768699969, 36.14019888377186], [-85.57892268729412, 36.140146883495284], [-85.5789456876901, 36.13994488348792], [-85.5789696870558, 36.13960688397001], [-85.57897368698768, 36.139544883472205], [-85.57897568684643, 36.13951788344284], [-85.57899168752022, 36.139326884022275], [-85.5787826870396, 36.13931488346772], [-85.57815868752759, 36.13928088370223], [-85.57795068751442, 36.139269883793986], [-85.57759468655664, 36.13924988376327], [-85.57652668627964, 36.13919188356741], [-85.5762056863602, 36.13917488358975], [-85.57617168621752, 36.13917288324132], [-85.57468068577714, 36.13908988343871], [-85.57412768576657, 36.13904488342971], [-85.57402468639455, 36.13903688349398], [-85.57324668604373, 36.13894788408589], [-85.57275068595682, 36.138876883462636], [-85.57194968484524, 36.13874288376495], [-85.57120968492076, 36.13859088387147], [-85.57056068495606, 36.13843788391346], [-85.56986668479587, 36.13825088418872], [-85.56892168401252, 36.13796188374857], [-85.56814768362582, 36.137714883629414], [-85.56630868397171, 36.13713088407605], [-85.56619668346457, 36.13709588401036], [-85.56616768355232, 36.13708588394539], [-85.56615968364531, 36.137083884132366], [-85.56612068391112, 36.13707188335982], [-85.56607968304984, 36.137058883995834], [-85.56605168322291, 36.137049883387604], [-85.5659446829385, 36.13701688383416], [-85.5658176828572, 36.13697688335726], [-85.5636996826582, 36.13630088375001], [-85.5628706820936, 36.13604188384312], [-85.56245068220649, 36.13591988323133], [-85.561863682178, 36.13577188370447], [-85.56121468188682, 36.135618883683016], [-85.56036768115128, 36.13544388375795], [-85.55962768178289, 36.13532088344842], [-85.55922368102576, 36.13526788330159], [-85.55845268107306, 36.13517688330065], [-85.5579266810455, 36.13513488362025], [-85.55705668105783, 36.1350808834139], [-85.55662168046152, 36.135069883672834], [-85.55556868066789, 36.13506988384183], [-85.55483668045588, 36.13509588388355], [-85.55415667974486, 36.13514488337302], [-85.55391367947611, 36.13516188411157], [-85.55230767970656, 36.13528888432818], [-85.55188967920022, 36.13532188401766], [-85.55067167843687, 36.135416884332066], [-85.54716967754884, 36.13569188430529], [-85.54702067823895, 36.13570088461231], [-85.54599167741895, 36.13576788448485], [-85.54580267743363, 36.13577788456447], [-85.54560567780092, 36.13578788396133], [-85.54501567742305, 36.13581788398852], [-85.5448196773508, 36.13582888446514], [-85.54454467683802, 36.13583888434085], [-85.54372267674194, 36.13586988474492], [-85.54344867680217, 36.13588088450057], [-85.54331267685161, 36.13588588457815], [-85.54294567633372, 36.13589388413353], [-85.54256167696595, 36.13589988402512], [-85.53990067581427, 36.13594288479968], [-85.53901367529, 36.135957884598554], [-85.53893267553467, 36.135958884608975], [-85.5384556752354, 36.135969884782746], [-85.53799467536516, 36.135975884683084], [-85.53493867439072, 36.136019884570146], [-85.53490367459338, 36.13602088523799], [-85.5339206744027, 36.13603888514561], [-85.53360167447096, 36.13604288510386], [-85.53264767365171, 36.13605688511781], [-85.53232967318235, 36.136061885079805], [-85.5319346736141, 36.13606788512097], [-85.53188467367139, 36.136067884904264], [-85.53055067319299, 36.13608988540719], [-85.53010667257978, 36.136097885156566], [-85.52999067300055, 36.13609888524483], [-85.52964467230252, 36.13610388531105], [-85.52952967303176, 36.136106885142034], [-85.52933667318455, 36.136108884831785], [-85.52885967305951, 36.13611588514614], [-85.52876067267336, 36.13611688464124], [-85.52856867195962, 36.13612088509383], [-85.52795867238902, 36.136129884707366], [-85.52613167218024, 36.136157885331286], [-85.52580667179642, 36.13616388516832], [-85.52552267166453, 36.136164884774374], [-85.525359671324, 36.1361668852232], [-85.52489367171587, 36.136174885593725], [-85.52487267153012, 36.13617488490983], [-85.52474367163194, 36.13617488513996], [-85.52471067153547, 36.13617588532115], [-85.5244066715745, 36.13618088530918], [-85.52424467135839, 36.13618488538223], [-85.523496671349, 36.136195884970824], [-85.52319367117322, 36.13620088495044], [-85.52100467087382, 36.136232885278325], [-85.51964766981126, 36.136253885333204], [-85.5172386694688, 36.136288886050174], [-85.51675166883224, 36.13628888583502], [-85.51615466917859, 36.13627088605811], [-85.51553966863491, 36.13622388605615], [-85.5144446688298, 36.13611488593328], [-85.51404266863294, 36.13607588590904], [-85.5125386676405, 36.135931885524926], [-85.51238666733936, 36.135917885806094], [-85.51226566780237, 36.13590588584055], [-85.51109266729077, 36.135792886198075], [-85.50757766628385, 36.13545388554216], [-85.50640566656736, 36.13534088580608], [-85.5062066663109, 36.13533888543943], [-85.50568866573096, 36.1352998856168], [-85.5052966658002, 36.13527188553267], [-85.50501766582012, 36.135254886253946], [-85.50353666469871, 36.13519688584068], [-85.50330766473871, 36.13518788603816], [-85.5030106650639, 36.13518388618517], [-85.50289466520866, 36.13518488635342], [-85.50281966450427, 36.13518388603969], [-85.50284466555401, 36.135123885882074], [-85.50288266520735, 36.135034886282156], [-85.50291266554547, 36.13494388626119], [-85.50293366516773, 36.13488288632143], [-85.50300566510673, 36.13469888620501], [-85.50308666448164, 36.13449388590638], [-85.50322066520918, 36.13414688594349], [-85.50329266492656, 36.133962885625316], [-85.50345266535385, 36.13400488592745], [-85.50393566493959, 36.134124885579745], [-85.50456066508731, 36.134280885998216], [-85.5052786659445, 36.13447488582431], [-85.50545866609028, 36.134511885962716], [-85.50587766634357, 36.13455788612423], [-85.50622666611875, 36.134596885778066], [-85.50653866604152, 36.13462788582821], [-85.50691766569015, 36.13466688541022], [-85.50728266613906, 36.13469288544745], [-85.50761266629274, 36.13472988561096], [-85.50789266633984, 36.134761885335976], [-85.50847366631642, 36.13481988579165], [-85.50882966652499, 36.13482788598546], [-85.50902666658071, 36.134794885209594], [-85.50917566643113, 36.13474888555804], [-85.50928466655651, 36.134707885448734], [-85.5093456669131, 36.13465688524473], [-85.50941266668012, 36.13462388592005], [-85.5094956664471, 36.13455888570939], [-85.50967066721492, 36.134394885644866], [-85.50972266642243, 36.13431188550802], [-85.50980466692343, 36.134070885821096], [-85.50982566670672, 36.13393788579121], [-85.50982566700567, 36.13378488530893], [-85.50985066646494, 36.1335978854372], [-85.50985566652045, 36.13339788564979], [-85.50985766737664, 36.13338188560888], [-85.50989766643953, 36.13316988532454], [-85.50991766660412, 36.132936885545185], [-85.50991466646141, 36.13281888496661], [-85.50996066730427, 36.132463885421956], [-85.5099836668363, 36.13231188496742], [-85.51001266655979, 36.132118885333654], [-85.51006066736224, 36.13189388521297], [-85.51017466687419, 36.13142488459152], [-85.51028466702986, 36.13097688495903], [-85.51033066682177, 36.13074788486741], [-85.51052066701014, 36.1299538842033], [-85.51079166705357, 36.128773884514814], [-85.51094866638184, 36.128096884020195], [-85.51098266731692, 36.12788688392695], [-85.51099866740472, 36.1277798844266], [-85.51101666709116, 36.12763988435374], [-85.51103366716599, 36.12744788378632], [-85.51104366652828, 36.127348883870674], [-85.51104366633295, 36.127306884216985], [-85.51106266642104, 36.1271398836983], [-85.5110776670423, 36.126926883730604], [-85.51116366732154, 36.12612888358896], [-85.5112006667908, 36.1257888840651], [-85.5112266666865, 36.12569288343221], [-85.51138366719454, 36.12537188367693], [-85.51139166697315, 36.1253568839437], [-85.5114256665543, 36.12530288379028], [-85.51153166648419, 36.12508888317761], [-85.51157266677473, 36.12502188359551], [-85.51165566741442, 36.12465788384098], [-85.51168866709045, 36.124386883754525], [-85.51169066715597, 36.12436188364885], [-85.51172266678951, 36.12400688371718], [-85.51174966646852, 36.12365488363627], [-85.51175766665057, 36.123552883290714], [-85.51175666735986, 36.12320088340002], [-85.51174166717581, 36.12303088348338], [-85.51164366645813, 36.12260988322726], [-85.51163966642517, 36.12259088285422], [-85.5116236664796, 36.1224698831588], [-85.51160866725331, 36.122259883390406], [-85.51161366675596, 36.122204883394666], [-85.51164466661298, 36.1220688831985], [-85.51166966646734, 36.121990882847754], [-85.51168066634574, 36.12196088290844], [-85.51173866717339, 36.12186688263921], [-85.51179666685167, 36.12179888284341], [-85.51195166731921, 36.1216568826441], [-85.51207266694875, 36.12158488273182], [-85.51228066633645, 36.12145088247384], [-85.51239866669037, 36.12137588242273], [-85.51244666648766, 36.12133088265255], [-85.512455666602, 36.12131388247204], [-85.51246966660794, 36.12129888257146], [-85.51248566651059, 36.12127188233578], [-85.51251766725274, 36.12125988247773], [-85.51253966702238, 36.12124588285317], [-85.51259266731114, 36.12119588320138], [-85.51260566645091, 36.12117888294505], [-85.51266166693048, 36.12111388306161], [-85.51274166703391, 36.120974882831085], [-85.51284466733283, 36.120821882396854], [-85.51286166677225, 36.120794882540515], [-85.51294466693267, 36.12066488257033], [-85.51341766715605, 36.12067688292755], [-85.51483666806998, 36.12071588218232], [-85.51530966717576, 36.12072888272464], [-85.51528266765692, 36.119235881966944], [-85.51606266823441, 36.11921988182535], [-85.51932566908937, 36.119155881628416], [-85.51934766800542, 36.11559688119524], [-85.51936266891856, 36.113323880933905], [-85.51962566844993, 36.11330588047049], [-85.51982566864385, 36.11329488111358], [-85.51985366861237, 36.11329188051706], [-85.52011466818117, 36.11326788122885], [-85.52023166885937, 36.11325288099716], [-85.52046566874773, 36.11321188116718], [-85.52061166817272, 36.113176880554505], [-85.52067966881934, 36.1131538810839], [-85.52088366914579, 36.11307388071128], [-85.52110866886143, 36.11296088068967], [-85.52125666871993, 36.112879880436374], [-85.52142166916855, 36.1127918806502], [-85.52161166918293, 36.112704881059614], [-85.52170266918161, 36.112669880879395], [-85.52189466892747, 36.112606880411], [-85.52191266957573, 36.11260188035285], [-85.52211466961643, 36.112558880360545], [-85.52229766928545, 36.112539880234394], [-85.52257166938851, 36.11253188039462], [-85.52264266938506, 36.112529880317844], [-85.52279366896482, 36.11252488099551], [-85.52294766931897, 36.11251588092739], [-85.5230826692229, 36.112509880645874], [-85.52317466943282, 36.112493880146175], [-85.52328166964726, 36.11246388095438], [-85.5233496698476, 36.112428880554276], [-85.52338866947512, 36.11239988059499], [-85.5233956693163, 36.112394880105384], [-85.52347266908983, 36.112318880664155], [-85.5234946698182, 36.11228788029772], [-85.52353366960078, 36.112230880733726], [-85.52353666903554, 36.11221988004195], [-85.52354866939343, 36.1121848809084], [-85.5235866698998, 36.112116880159284], [-85.52363866928084, 36.11200288011206], [-85.52363966937801, 36.11200188005419], [-85.52367666939547, 36.11193288032768], [-85.52368766933574, 36.11191188016172], [-85.52374666953469, 36.111799880576406], [-85.52382366969309, 36.11170088065369], [-85.52389966943397, 36.11163588051217], [-85.52393766950735, 36.11161288064554], [-85.52402966994448, 36.11157088073948], [-85.52432666932239, 36.1114868802926], [-85.52443167005768, 36.11143787986256], [-85.5245736701065, 36.111364880333355], [-85.52460866981453, 36.11134188014457], [-85.52470066945865, 36.11130788024219], [-85.52475366953556, 36.11129988037997], [-85.5247566700077, 36.11129888008348], [-85.52485267001161, 36.11128888026037], [-85.52501366999472, 36.111299879846385], [-85.52522666961086, 36.11133088017848], [-85.52528167028386, 36.111345880099876], [-85.52532666973138, 36.11135388017594], [-85.52537967025032, 36.11135788036773], [-85.52553166996852, 36.11135388016154], [-85.52576266958715, 36.11132788053003], [-85.52588267065354, 36.11130788010194], [-85.52603566998016, 36.11127688042701], [-85.52622667021764, 36.11122388037756], [-85.52691667015935, 36.11102188025324], [-85.52717967051201, 36.11093388021547], [-85.5272866707756, 36.1108918798498], [-85.52743267065907, 36.11084287977138], [-85.52766867059876, 36.11077788037642], [-85.5277906701399, 36.110750880355205], [-85.52809567065017, 36.110723879860664], [-85.52853767078305, 36.11070888007865], [-85.52857067134994, 36.110707879788826], [-85.5287666709756, 36.110704880252584], [-85.52949867089177, 36.11070387969723], [-85.52987367178596, 36.11069787953005], [-85.5300266710728, 36.11068987955461], [-85.53055867185134, 36.11067887946036], [-85.53079667187453, 36.11067488016676], [-85.53123167156964, 36.1106628796386], [-85.53161367211091, 36.1106558801358], [-85.53208167152081, 36.11063787970404], [-85.53243467180125, 36.11063287945352], [-85.53261467158968, 36.110635879846235], [-85.53278167170362, 36.11063888008374], [-85.53290567226036, 36.11064788001633], [-85.53329867174918, 36.110685880010706], [-85.53360367260667, 36.110723880046024], [-85.53422167237129, 36.110788879924236], [-85.53439167280358, 36.11080287952471], [-85.53476367266076, 36.110854879515784], [-85.5348636724845, 36.11086387948391], [-85.53495867303724, 36.110883879841694], [-85.53502367309655, 36.110893879413126], [-85.53505967266781, 36.11089988001017], [-85.53524467317257, 36.11093387938636], [-85.5353056730461, 36.11094587951749], [-85.53632067360047, 36.11121687978417], [-85.53644267347839, 36.11125488004851], [-85.53674867364347, 36.111334879326954], [-85.5370606733928, 36.11141887993049], [-85.5373656732526, 36.111505879314954], [-85.53777067323631, 36.111607879691555], [-85.5379756733708, 36.111643879308154], [-85.53817267363696, 36.11167387977926], [-85.53877767370541, 36.111750879798194], [-85.53999867435968, 36.11187787928536], [-85.5401316743954, 36.11189187926745], [-85.54047767402467, 36.11193087979787], [-85.54064767420353, 36.111941879270326], [-85.54094067397591, 36.1119708798804], [-85.54132567472064, 36.11202187981916], [-85.54153867490723, 36.112046879541026], [-85.54167367463813, 36.1120768792324], [-85.541851674978, 36.112127879315736], [-85.54201967507595, 36.111952879237705], [-85.54207267430044, 36.111879879897174], [-85.54215367496434, 36.11178987995791], [-85.54224067507069, 36.111696879896826], [-85.54225967437606, 36.111678879878724], [-85.54239367522915, 36.111559879987176], [-85.54257767484428, 36.11141787917836], [-85.5426146750352, 36.11137987984898], [-85.54264567483125, 36.111337879579935], [-85.5426946753944, 36.11123887957978], [-85.54273667472555, 36.111059879436375], [-85.5427586751848, 36.11092087902146], [-85.54279067483358, 36.11057687913409], [-85.54285767492291, 36.110055879393045], [-85.54287467544466, 36.10992887922026], [-85.5428876745121, 36.10976687953582], [-85.54293467447886, 36.10945387944302], [-85.54297367455497, 36.109197879146016], [-85.54304567494853, 36.10873687897201], [-85.54307767546409, 36.10842787850422], [-85.54309467523699, 36.10827887930302], [-85.54311067473415, 36.10817187879912], [-85.54313367484772, 36.108030878498234], [-85.54315567489944, 36.10782487886111], [-85.54314467493396, 36.10772987913831], [-85.54311667538798, 36.10767287899151], [-85.543041674357, 36.10759087905657], [-85.54298067529396, 36.10754887885053], [-85.54291967457384, 36.10752087883963], [-85.54284167504056, 36.10749387875695], [-85.54269867472675, 36.10745887860321], [-85.54231567449997, 36.10741287899566], [-85.54184367457015, 36.10737087879422], [-85.54169667488979, 36.10736387894744], [-85.5415936743681, 36.10734487910146], [-85.54154867489422, 36.10732487844548], [-85.54151967401839, 36.107306879013514], [-85.5414836739894, 36.10727287896243], [-85.54145567403474, 36.10722887914998], [-85.54144567452228, 36.10718987858697], [-85.54144267456914, 36.10713487835946], [-85.54146267453797, 36.106966878571356], [-85.5414676744268, 36.10693787868054], [-85.54148767418997, 36.10683087823602], [-85.54154867452533, 36.106349878341724], [-85.54159667435731, 36.10608087840679], [-85.54166867387693, 36.105448878178024], [-85.54167667468037, 36.105352877960506], [-85.5417146743822, 36.10510487812805], [-85.54181167414072, 36.10437087831135], [-85.54184567450744, 36.10415487790966], [-85.54186467478003, 36.10393887818699], [-85.54188267430885, 36.103789878275954], [-85.54188867426795, 36.10369487801971], [-85.54188967452892, 36.1035418777006], [-85.54189867455683, 36.10346587758279], [-85.5418976737143, 36.10321887764151], [-85.54191267404745, 36.10314387818163], [-85.54194167455975, 36.103068877819005], [-85.54197267419406, 36.10303487817464], [-85.54203967479827, 36.10298587759178], [-85.5421066738741, 36.10294887820945], [-85.54225167394543, 36.102882877459614], [-85.54246367428547, 36.10282487801905], [-85.54256567434358, 36.10280487743863], [-85.54259967387713, 36.10280587791879], [-85.54265867487487, 36.10281887801294], [-85.54274767473315, 36.10285087783014], [-85.54280067461094, 36.102877877881774], [-85.54289667505839, 36.10295187783684], [-85.54294167451681, 36.10299987761605], [-85.54299667457306, 36.10307187810537], [-85.54304567487209, 36.103145878273025], [-85.5431166748842, 36.1032378780095], [-85.54316567411, 36.10328487802932], [-85.54329267410115, 36.103377877480675], [-85.54332167512013, 36.10338987768999], [-85.54337367490679, 36.10339987764586], [-85.54425367454863, 36.103482878193844], [-85.54456967501287, 36.10351787748807], [-85.5447736748889, 36.10354487810667], [-85.5448876748322, 36.10355287809042], [-85.54493767542593, 36.10355887812462], [-85.54541067508669, 36.10358687797142], [-85.54547367477751, 36.10358987780317], [-85.54668467594281, 36.103651877955414], [-85.54697467521247, 36.10365187804124], [-85.54722667620167, 36.103666877823734], [-85.5474096758568, 36.10370087817158], [-85.54781367612675, 36.10388787747997], [-85.54795467563034, 36.10393687787731], [-85.5480006758561, 36.10394587817672], [-85.54804867589044, 36.103957878150894], [-85.54823367557971, 36.103967877756325], [-85.54858767569873, 36.10396187784005], [-85.54900767587264, 36.10395687807326], [-85.5499176767177, 36.10393687812633], [-85.55035567709115, 36.103934878062155], [-85.55094567651784, 36.103933877782765], [-85.55117267679599, 36.103928877204886], [-85.55156367754405, 36.10392287737045], [-85.55185467728484, 36.10392287754951], [-85.55208267768748, 36.10392287738726], [-85.55212167675202, 36.104012877373655], [-85.55224067776727, 36.10428587778111], [-85.55228067777199, 36.10437687731977], [-85.5524716778588, 36.10438087765625], [-85.55284767738354, 36.104403877443886], [-85.5536926774416, 36.10445687804604], [-85.55454967832887, 36.104498877466085], [-85.55469167819072, 36.1045058774542], [-85.55482867843989, 36.10450587762889], [-85.55511867849457, 36.10450587795061], [-85.55527667835257, 36.104504877167614], [-85.55558767872434, 36.10451287771295], [-85.55562267869328, 36.104513877303255], [-85.55587867879919, 36.10452987773103], [-85.55616967851977, 36.10452887790226], [-85.55624767871143, 36.10451787749993], [-85.55627067893867, 36.10450487757683], [-85.5562916786997, 36.10449887761685], [-85.55631667799395, 36.10448687733148], [-85.55634667881775, 36.10446187758306], [-85.55638567842824, 36.104418877537], [-85.5564156787736, 36.10437287741685], [-85.55644767845132, 36.104283877224326], [-85.55656267839863, 36.103873877085526], [-85.55669067905554, 36.10342287741244], [-85.55688767867034, 36.10338687758779], [-85.55701567824183, 36.103367876911356], [-85.5571156782564, 36.103353877137], [-85.55727967855745, 36.10335387725055], [-85.55733867911489, 36.10336087764332], [-85.55743067858744, 36.103388876894456], [-85.55772767867236, 36.10355687696251], [-85.55792867883855, 36.10366587737024], [-85.5580176788744, 36.10371387774384], [-85.55817367938381, 36.103795877672475], [-85.55822267919467, 36.103816877278014], [-85.55832467910568, 36.103747876977906], [-85.55845267949702, 36.10363887725325], [-85.5585306788471, 36.103563877511256], [-85.55861667917787, 36.103413877664195], [-85.55866867919806, 36.10328387675842], [-85.55873667933334, 36.103186877379414], [-85.55883167906973, 36.103077877260105], [-85.55903967944023, 36.10292887670744], [-85.55924767920766, 36.102833876840556], [-85.55931567965493, 36.1028058770187], [-85.55940167941496, 36.10277287691295], [-85.55946967971701, 36.10273887728757], [-85.55977567901373, 36.10250687726909], [-85.55987167968382, 36.10242587684836], [-85.55993967984622, 36.10232987718186], [-85.55995667918502, 36.102295876827476], [-85.55999367983048, 36.10223587677205], [-85.56004267895139, 36.10215887666735], [-85.56008567890885, 36.102103877052706], [-85.56011067896395, 36.10208287685664], [-85.5602136791989, 36.10202887653251], [-85.56024967962526, 36.10201487688726], [-85.56043367998302, 36.1019618764991], [-85.56054867930352, 36.101945877274524], [-85.56067067938939, 36.10191587706651], [-85.5608576799982, 36.101861876644364], [-85.56102668007078, 36.10180787710523], [-85.56129067960781, 36.10166587651515], [-85.56152468017748, 36.101515876607394], [-85.56155368021498, 36.10150287675882], [-85.5616436803091, 36.10144187649445], [-85.56175068002446, 36.1013868763722], [-85.56186067966732, 36.101312876682584], [-85.56203067953074, 36.1011698767968], [-85.56210867968846, 36.10109387701886], [-85.56212968004773, 36.101052876338294], [-85.5621616794688, 36.10095687626433], [-85.5621616797633, 36.10090887671852], [-85.56213768043824, 36.10082587684916], [-85.5621036796452, 36.10077687691384], [-85.56207867992453, 36.10075387688967], [-85.56198767947667, 36.10064587682676], [-85.56191367983705, 36.100479876279486], [-85.56189268015308, 36.10038687690125], [-85.56187367987384, 36.10021187600174], [-85.56187467984323, 36.1001638764733], [-85.56188867944492, 36.10007087625638], [-85.56193667935634, 36.099937876142334], [-85.56197067936112, 36.099889876611606], [-85.56197967933481, 36.0998618763618], [-85.56209167932839, 36.09971187644133], [-85.56211668004032, 36.099683876601425], [-85.56223868022006, 36.0994848759312], [-85.56230767999548, 36.09933487651817], [-85.56234767943931, 36.09917387642551], [-85.56239367998484, 36.09882987640872], [-85.56246167958774, 36.09845587644494], [-85.56250567987473, 36.097977876174596], [-85.56255668027649, 36.09759687556832], [-85.56254968017439, 36.09743787599125], [-85.56257467979322, 36.097159875850394], [-85.56262868010211, 36.09683087551863], [-85.56267267957581, 36.096471875395736], [-85.56269567951561, 36.09628787531997], [-85.56274967963019, 36.09597787534835], [-85.56276667950574, 36.095915875837484], [-85.56280268025284, 36.095744875846236], [-85.56285168007666, 36.09556987537775], [-85.56290367981049, 36.095453875401674], [-85.56296467944867, 36.095350875430235], [-85.56307567942342, 36.09521987492423], [-85.56317867998604, 36.09504287537205], [-85.56322267998875, 36.09494587559395], [-85.5632226800619, 36.09488487521843], [-85.56320667950264, 36.09478787530342], [-85.5631666800821, 36.09468487524243], [-85.563107680234, 36.094619874897326], [-85.56281667956073, 36.094351875164364], [-85.56279167953144, 36.09433087515301], [-85.56258967990318, 36.094164874736656], [-85.56249867981995, 36.094060875579906], [-85.56248067980538, 36.094026874900514], [-85.56245767961838, 36.09399887472981], [-85.56237767926089, 36.09384687520118], [-85.5623306798167, 36.093636875446066], [-85.56231767940683, 36.09360587517435], [-85.56228167998654, 36.09343687515825], [-85.56226967904435, 36.09340587490259], [-85.56221867940287, 36.09309287466351], [-85.56214867966055, 36.09290287510857], [-85.56213767940734, 36.09284487472675], [-85.56208367910746, 36.09273087482377], [-85.56205167960655, 36.09262687503968], [-85.56196867894245, 36.09242087481888], [-85.56194467931307, 36.092344874862505], [-85.56191667934921, 36.09222387455113], [-85.56183667929224, 36.092001875018894], [-85.56180667877067, 36.091916874802955], [-85.56167467869301, 36.09159887431172], [-85.56163367864636, 36.091550874315004], [-85.56159967952492, 36.09152387493629], [-85.5615916790227, 36.09149587503751], [-85.56157467878073, 36.09147787441497], [-85.56156567906244, 36.091454874713556], [-85.56152467934982, 36.09141287441108], [-85.56150067867229, 36.09135087461802], [-85.56150067936848, 36.09126787426565], [-85.56152767890299, 36.091213874814635], [-85.56157467922297, 36.09115187453331], [-85.56165467948851, 36.09109787487884], [-85.56168967888965, 36.09109087488971], [-85.56176567884741, 36.09105687414958], [-85.56187667930494, 36.091018874540474], [-85.56197767980002, 36.09096887418724], [-85.56202067955257, 36.09092787493611], [-85.56205567975123, 36.09088687455466], [-85.56208167879397, 36.090845874819856], [-85.56220067903764, 36.09068887455987], [-85.56237167905729, 36.09053887469121], [-85.56259367906421, 36.09036787441352], [-85.5626836793892, 36.09031387429596], [-85.56271367896568, 36.090300874168086], [-85.56286668001451, 36.09020587482039], [-85.56304467944715, 36.09010987443572], [-85.5633166790733, 36.08998587391406], [-85.56350467980444, 36.089865874082136], [-85.56357168008824, 36.0898118738544], [-85.56366567925312, 36.08970887387337], [-85.56374368006242, 36.08957987386639], [-85.56383867971161, 36.08944887409863], [-85.56390368005785, 36.08936687399588], [-85.56398467970689, 36.089278874296625], [-85.56423567952054, 36.08908787396923], [-85.56438068034446, 36.08899187401084], [-85.56464067968584, 36.08877687396], [-85.56483268045007, 36.08863787425146], [-85.5651016802034, 36.08843387410113], [-85.56531067964414, 36.08828387368355], [-85.56537868003782, 36.0882298742431], [-85.56549468040649, 36.08812387428646], [-85.56560467960621, 36.08801387350145], [-85.56567367963373, 36.087928873899564], [-85.56593968069947, 36.08764287367167], [-85.56615268023599, 36.08744087403922], [-85.5662126805583, 36.08737887362616], [-85.56622968055906, 36.08735587405685], [-85.56632367984048, 36.08726287332947], [-85.56635468032434, 36.087225873338795], [-85.56645168007628, 36.087126873649794], [-85.56646968030874, 36.08710287363029], [-85.56658068022577, 36.086989873413614], [-85.56667568049528, 36.08687687327456], [-85.56668867997938, 36.086857873506595], [-85.56684768056945, 36.086644873254556], [-85.56691568005391, 36.086561873747186], [-85.56705168044667, 36.086435873774576], [-85.56723168100145, 36.08625887383236], [-85.56731767998089, 36.086166873747416], [-85.56743768064116, 36.08604787374154], [-85.56757368032532, 36.08592087366215], [-85.56764168090417, 36.08588087321952], [-85.56775268061432, 36.085846873420024], [-85.56791668064463, 36.08583087341282], [-85.56794668026207, 36.08584087322982], [-85.56798968065792, 36.08582787330682], [-85.56805668075994, 36.08582887311867], [-85.56828968070067, 36.08580587358164], [-85.56837868063525, 36.08578187331002], [-85.56848068077238, 36.08573187286532], [-85.56865068039339, 36.08563987320839], [-85.56868568098126, 36.08561287296614], [-85.56875268128856, 36.08557187331912], [-85.56876768091698, 36.08555287326725], [-85.56879568077801, 36.0855178735375], [-85.56880868051483, 36.085479873012694], [-85.5688506810957, 36.085295873486366], [-85.5689086808543, 36.08490187265802], [-85.56893268136842, 36.08463087332273], [-85.56893668121899, 36.08434187263589], [-85.56896868122877, 36.0842018732191], [-85.56904268075508, 36.08398487267301], [-85.56907368047948, 36.08386587279236], [-85.5691246808811, 36.083680872416394], [-85.56915468124085, 36.083493872763185], [-85.56919568074363, 36.08334487290948], [-85.56922468085119, 36.08321287224504], [-85.56925068077193, 36.082831872885116], [-85.56930068103718, 36.08251187234521], [-85.56932468109655, 36.08232987213072], [-85.56932568028958, 36.082192872091255], [-85.56931768114072, 36.08186487283721], [-85.56931868073957, 36.08171387247894], [-85.56931468067359, 36.0816908722381], [-85.56932068121232, 36.08161787199717], [-85.56931768029706, 36.08155987275914], [-85.569293680383, 36.08140787190171], [-85.56926768108556, 36.081282872206636], [-85.56924468048906, 36.08121587264094], [-85.56923368098767, 36.081156872348416], [-85.5691066806526, 36.08080187204579], [-85.56900768019506, 36.080593872173104], [-85.56889268073559, 36.08037387228623], [-85.56878468048453, 36.08019387218855], [-85.56875968038202, 36.08016687178207], [-85.5687426799591, 36.080131872383674], [-85.56862668066465, 36.07998687223575], [-85.56844268019326, 36.07981687162033], [-85.56833368048984, 36.079704871860386], [-85.56829267999743, 36.07965387185265], [-85.56810068057419, 36.07946587165015], [-85.56799567986188, 36.079382871611855], [-85.56790768022873, 36.07933387240346], [-85.56778268004, 36.07927487159109], [-85.5677306803836, 36.07925087182771], [-85.5677056797978, 36.07924387215634], [-85.56762968053503, 36.07920787151444], [-85.56758768007643, 36.0791948723885], [-85.56754567988683, 36.07917387178153], [-85.5674276800017, 36.07913187201231], [-85.56722568013744, 36.07904787160493], [-85.5668056799577, 36.07890687198117], [-85.56668767988741, 36.07885487189939], [-85.56656267947244, 36.07878787194516], [-85.56650267925876, 36.07876787155684], [-85.56645867981491, 36.078744871573434], [-85.5663766792656, 36.07871787206054], [-85.56625067987031, 36.07869687167404], [-85.56619167964683, 36.07869587168163], [-85.56616667952653, 36.07870287200788], [-85.56614168014748, 36.07866887178918], [-85.56612468008828, 36.07863387200493], [-85.56608967958815, 36.07850087190466], [-85.56608167923292, 36.0784278718383], [-85.56606168003955, 36.07821387185455], [-85.56603567958615, 36.0780318714561], [-85.56599467985642, 36.07782487171165], [-85.5659826798237, 36.07779387170761], [-85.56594767948609, 36.07761787196858], [-85.56594467967237, 36.07756787135229], [-85.56592967936083, 36.077277871713875], [-85.56590267938385, 36.0770598718362], [-85.56588667994602, 36.07698487185087], [-85.5658716789472, 36.076887871859206], [-85.56585567987237, 36.0767778719598], [-85.56580867908862, 36.07651587121647], [-85.56575467958855, 36.07636887159134], [-85.56572967933273, 36.07631387167489], [-85.5656716791755, 36.076209871597975], [-85.56563067902799, 36.07616087144972], [-85.5656056795067, 36.076112871669935], [-85.56548067903921, 36.07596787102865], [-85.56535767880459, 36.07586787156157], [-85.56533467914471, 36.07584887098282], [-85.56529667927586, 36.075828871781795], [-85.56515467888742, 36.07572387093961], [-85.56509667947607, 36.075671871144415], [-85.5650556786922, 36.07562087177278], [-85.56497667953023, 36.075521871529546], [-85.5649386785907, 36.07543987113983], [-85.564871678669, 36.07532287159902], [-85.5648306790291, 36.07526787141162], [-85.56462167951332, 36.075025871129284], [-85.5646056789772, 36.07499087109956], [-85.56457167940208, 36.074949871194676], [-85.56452367946186, 36.07481887123938], [-85.56451667874342, 36.07464687097647], [-85.56452767849238, 36.074565871194565], [-85.56453967850683, 36.07448487141822], [-85.56477067949095, 36.073905870643266], [-85.56482367940532, 36.07374787099504], [-85.5648526788329, 36.07361587106045], [-85.56484667932911, 36.07352487065893], [-85.56481067929953, 36.07341787075734], [-85.56479367886593, 36.073399870497674], [-85.5646646791077, 36.07329287094906], [-85.56455067916043, 36.07323087090091], [-85.56436667841085, 36.07309087060183], [-85.56421667824202, 36.072962870773566], [-85.5641826790832, 36.07292887090559], [-85.56398267909707, 36.072688871161276], [-85.56394167907196, 36.072613870530326], [-85.56391767866316, 36.072530870414134], [-85.56389267878859, 36.072495871058344], [-85.5638666785579, 36.07244087068288], [-85.56384367824721, 36.07231687085308], [-85.56385867831155, 36.07212787095831], [-85.56391167896857, 36.07193587030043], [-85.5639006782064, 36.07180787077268], [-85.56384967861334, 36.07162787100786], [-85.56381867875865, 36.071539870511124], [-85.56378967892019, 36.07138787078048], [-85.5637876786862, 36.071373870409595], [-85.56378867856712, 36.07125787053849], [-85.56379867864986, 36.071181870094364], [-85.56386267898338, 36.07091287037033], [-85.563888678608, 36.070714870455525], [-85.56388967821859, 36.07063287011686], [-85.56386967861229, 36.07051887078171], [-85.56383267855237, 36.07042586993354], [-85.56379167807823, 36.070376869977004], [-85.5637036787066, 36.07030787014415], [-85.56363967788734, 36.07028587008717], [-85.56363467822565, 36.07027387048979], [-85.56368367844523, 36.07017687008651], [-85.56370167802982, 36.0700058703457], [-85.56371167831061, 36.0699158704402], [-85.56370667834682, 36.06967487042079], [-85.56369067803277, 36.06954387040041], [-85.5636586781826, 36.06946187046572], [-85.56357567833152, 36.06936486989137], [-85.56346667831562, 36.06924586970327], [-85.56345367783766, 36.06920987000493], [-85.56344267798555, 36.069176869771276], [-85.56343867868534, 36.06914587047626], [-85.56345167828943, 36.069087870263814], [-85.5634956784691, 36.068998870416394], [-85.56351167831811, 36.06893487048006], [-85.56351167826323, 36.06893387006851], [-85.56386767864143, 36.06839986999067], [-85.56494267901141, 36.06679786948009], [-85.56530267883656, 36.066265869405335], [-85.56534367810276, 36.06620386913714], [-85.56546967827678, 36.066017869153875], [-85.5655116786554, 36.065956869241575], [-85.5664196789411, 36.06460086884325], [-85.56914667971648, 36.06053586817046], [-85.57001667936497, 36.05923986803743], [-85.57005667941434, 36.05918086736994], [-85.57009267943909, 36.05912486808194], [-85.57015267910204, 36.05903486821678], [-85.57028967976848, 36.05883286763654], [-85.5705696791156, 36.05883686769673], [-85.57068767916962, 36.05883986749888], [-85.57074667956965, 36.05884386749029], [-85.57074167993355, 36.058886867462114], [-85.57074067962164, 36.058892867281415], [-85.57073567931168, 36.05902886784318], [-85.57073067929137, 36.059046867390734], [-85.57072067923234, 36.05909786817936], [-85.5708356796818, 36.059206867620546], [-85.57096368019232, 36.05930586763147], [-85.57109967947467, 36.05939686742428], [-85.57117867990257, 36.059428867924964], [-85.5714706800747, 36.05951586807388], [-85.57154967966521, 36.059547867425294], [-85.57167167950243, 36.059588868240624], [-85.57179668007792, 36.05962486761206], [-85.57201168039863, 36.05967086793758], [-85.57209868058253, 36.059685867581976], [-85.57236268004408, 36.05971486746298], [-85.5724946798022, 36.05972586799359], [-85.57253967994605, 36.059725868067694], [-85.57284868061716, 36.059752867920245], [-85.57293668014569, 36.05975586824655], [-85.57311368075526, 36.05976986744694], [-85.57337968062606, 36.059765867562874], [-85.57360068069664, 36.05973986735669], [-85.57368568011151, 36.05971986775077], [-85.57372968014447, 36.05971386767359], [-85.57377168088432, 36.05970086753278], [-85.57380968027151, 36.05968286738631], [-85.57387968021477, 36.0596388677804], [-85.57391068067128, 36.059612867492774], [-85.57396168059049, 36.05955586740192], [-85.57407368041727, 36.05936186763673], [-85.57410068119903, 36.05929386735647], [-85.57422468094556, 36.05902786747282], [-85.57425168037467, 36.05895986714944], [-85.57428468040983, 36.05885786765338], [-85.57429868019777, 36.058786867929015], [-85.57431868107986, 36.05871886720321], [-85.5743336802837, 36.05868486736839], [-85.57440768110588, 36.05844386774606], [-85.57442568090596, 36.05833786765622], [-85.57445768103223, 36.057982867219486], [-85.57445968110466, 36.05780586778686], [-85.5744646809764, 36.05773486689455], [-85.57449268037655, 36.05752186684299], [-85.57451268019402, 36.05741686698244], [-85.57457468119897, 36.05717286684959], [-85.57461268042127, 36.05707086684494], [-85.57468668019715, 36.05675786691708], [-85.57476968071205, 36.05655486668796], [-85.57480268070219, 36.05648886747498], [-85.57484468065536, 36.05638686707647], [-85.57488668126199, 36.05624986659894], [-85.57492368083507, 36.05610986705153], [-85.57494968083873, 36.05604186661105], [-85.57499668103844, 36.05594186658664], [-85.57503268095138, 36.05587686657856], [-85.57508068022784, 36.055816866771316], [-85.57518368084548, 36.05570086729697], [-85.575217681007, 36.055676867241786], [-85.57532668065421, 36.05561586649188], [-85.57544968031618, 36.05557386694605], [-85.57562268133731, 36.05553786647367], [-85.57571168147089, 36.055538866586915], [-85.57582168078994, 36.05554686683077], [-85.57586268091686, 36.055558866476574], [-85.57595068047486, 36.05557286647124], [-85.57624268073917, 36.05566086639933], [-85.57653968125351, 36.05573086672098], [-85.57662168169594, 36.05575886716391], [-85.57694168101362, 36.05588386729531], [-85.57705768150547, 36.05593686643987], [-85.5771316813187, 36.05597686685646], [-85.5772126817498, 36.05600786642953], [-85.57736968168622, 36.05607586658067], [-85.57744368155089, 36.05611486729111], [-85.57769468192464, 36.056263866837895], [-85.57776868125305, 36.05630386685642], [-85.57780368209527, 36.056326866495496], [-85.57802068202948, 36.05650486729573], [-85.57819368183515, 36.05666686662345], [-85.57829468224445, 36.056783867375], [-85.57836068206944, 36.05687486733533], [-85.57840768186892, 36.05697486670812], [-85.57845068169574, 36.0571118673695], [-85.57845768158381, 36.05718186671967], [-85.57851468203417, 36.05742486730992], [-85.57851968210186, 36.0574958672813], [-85.5785206816397, 36.05774186701875], [-85.57850568209385, 36.05788386695003], [-85.57849168147665, 36.05812986738361], [-85.57842468174012, 36.058624867335254], [-85.57838768144941, 36.05883686695496], [-85.57835768222908, 36.05904686768694], [-85.5782706820164, 36.059467867869145], [-85.57815368197622, 36.05995686764026], [-85.57813168164205, 36.06002486738165], [-85.57809068168184, 36.06019986731512], [-85.57805768178501, 36.060376868119825], [-85.57804968217052, 36.06044686810638], [-85.577965681563, 36.06090586798426], [-85.57791268214818, 36.06111586818841], [-85.57785168187856, 36.061322867941755], [-85.57775468154632, 36.06159686832472], [-85.57774768227988, 36.0616318681558], [-85.57770368240499, 36.06176886785247], [-85.57763168193746, 36.06208486846781], [-85.57758968166712, 36.06225886784095], [-85.57756868168963, 36.0623278677594], [-85.57754568181322, 36.062469868229], [-85.57752868238039, 36.06268186810633], [-85.57752868183489, 36.06278886804911], [-85.57754268192738, 36.062894867978585], [-85.57757768189694, 36.06299686865065], [-85.5776276814358, 36.06309686787135], [-85.5776746823462, 36.06315686801746], [-85.5777646818708, 36.063235867979586], [-85.57787168161188, 36.06329986805329], [-85.57794868262387, 36.06333586862408], [-85.57803068253061, 36.063363868027125], [-85.57811568259876, 36.06338586819232], [-85.5782446821805, 36.06341086847501], [-85.57833268223831, 36.063416867884726], [-85.5785116818541, 36.063415868038504], [-85.57864368238674, 36.063401868627764], [-85.57881668257684, 36.0633668684981], [-85.57898068205621, 36.06331286851038], [-85.5790916820439, 36.0632528682327], [-85.57916068290513, 36.0632078680044], [-85.57925668241487, 36.06313386801519], [-85.57928368223193, 36.06310486829194], [-85.57934768222358, 36.06305586777942], [-85.5795786829271, 36.06284086770118], [-85.57985268206997, 36.062559868185645], [-85.5799416823161, 36.06248086822464], [-85.58005268215669, 36.06236886815449], [-85.5804136821911, 36.06205286758939], [-85.58093868228603, 36.061567868131405], [-85.58115968262544, 36.06139086750993], [-85.58126068312788, 36.06132086781008], [-85.58148868319904, 36.061148867723546], [-85.58179868330511, 36.06089286743735], [-85.58186368340107, 36.06084386724224], [-85.58193468361604, 36.060800867766204], [-85.58206468340958, 36.060702867191644], [-85.5821316832846, 36.06066486750716], [-85.58192768302916, 36.060697867692326], [-85.58173168322918, 36.060729867844856], [-85.58158668321866, 36.06075286797103], [-85.58115468254385, 36.0610348673468], [-85.5811016827188, 36.06108186748309], [-85.58045568272502, 36.06166086748931], [-85.58012568225301, 36.061856868133084], [-85.58029068315459, 36.06152886771957], [-85.58045368213546, 36.06124486742369], [-85.58053168291386, 36.06111486807273], [-85.58114668238525, 36.06082286746306], [-85.58172268284235, 36.060549867805996], [-85.5818316825853, 36.06049886716586], [-85.58211168317759, 36.06047786793364], [-85.58255468285321, 36.06044586755232], [-85.58272268348499, 36.06043786736019], [-85.58277068344485, 36.06043486735316], [-85.58283868350208, 36.06042486786799], [-85.58281968320277, 36.06035686778667], [-85.58279968282673, 36.060288867844726], [-85.58278668347356, 36.06024386737277], [-85.58196468287144, 36.059389867247404], [-85.58158568288921, 36.05914886767539], [-85.58122868307274, 36.05913486762513], [-85.58091968287502, 36.05892186742511], [-85.5808026828342, 36.05759486679063], [-85.58082568244913, 36.05743786657105], [-85.58089868270356, 36.056948866917594], [-85.58091068214648, 36.05692786661261], [-85.58119468298848, 36.05643486673284], [-85.58183768300924, 36.0562698671211], [-85.58196668262286, 36.05626186697587], [-85.58229668281987, 36.05624286673305], [-85.5828766825727, 36.05621586703299], [-85.58302368362695, 36.05616586652578], [-85.58362568300895, 36.055953866435374], [-85.58412568327715, 36.05576786647243], [-85.5842626834457, 36.05541486685143], [-85.5839336831162, 36.054282866506725], [-85.58390368332891, 36.0540248661349], [-85.58374168346818, 36.053292866146904], [-85.58370968291668, 36.05313986619486], [-85.58347668322519, 36.05288486582657], [-85.58346668313251, 36.05287786621923], [-85.58327568281013, 36.052733865509], [-85.58332268276173, 36.052604865508656], [-85.58345368245355, 36.052126866104366], [-85.58340768259964, 36.05178886533279], [-85.58336568249747, 36.05163686532899], [-85.58319368330972, 36.05146086548136], [-85.58296068241789, 36.05120586579123], [-85.58271868220494, 36.050999865609484], [-85.5823266827332, 36.05125486534315], [-85.58210868305535, 36.05129786561524], [-85.58209768235005, 36.051241865533456], [-85.58214468270388, 36.05108786549083], [-85.58228968220357, 36.0508438658674], [-85.58249368209783, 36.05059186526254], [-85.58208868228235, 36.05017686568997], [-85.58215568294688, 36.05003886589247], [-85.58218968201946, 36.05002286536808], [-85.58226368302611, 36.049989865756146], [-85.58233368289646, 36.050020865272955], [-85.58280768280889, 36.05044186566168], [-85.58304668286502, 36.0504798658387], [-85.58300568299582, 36.05041586507077], [-85.58289568302983, 36.050343865526465], [-85.58282268211845, 36.05015186575832], [-85.5827786829536, 36.050088865755015], [-85.582606682075, 36.049719865097785], [-85.58247168227814, 36.049427865695066], [-85.58238368215615, 36.04890286555215], [-85.58244968206263, 36.048545864869396], [-85.5825246829581, 36.048146865238664], [-85.58286268284714, 36.047409865102345], [-85.58289768284872, 36.04731286481841], [-85.58291968222503, 36.04725586499465], [-85.582839682982, 36.04719186522975], [-85.58264768256122, 36.04700886524002], [-85.58259468219222, 36.04683286447897], [-85.58270168267555, 36.04667786506813], [-85.5830846824012, 36.046470864465405], [-85.58310168297916, 36.04633386451192], [-85.58305868286592, 36.04614086441632], [-85.58302568294863, 36.0459318643037], [-85.58307268230726, 36.04580186469268], [-85.58324068239081, 36.045791864827244], [-85.5833696826288, 36.04576586474832], [-85.58344468238914, 36.0455308640365], [-85.58360468255162, 36.045309864500155], [-85.58384168206423, 36.04498586429966], [-85.5842226823074, 36.044643864549556], [-85.58480568311735, 36.04421086390788], [-85.58481568244486, 36.04420486431686], [-85.58599268325185, 36.043843863603655], [-85.58675768355184, 36.04375886371778], [-85.5869226829138, 36.04374386438521], [-85.58722368320886, 36.04371686430374], [-85.58729468328272, 36.04367786412663], [-85.5875756839681, 36.043480863605325], [-85.58768668415374, 36.04341786391764], [-85.58798468388443, 36.04341386395016], [-85.58819368351213, 36.04344786426674], [-85.58841868388829, 36.04348486424001], [-85.58885468352588, 36.043523863676825], [-85.58930268389325, 36.043409863991165], [-85.58875568340616, 36.04284486327986], [-85.58831268346819, 36.04238686333854], [-85.5881796842184, 36.04239186341599], [-85.58799368372381, 36.04240086406847], [-85.58799368361869, 36.042190864019815], [-85.5879946841299, 36.04205886382565], [-85.58786168314987, 36.041782863638986], [-85.58771368397953, 36.04158686333454], [-85.58764068378959, 36.04148986334142], [-85.58759168322057, 36.04102086339258], [-85.58751868318184, 36.040696863309776], [-85.58710568360574, 36.04009786286621], [-85.5870586827172, 36.040028863200234], [-85.58679668365494, 36.03964286306043], [-85.58672568333057, 36.039534862925386], [-85.58665468284832, 36.0394258632286], [-85.58651568250588, 36.039407862818685], [-85.58645868298068, 36.03933886284347], [-85.58644268264403, 36.039317863159], [-85.58642268350498, 36.03928886353368], [-85.58640068282409, 36.039260862859805], [-85.58641668352571, 36.03920586328232], [-85.58628468314615, 36.039121862690145], [-85.58584368292523, 36.03878386325328], [-85.58533968212143, 36.03839786327769], [-85.58482868211559, 36.03819686291732], [-85.58436568242433, 36.03805286319179], [-85.58406268274469, 36.03787886257875], [-85.58397768199883, 36.03779786246886], [-85.58361668241753, 36.037452862998826], [-85.58364668177323, 36.037242862685794], [-85.58366268207288, 36.03713886279303], [-85.5837146823606, 36.037034862895716], [-85.58408068233713, 36.03704086298937], [-85.58448768276655, 36.037171862722424], [-85.58471068204267, 36.03724386304302], [-85.58506268287084, 36.03747486264387], [-85.58543668264102, 36.0375848629085], [-85.5860816822791, 36.03750586256365], [-85.58631868245725, 36.03750986246035], [-85.58643968265969, 36.037511863153654], [-85.58653368303332, 36.03773086261897], [-85.58664768268439, 36.03794986300885], [-85.58711868298147, 36.03814286307547], [-85.58715868330684, 36.03815986302136], [-85.58755968308554, 36.03838286294492], [-85.5879466830885, 36.038721862959], [-85.58803668324057, 36.03880186248908], [-85.58830068393166, 36.03938586292046], [-85.58843368349405, 36.03960786278542], [-85.5885396832898, 36.03978486328941], [-85.5885986832273, 36.04026986322265], [-85.58867668400013, 36.04050086349852], [-85.58924768383018, 36.04096486318518], [-85.58968768382631, 36.0412218632173], [-85.59019668446989, 36.041495863635305], [-85.59048768393235, 36.04155786299339], [-85.5906796839711, 36.04159986316995], [-85.59124168494183, 36.0417288633894], [-85.59145768412162, 36.04185286341707], [-85.59174768440614, 36.04199986379084], [-85.59181768467742, 36.0420238630654], [-85.59208668527424, 36.042119863075115], [-85.5924386853886, 36.04233686373392], [-85.59266468525273, 36.04229986351494], [-85.59293468500175, 36.042329863657024], [-85.59333368515416, 36.042374863217326], [-85.5934286854334, 36.04238586299446], [-85.59371368527901, 36.04242386305252], [-85.59380968531654, 36.042436863126866], [-85.5938196854256, 36.04248786308492], [-85.5938526854867, 36.042640863146346], [-85.5938656853078, 36.04269186329401], [-85.59392368512627, 36.04296886308973], [-85.59403068553043, 36.04345686335044], [-85.59409068583511, 36.04373286392879], [-85.59415968536679, 36.0437198637946], [-85.59443968575428, 36.04367186357598], [-85.59538868572781, 36.04342586356394], [-85.59597368651599, 36.04327486363752], [-85.59626668625609, 36.04303786379496], [-85.59659768609868, 36.042405863041424], [-85.59743968585362, 36.04194186296576], [-85.59772168658895, 36.04189386271293], [-85.59827468704518, 36.04180186307407], [-85.5986816866069, 36.04190486329075], [-85.59870868638382, 36.04190886294031], [-85.59878868634698, 36.04192186344782], [-85.59881668651238, 36.0419268632149], [-85.59885968694584, 36.04193386327088], [-85.59898968706035, 36.04195486306525], [-85.59903368629305, 36.04196186277758], [-85.59922068679373, 36.041992863260205], [-85.5999546866658, 36.04199686320684], [-85.60216368790897, 36.042012862802515], [-85.60210568814921, 36.04257486270351], [-85.60201268767531, 36.043494863293866], [-85.60199968728918, 36.04362286364702], [-85.60214168788877, 36.0436138637526], [-85.60267168774448, 36.04358086283128], [-85.60320268815038, 36.043547862874775], [-85.60348768811012, 36.04353086288554], [-85.60354868801507, 36.04354786335432], [-85.60397268839847, 36.04366686312152], [-85.60412768820973, 36.04370986302631], [-85.60618168905927, 36.04403086316216], [-85.60628468955588, 36.04407086303797], [-85.60678168893917, 36.044265863355896], [-85.60698368974735, 36.04438686326074], [-85.60772068997927, 36.044827863741084], [-85.60821468969263, 36.04522286373429], [-85.60826568984602, 36.045263863585205], [-85.60885968989284, 36.04574786321509], [-85.60962269048692, 36.0461318639272], [-85.61050569050195, 36.046224863814594], [-85.61114269012586, 36.046056863052065], [-85.61129669041657, 36.04581786329373], [-85.6116216910976, 36.04500786312172], [-85.61201869025317, 36.044037863317705], [-85.61242869066092, 36.04342286289815], [-85.61282969094478, 36.043175862371235], [-85.61298469064211, 36.04308086296352], [-85.61378469158159, 36.04258786257543], [-85.61617569163622, 36.04173986196074], [-85.61623069208544, 36.041720862503034], [-85.61669469223122, 36.04158186205006], [-85.61680669188866, 36.04155386233162], [-85.61684769237118, 36.041535862650626], [-85.61784569182758, 36.04123686210077], [-85.61851669190469, 36.040915862076844], [-85.61885469253612, 36.04038886179], [-85.61890069291209, 36.04017586195142], [-85.61914169220073, 36.039061861405116], [-85.61931269263798, 36.038051861629285], [-85.61933469290439, 36.037919861769765], [-85.61959269254247, 36.03744586094453], [-85.61977069216282, 36.03711886119786], [-85.61994869219345, 36.036792861586115], [-85.61998369229418, 36.036727861083044], [-85.62003369272041, 36.03669886157825], [-85.62041869281248, 36.036474861418085], [-85.62080369261591, 36.03625186134014], [-85.62086669221787, 36.03621586072493], [-85.62091369245074, 36.03622086107071], [-85.62099769300343, 36.03622986138233], [-85.62146969251974, 36.036281860695375], [-85.62203669324059, 36.03661386091545], [-85.62220469361556, 36.03671186077419], [-85.62298669382231, 36.03675586068946], [-85.6234366933582, 36.036568860580786], [-85.62349069387896, 36.036498861382], [-85.62373669369317, 36.03618086107188], [-85.62383369410696, 36.03605786124698], [-85.62409469398253, 36.035161860879484], [-85.62411169312006, 36.035102860485004], [-85.6240526938948, 36.03489486102432], [-85.62392769382497, 36.034454860770055], [-85.62363769364818, 36.034095860120985], [-85.62278269322307, 36.03378486063991], [-85.6220406924926, 36.03373286064845], [-85.62198669284692, 36.033528860318], [-85.62197669276392, 36.03349086086087], [-85.62238969317896, 36.03317386008855], [-85.62260469297874, 36.033043860277225], [-85.62308769333583, 36.032750860120636], [-85.62366469380112, 36.03240185970359], [-85.6245146937746, 36.031833859998414], [-85.62472369356531, 36.03169585958642], [-85.62485469401116, 36.03160786037119], [-85.6249846933188, 36.031519859699294], [-85.62643969418784, 36.031062859930486], [-85.62782569389246, 36.0305898598311], [-85.62838569469574, 36.03039985965019], [-85.62863069465881, 36.03031685936695], [-85.62979569483184, 36.030026859844405], [-85.62985969476189, 36.03001285955547], [-85.63127469583135, 36.02960885928711], [-85.63140569541257, 36.02957185891784], [-85.63181469538995, 36.029415859118856], [-85.63322069564934, 36.02888185874049], [-85.63466769632093, 36.028577858681814], [-85.63588569619088, 36.028475858383715], [-85.63605169709297, 36.02844585891698], [-85.63647769624451, 36.02836985866569], [-85.63673769653339, 36.028323858456375], [-85.63751169713156, 36.02805085842467], [-85.63819569730774, 36.0276808590047], [-85.63855369775423, 36.027358858049475], [-85.63878369732824, 36.02675485826258], [-85.63864869713004, 36.025705858395604], [-85.63839369682704, 36.02513185810397], [-85.6382766971018, 36.02455885833287], [-85.63817969710936, 36.02405885796839], [-85.63846869746492, 36.02363985794348], [-85.63868469719299, 36.023620858069776], [-85.63931069753761, 36.02356885725256], [-85.64012069746228, 36.023860857502456], [-85.64059369812406, 36.02399885817237], [-85.64138669776379, 36.02422585755837], [-85.6415036981518, 36.02422585787279], [-85.64280269806801, 36.02422885730599], [-85.64327869835306, 36.0241978576859], [-85.64344869822804, 36.0236488571798], [-85.64330469842699, 36.02230185742742], [-85.64334269832074, 36.02148185711759], [-85.64336969859802, 36.02088985657412], [-85.6434916985572, 36.019577856791045], [-85.64351369832234, 36.01934085672293], [-85.64374769876036, 36.01844885649532], [-85.6439256980202, 36.01777685641377], [-85.64460869816557, 36.01505985574841], [-85.64461069867221, 36.01504985564343], [-85.64471069877035, 36.01459085577776], [-85.64499069814028, 36.01330885538356], [-85.64508469862531, 36.013328855086534], [-85.64554569829001, 36.01343085568994], [-85.64727669948553, 36.01380385537831], [-85.6475326991976, 36.01385985495695], [-85.6480586986128, 36.013376854918796], [-85.64815769907223, 36.01343285493442], [-85.64841469908913, 36.013505855507226], [-85.6486426993493, 36.01353085530577], [-85.6489986988769, 36.01349885493772], [-85.64922669908619, 36.013386855490594], [-85.6494456998637, 36.01324185519675], [-85.6495246998672, 36.01300185522522], [-85.64952569959279, 36.012783854740626], [-85.65105270005442, 36.012334854795185], [-85.65117770039676, 36.012452854600504], [-85.65130369950158, 36.01257085536059], [-85.65152569990495, 36.01277985477538], [-85.65167470023519, 36.01278685515174], [-85.65344870110701, 36.01287385493176], [-85.65344770056619, 36.012874855177735], [-85.65341270117914, 36.013073855299766], [-85.65340870089229, 36.01310185466402], [-85.65329670052348, 36.01366985501349], [-85.65325870073211, 36.013868855435064], [-85.65314370049202, 36.01441885557531], [-85.65285170031379, 36.01582985597206], [-85.6528217002573, 36.0160748552738], [-85.65277570093401, 36.016451855747114], [-85.65273670088358, 36.0166308554253], [-85.65272170047804, 36.01667285595073], [-85.65267970118, 36.01679885535337], [-85.65266570034228, 36.01684185556694], [-85.65265170067497, 36.01686985579486], [-85.6526117008746, 36.01695585586247], [-85.65259870079879, 36.01698485578076], [-85.65257570070762, 36.01703085562346], [-85.6525077009425, 36.01716885620628], [-85.65249670076476, 36.01719385569619], [-85.65248570037745, 36.017215855727926], [-85.65539270182855, 36.017474855855966], [-85.65543270187386, 36.01751385594828], [-85.66091470320237, 36.02279485636239], [-85.66185970396718, 36.023705856797925], [-85.6635037044152, 36.02528985696119], [-85.66400270453153, 36.025770856935566], [-85.66535970552783, 36.02707685689963], [-85.66558570510904, 36.02729385747009], [-85.66620070480462, 36.02788485710751], [-85.66637970577386, 36.028057857193], [-85.66824070555352, 36.029847857909175], [-85.67077970676631, 36.03473185838289], [-85.67149670693479, 36.03611385877383], [-85.6716137076194, 36.0363398586294], [-85.67313470748513, 36.03926885946085], [-85.67498770935475, 36.04283085972553], [-85.67505470917754, 36.04295986026282], [-85.67536870876734, 36.04356886029043], [-85.67584570915213, 36.04448786080179], [-85.67727970970832, 36.04724786072835], [-85.677758710133, 36.04816786123792], [-85.6778657102137, 36.04837386078384], [-85.67808171017877, 36.04878986113729], [-85.6782057103305, 36.04898486157337], [-85.67833171069913, 36.049181860823026], [-85.67837871003319, 36.04925786161124], [-85.67879670986521, 36.050079861683756], [-85.68017371038535, 36.05278486214038], [-85.68063371081759, 36.05368686235061], [-85.68075871102565, 36.0539278624972], [-85.68113571114282, 36.054651862358014], [-85.68126171152565, 36.05489386227278], [-85.68153371157027, 36.055386862316624], [-85.68235171207995, 36.056865862740274], [-85.68262471237439, 36.057358862694265], [-85.6836647125527, 36.05923886273383], [-85.68674771305528, 36.06480886422209], [-85.68677371332606, 36.06488786394041], [-85.68746071356136, 36.06692586435455], [-85.68752671379244, 36.067124864092115], [-85.68754571376327, 36.067178864117245], [-85.68763071399543, 36.06743086429778], [-85.6877127139327, 36.067675864596765], [-85.68772771372734, 36.06772186448694], [-85.68779571457671, 36.06792086471232], [-85.6883377147624, 36.06953086508668], [-85.68842571416435, 36.069485865188], [-85.68996471529358, 36.068701864419616], [-85.69354971558151, 36.069468864465534], [-85.6953077165161, 36.06984586478846], [-85.69527371663898, 36.069911864228025], [-85.69526071622045, 36.06993986436359], [-85.69516371688869, 36.07015186471272], [-85.69512171683107, 36.07022286483093], [-85.69508871648436, 36.07028086439474], [-85.69506271627372, 36.07030886497171], [-85.69480971639689, 36.07041186497528], [-85.69405071562879, 36.07072186490164], [-85.69379871616101, 36.07082586482347], [-85.69363071631801, 36.07082586517847], [-85.69341071599011, 36.07081186527073], [-85.69244971558736, 36.07063186513071], [-85.69224471569703, 36.07057786529477], [-85.69203871596781, 36.070535864722714], [-85.6913687155488, 36.07049686493281], [-85.69136271526185, 36.07049686489215], [-85.69091171569367, 36.07049686479162], [-85.69063771494693, 36.070522864669144], [-85.69032471503047, 36.070583865380506], [-85.69021871478925, 36.07061486518412], [-85.68991371436049, 36.07074286482127], [-85.68973171484987, 36.07084886496395], [-85.68961571520077, 36.07092186546522], [-85.68868571454455, 36.07154886509161], [-85.68807571445407, 36.07194186544151], [-85.6878387139299, 36.07207886544713], [-85.68776971391718, 36.072123865439615], [-85.68746571406825, 36.0722498651485], [-85.68686271376127, 36.072463865239975], [-85.68639771394169, 36.0726418652001], [-85.68604671446188, 36.072781865501405], [-85.68592471430054, 36.07285386532709], [-85.68572571402902, 36.073022865890046], [-85.68565771423538, 36.073094865609434], [-85.68557371383595, 36.07320686591705], [-85.68532971372429, 36.073582865725584], [-85.68522171353052, 36.07373886603362], [-85.68510171362992, 36.073935865938374], [-85.68475471393903, 36.07450786594881], [-85.68470171372267, 36.07462386628377], [-85.68466371382155, 36.074745865901725], [-85.68464871382668, 36.07485386592154], [-85.68466371414449, 36.07494186600993], [-85.68467971338, 36.07510686655642], [-85.68464971350983, 36.07518686646099], [-85.6846107139321, 36.07523786621417], [-85.68454271377198, 36.07527986663914], [-85.68446471313536, 36.07529886578236], [-85.68439671362201, 36.075299866641714], [-85.68425771320275, 36.075288865933366], [-85.68367471286797, 36.07518686629888], [-85.68360871361898, 36.0751748657937], [-85.68339171286084, 36.07513686652044], [-85.68322971292503, 36.07511386605247], [-85.68314271368963, 36.075102866394346], [-85.68290771299648, 36.07510286587926], [-85.68271671362481, 36.07512186584504], [-85.68257171339528, 36.07516386617183], [-85.68244171339735, 36.07523186590129], [-85.6822517124759, 36.07536586658786], [-85.68216971295476, 36.07543186644053], [-85.6819167129662, 36.07564086606342], [-85.68187271248074, 36.07567486647959], [-85.68153571232867, 36.07593786645956], [-85.6814137125259, 36.076010866601294], [-85.6812617127519, 36.076066866942774], [-85.68123771248734, 36.07607286630162], [-85.68116271314508, 36.076093866647], [-85.6809787124998, 36.076108866331076], [-85.68083371210184, 36.07610186634879], [-85.68072871272823, 36.076086866148664], [-85.68053671214598, 36.07604186653539], [-85.68037771263052, 36.07601486677069], [-85.68028571294973, 36.07600786693662], [-85.68027171232625, 36.07602986665715], [-85.68023371234189, 36.07600686650991], [-85.68015671291684, 36.07600286612018], [-85.67996671214658, 36.07601386654879], [-85.67956171202268, 36.07605286643484], [-85.67900771169039, 36.07611386658843], [-85.67832571178076, 36.07618986678489], [-85.67825671228731, 36.07619386633517], [-85.6782157116626, 36.076195866769226], [-85.67779171144612, 36.07624286641235], [-85.67747971150146, 36.076303867090324], [-85.6763347112212, 36.076608866493224], [-85.67615671083864, 36.076661866889324], [-85.6760147111485, 36.076704866894595], [-85.675792711727, 36.07679986645633], [-85.67567071113834, 36.07687986722683], [-85.6754877116729, 36.0770518671312], [-85.67535071149169, 36.077207866987905], [-85.67489271092187, 36.07769686723386], [-85.67469471135594, 36.077921866741434], [-85.67461871107666, 36.078050867078666], [-85.67446571095437, 36.07843286731467], [-85.67441971135965, 36.07852086703402], [-85.67438171080964, 36.07856286702147], [-85.67429771134157, 36.07864686698214], [-85.67416071038954, 36.07873386726227], [-85.67402271135805, 36.07879886750236], [-85.6736647103052, 36.07892886728164], [-85.67258071068956, 36.07935586788322], [-85.67235971053735, 36.07946286776031], [-85.67229871045842, 36.07950486766881], [-85.67223071084486, 36.07957386754927], [-85.67219171076735, 36.07963786761349], [-85.67210771003539, 36.07991286757036], [-85.6720247107211, 36.08006886802334], [-85.67194770992124, 36.08016086787148], [-85.67184871069968, 36.08024086783462], [-85.67162770995763, 36.080396868140205], [-85.67134871010713, 36.08057986777016], [-85.67093371044635, 36.080854868090434], [-85.66957470991147, 36.08170586857716], [-85.66952170981459, 36.08172086816802], [-85.66946070916063, 36.081724868395256], [-85.66923970955587, 36.081644868078655], [-85.66893070996774, 36.0815128678971], [-85.66851470961737, 36.08133586822641], [-85.6684387097933, 36.08130886824254], [-85.66831670902172, 36.08126686809058], [-85.66817870898018, 36.08123686828823], [-85.66750770924695, 36.081163868413256], [-85.66709570867364, 36.081110868201], [-85.66646970911275, 36.081030867693954], [-85.66613470895781, 36.08097686768352], [-85.66591270824924, 36.080950867684855], [-85.66552370803771, 36.080877868166816], [-85.66505870800846, 36.08073286779745], [-85.66481470879197, 36.08067986854083], [-85.66471570850547, 36.08066486839374], [-85.66452470789886, 36.080637867817515], [-85.66447870816452, 36.08063386797675], [-85.66419670790341, 36.080610868474224], [-85.66394470767466, 36.08061486822497], [-85.66379170773355, 36.08062986772032], [-85.66305170766725, 36.08072886796117], [-85.66161770761762, 36.080877868584324], [-85.66105270755783, 36.080950868423535], [-85.66064870740658, 36.08099586864389], [-85.66048070660392, 36.08102686874584], [-85.66030570739808, 36.08108386842623], [-85.6602597067116, 36.081114868514284], [-85.66019870738769, 36.081194868665875], [-85.66018370716766, 36.081240868428004], [-85.66018370673768, 36.081312868709034], [-85.66023670715855, 36.081533868627325], [-85.66030570743622, 36.08176286815682], [-85.66034370658286, 36.08186586815212], [-85.66037370671309, 36.08202586864545], [-85.66038170670272, 36.08214786840132], [-85.6603517075403, 36.08230886880578], [-85.6603207076602, 36.08241486848085], [-85.66023670675463, 36.08259886838905], [-85.6601527073844, 36.08268586869103], [-85.66005370750709, 36.08275886874863], [-85.66002070743122, 36.08277586909035], [-85.65993970745534, 36.08281986843367], [-85.65977170710988, 36.08286586910228], [-85.6595887072407, 36.08290386901847], [-85.65942770681579, 36.08292686886165], [-85.65890170629073, 36.082975868963096], [-85.65861170665549, 36.08302586870659], [-85.65844370621186, 36.08307186842682], [-85.65837570651055, 36.08309786923545], [-85.65811570701923, 36.08318986881731], [-85.6580477069745, 36.08321486903571], [-85.65790670629966, 36.08326786899906], [-85.65790170681551, 36.08326986914086], [-85.65749670690356, 36.08345886909797], [-85.65739070688234, 36.08350986883339], [-85.65736170614755, 36.08352486908924], [-85.65684870640187, 36.08379086949722], [-85.65636870584147, 36.084040868784854], [-85.6561857059216, 36.0841168689731], [-85.65604070575745, 36.084154869114684], [-85.6558197062344, 36.08417786961165], [-85.65543070583234, 36.08417786889589], [-85.6551987060322, 36.08416786945163], [-85.65478970609952, 36.08415286920474], [-85.65462170504551, 36.08414686962929], [-85.65427870581686, 36.08413586904305], [-85.65398070572004, 36.08414686942805], [-85.65299270529077, 36.084251868996176], [-85.65275970539358, 36.08427686891112], [-85.65217270467751, 36.084345869439744], [-85.6514017051534, 36.0844328697788], [-85.65060070467196, 36.0845398692521], [-85.650468704117, 36.08454986922857], [-85.65034170415507, 36.08455186951513], [-85.6501657046041, 36.08453986965657], [-85.64999070376982, 36.084509869673354], [-85.64934170424867, 36.084326869312044], [-85.64819170393885, 36.08395986959975], [-85.64789270335227, 36.08386486954992], [-85.64686070332901, 36.08351186929853], [-85.64664170318106, 36.083441869890535], [-85.64644070284446, 36.08348486943164], [-85.64604670359229, 36.08357086936869], [-85.64583870305063, 36.08361886920609], [-85.64578670313415, 36.08363186951446], [-85.64564170319008, 36.08367386959979], [-85.64561970316817, 36.08367886914807], [-85.64555570268573, 36.08369786985717], [-85.64553470301041, 36.083704869534465], [-85.64526770262198, 36.083795870028304], [-85.6441997028256, 36.0842158698115], [-85.64411070286414, 36.08425386945248], [-85.64356670232621, 36.08449086973301], [-85.64278870206313, 36.084860869984645], [-85.64213970158212, 36.08520387042173], [-85.64139970214488, 36.085626869709344], [-85.64061370220462, 36.08609686979469], [-85.64029370162035, 36.08627987002721], [-85.6400767018762, 36.086404870491585], [-85.6398397015116, 36.08654287014943], [-85.63948470084077, 36.08674887029994], [-85.63875970124634, 36.087175870933855], [-85.63837370149902, 36.08740787104028], [-85.63820270091404, 36.08751187050959], [-85.63754670115945, 36.08794687037593], [-85.63727270133153, 36.08814887059801], [-85.63725570082016, 36.08816187066627], [-85.63691370102416, 36.08845387123617], [-85.63624070114054, 36.08906287123921], [-85.63599070080633, 36.089289870787034], [-85.6359147008305, 36.08936587116711], [-85.63572370034237, 36.089605871473935], [-85.63562470100928, 36.089773870832154], [-85.63531170092847, 36.090460871238896], [-85.63509070083042, 36.09102487159552], [-85.63501369990166, 36.09133387122143], [-85.6349987000804, 36.09142887130726], [-85.63493770042793, 36.09184887207817], [-85.6349087007795, 36.09228387206429], [-85.63490570087183, 36.09233087199527], [-85.63486870020098, 36.09288687207573], [-85.63486170015503, 36.09299987203489], [-85.63482370085751, 36.093653872373174], [-85.63480070001407, 36.09434387211614], [-85.63477770104255, 36.094862872386834], [-85.63476670098053, 36.09500987203905], [-85.63471670095646, 36.095678872348344], [-85.63463970025319, 36.09665187228423], [-85.63462170051264, 36.09685987244686], [-85.63445670019388, 36.09881487318046], [-85.6344037008446, 36.09918887333719], [-85.63432770068543, 36.099554873489666], [-85.63418270097591, 36.100092872916605], [-85.63409270079303, 36.10036187351772], [-85.63404470045637, 36.10050887329675], [-85.6338997001707, 36.100908873759906], [-85.63380570066761, 36.10118087397388], [-85.63373270098852, 36.10138987389263], [-85.63370170062709, 36.10148087386353], [-85.6334667002841, 36.102149873855765], [-85.63341370109059, 36.10230387355174], [-85.6333817005476, 36.10240087368459], [-85.63319870018576, 36.10294587421842], [-85.63309870026647, 36.10325887371375], [-85.63293070055103, 36.1038578742755], [-85.6328697006345, 36.104097873798274], [-85.63284370113051, 36.10418487449983], [-85.63277070077413, 36.10444187395813], [-85.63264170001412, 36.10486487459057], [-85.63259570037981, 36.10498587475508], [-85.63243370037603, 36.10536487416228], [-85.6323677003947, 36.105560874778675], [-85.63232570023358, 36.10568887448823], [-85.63231370080344, 36.10577287416688], [-85.63229070029236, 36.105875874929325], [-85.63229070059354, 36.10613487473631], [-85.63231370039153, 36.10631487434553], [-85.63235870095723, 36.10651887488676], [-85.63241170106754, 36.10684587498338], [-85.6324187004304, 36.106994874682336], [-85.63240770100222, 36.10711787493256], [-85.63238870117043, 36.10721887445761], [-85.63228970045178, 36.10751187524912], [-85.63219370077367, 36.1077478749677], [-85.63212170072681, 36.10792587509658], [-85.6319537002706, 36.10824187523688], [-85.63188470103299, 36.10831787522407], [-85.63180970048869, 36.10837787480251], [-85.6316417001795, 36.108454874698424], [-85.63145670060162, 36.10849887504656], [-85.63142070089172, 36.10850787497402], [-85.63126770086127, 36.108522874732536], [-85.63103870065173, 36.108511874792164], [-85.63045169988658, 36.108450874729954], [-85.63033870022544, 36.10845687511361], [-85.6303366996992, 36.10845787478845], [-85.63021469996433, 36.10848087498028], [-85.6301006995578, 36.10852287561746], [-85.62999069956828, 36.10858587516571], [-85.62995670002313, 36.10860487486768], [-85.62994069973985, 36.10861487482677], [-85.62990070018958, 36.10865487529408], [-85.62986969966734, 36.10868287514618], [-85.62984170037684, 36.10870987569113], [-85.62978170001635, 36.108773875675745], [-85.62960369957135, 36.108966875680174], [-85.62958170041232, 36.108991875767394], [-85.62954769992979, 36.109033875509304], [-85.62947469990681, 36.10912687491082], [-85.6293607001933, 36.10925887558483], [-85.62915369959461, 36.10951687568843], [-85.6289256998605, 36.10980487595129], [-85.62889569957225, 36.109850875885606], [-85.62859769970723, 36.11026287535419], [-85.62852869987405, 36.11039587538055], [-85.62847569975712, 36.1105368755641], [-85.6283686998459, 36.1109338762194], [-85.62833569962898, 36.1111588758703], [-85.62824670011999, 36.11177687561865], [-85.62823169984388, 36.1118608763449], [-85.6281096997446, 36.112207876301945], [-85.62802570003505, 36.11238387568669], [-85.62797970016969, 36.11246787629599], [-85.6277886999795, 36.11273087656032], [-85.62768269989853, 36.11284787624619], [-85.62753870008282, 36.11300587665222], [-85.62749169959794, 36.11305887606225], [-85.6271026992138, 36.113428876600565], [-85.6269876996373, 36.11356987630965], [-85.6268966995657, 36.11371487603111], [-85.6266366995473, 36.11421087616528], [-85.62640769967221, 36.11466887639315], [-85.62619469932348, 36.1150618764644], [-85.62597269953622, 36.11549687662324], [-85.62578269924241, 36.11599587666051], [-85.62572869906192, 36.11627487669297], [-85.62572869951015, 36.116556876909186], [-85.62578069896264, 36.116806877030974], [-85.62582869945531, 36.117037876995305], [-85.62614869977453, 36.11820087690575], [-85.62630870011733, 36.1188858773276], [-85.62631569931638, 36.1189198773397], [-85.62648469935262, 36.11974887760903], [-85.6266286995688, 36.12073887824495], [-85.62663369949814, 36.12110787757438], [-85.62663470019602, 36.12114287830313], [-85.62661170027768, 36.121330877917025], [-85.62652970038059, 36.12166087813344], [-85.6264686994674, 36.12182487761911], [-85.62639370010201, 36.12198987827032], [-85.62634669961587, 36.12209587827145], [-85.62614769938943, 36.12247587795255], [-85.6260647001789, 36.12263787853262], [-85.62495069942375, 36.122931878257965], [-85.6247576996051, 36.1229798783403], [-85.6210976986255, 36.12390387862199], [-85.62089969866254, 36.1239578790287], [-85.62082869847562, 36.123974878902295], [-85.61951869783448, 36.124304878995495], [-85.61903069735986, 36.12443087930698], [-85.61857269748732, 36.124540878761614], [-85.61825969813626, 36.12462087924121], [-85.61804569788924, 36.124673878912866], [-85.61710769721618, 36.12490687872151], [-85.61577269668807, 36.125242879237476], [-85.61493369652776, 36.12544887926323], [-85.61447569622477, 36.125547879551725], [-85.61413269663791, 36.12559787965857], [-85.61389569662846, 36.1256048793612], [-85.6136826964514, 36.12560187940521], [-85.61360069674434, 36.12559687977522], [-85.61322469587721, 36.125578879004664], [-85.61270269655158, 36.12555987938069], [-85.61262969627491, 36.125562879600814], [-85.61254569568828, 36.125555879247756], [-85.61252969601453, 36.12556687907172], [-85.61249969590205, 36.125566879143406], [-85.61236269622296, 36.12558987978752], [-85.61218669606424, 36.12563987913403], [-85.61210269620044, 36.12567387935899], [-85.61198669602663, 36.12571887918679]]]]}}]}