{"type": "FeatureCollection", "features": [{"type": "Feature", "properties": {"name": "District 1", "slug": "district-1", "ccd": 1}, "geometry": {"type": "MultiPolygon", "coordinates": [[[[-85.4908106635758, 36.1684058933238], [-85.49080866405075, 36.16844589326663], [-85.4907856641704, 36.168880893628945], [-85.49078066332484, 36.16898189295124], [-85.49077266317438, 36.16927989326091], [-85.4907826634944, 36.16935889321717], [-85.4911626640353, 36.169388893316146], [-85.49145866387641, 36.16941289379343], [-85.49222866406839, 36.16948789317701], [-85.4923016646325, 36.16949489295129], [-85.49235266413311, 36.16949989310261], [-85.49267966390323, 36.16954689292124], [-85.49304866409955, 36.16958489352126], [-85.49415666470976, 36.16970189299891], [-85.49445766531117, 36.16973389305785], [-85.4945266649773, 36.16973789338705], [-85.49475166470043, 36.16975889368088], [-85.49542966461239, 36.16982189287], [-85.49549566530261, 36.1698288929915], [-85.49565566563993, 36.169847893101064], [-85.4961206656358, 36.16989389284737], [-85.49642566559652, 36.16992489348209], [-85.49701366571874, 36.16997389303964], [-85.49751666569473, 36.17002489357694], [-85.49798266549953, 36.170072892881386], [-85.49805066550435, 36.170080893097804], [-85.49802866558231, 36.17020289320972], [-85.49827766587657, 36.170230893016566], [-85.49923466665625, 36.1703388931818], [-85.49955366674071, 36.17037489364985], [-85.49969266655116, 36.17038789362364], [-85.50007266630656, 36.17042689345752], [-85.50010966698544, 36.17043189362946], [-85.50017966606474, 36.17044289307615], [-85.50024866661867, 36.170446892837305], [-85.50024966701191, 36.170452893002434], [-85.50025366636127, 36.17047089312434], [-85.5002556664046, 36.17047789331062], [-85.50055566629266, 36.17041489294717], [-85.50068866670593, 36.17038789285999], [-85.50099566708717, 36.17032089357331], [-85.50138766711635, 36.17024689315823], [-85.50145766726406, 36.17023189348], [-85.50175866674464, 36.17016889335755], [-85.50163866666277, 36.16979889311921], [-85.50159866696285, 36.169672892569395], [-85.50156066726176, 36.16953889264366], [-85.50152966630016, 36.16945189301578], [-85.50129366661336, 36.16870389256129], [-85.5012896671573, 36.168688892731446], [-85.50127866724634, 36.16863889271712], [-85.50120166642164, 36.16840589303355], [-85.5011946666413, 36.168360892557644], [-85.50117866697408, 36.168318893005704], [-85.50127066637867, 36.16830289293485], [-85.50145566717275, 36.16830989297338], [-85.50191966637122, 36.16832989312157], [-85.5022936668139, 36.16834789274771], [-85.50241766749667, 36.16835389262339], [-85.50257366686701, 36.16836089305492], [-85.5027106667492, 36.16836689302705], [-85.50312366723982, 36.16838489303668], [-85.50326166756496, 36.16839089289646], [-85.50345666720929, 36.168398892651176], [-85.50404166761696, 36.16842589299981], [-85.50423666783941, 36.16843489278631], [-85.5043206674227, 36.168437892864006], [-85.50433666811122, 36.16843889226958], [-85.50457266784026, 36.16844289299977], [-85.50465766738097, 36.168444892953374], [-85.50472666803395, 36.16844489221253], [-85.50483866739476, 36.1684468928726], [-85.50538366816316, 36.16845789303376], [-85.50544366753202, 36.16845989272541], [-85.50556566794249, 36.16845589260131], [-85.50573766803605, 36.168462892299246], [-85.50619166768462, 36.168482892747896], [-85.50625566766512, 36.1684878924459], [-85.5064286680544, 36.168501892565004], [-85.50660066880006, 36.1685148924669], [-85.50711766839171, 36.168553892970515], [-85.50729066861373, 36.16856689236443], [-85.507324668243, 36.168321892625194], [-85.5073416687516, 36.16820589257317], [-85.50742466877803, 36.16758989257885], [-85.5074576687994, 36.16734589265586], [-85.50747366805896, 36.1672768923404], [-85.50749166857413, 36.16714189252787], [-85.5075746683628, 36.166527892140074], [-85.50760266880019, 36.16632389179581], [-85.50760566793022, 36.16629589222688], [-85.50761066873444, 36.16625089240126], [-85.50761066888498, 36.16621289202416], [-85.50761066857895, 36.16618589232356], [-85.50762566874084, 36.16606289209678], [-85.50766466882945, 36.16575289169142], [-85.50767166816216, 36.165693891851724], [-85.50768666859913, 36.165571891992606], [-85.50769166783938, 36.16553089190475], [-85.50771066887269, 36.16540989162152], [-85.50771766809129, 36.16536989196673], [-85.50774166846368, 36.165186891509556], [-85.50781466793481, 36.16463989130401], [-85.50783966863766, 36.16445789165753], [-85.50784066809925, 36.16442989202644], [-85.50784166883386, 36.16441889181846], [-85.50784666835843, 36.16434789173247], [-85.50784966779797, 36.16432089163321], [-85.50785166845611, 36.16428289128311], [-85.50786066846996, 36.16416989203014], [-85.5078626685755, 36.16415689151136], [-85.50786966888676, 36.164133891258885], [-85.50771866849128, 36.16409489202409], [-85.50761866832912, 36.16406289160723], [-85.50687466830054, 36.16382689117185], [-85.50662666845312, 36.16374889176304], [-85.50649566746009, 36.16370689135971], [-85.50610566731683, 36.16358089166477], [-85.50604466821474, 36.16356189147313], [-85.50597666769829, 36.16353689179471], [-85.50601866732413, 36.163429891265885], [-85.50608866784732, 36.16324889171352], [-85.50614566777641, 36.16308089175777], [-85.50616866737494, 36.16300489131084], [-85.50616866781263, 36.16300089155371], [-85.5062226682736, 36.162821891207116], [-85.50623166744792, 36.16276189108147], [-85.5062446672808, 36.16268089101097], [-85.50627466780038, 36.16252089178609], [-85.50629066798454, 36.16244389112158], [-85.50633666773008, 36.16207389152312], [-85.5063416672495, 36.16203989148245], [-85.5063486677636, 36.1620018908534], [-85.50635966796217, 36.16187889140433], [-85.50636566774256, 36.16184489094593], [-85.50641266788101, 36.16181089144246], [-85.50648366783756, 36.16140589107059], [-85.50651966724206, 36.16120489122882], [-85.50656566830692, 36.16104389111413], [-85.50660366784169, 36.16083789114363], [-85.50664966830156, 36.16064689096794], [-85.50671066754954, 36.16034189127282], [-85.50679466770605, 36.159928891008605], [-85.5068096682142, 36.15985789119166], [-85.50682466738735, 36.159788890346], [-85.5069016672693, 36.15943789101146], [-85.50696166808193, 36.159145890304565], [-85.5071446672568, 36.15827189008596], [-85.507206667208, 36.157980890519696], [-85.50728566744037, 36.15762988994103], [-85.50747366781087, 36.15680988992726], [-85.50752766814978, 36.15657888997702], [-85.50761066732814, 36.15622988994677], [-85.5073706677111, 36.15620489026166], [-85.50693966744228, 36.15616089013216], [-85.50665166791485, 36.156122889677015], [-85.50641266687359, 36.15609289020482], [-85.50609066700586, 36.156058889702976], [-85.50512366701757, 36.155957890138936], [-85.50480266663943, 36.155924889784444], [-85.5046796666105, 36.15591388989931], [-85.5043126664472, 36.15588188998627], [-85.50423066665165, 36.15587489017554], [-85.50419266644109, 36.15586389016748], [-85.50379066630097, 36.15570389020908], [-85.50346066683109, 36.15557389051558], [-85.50310166609547, 36.155416889683934], [-85.50289566593496, 36.15533689042372], [-85.50259066677506, 36.15521289001682], [-85.50233166621523, 36.15510789042162], [-85.50220166576958, 36.15502788971852], [-85.50215766619169, 36.15506189009891], [-85.50205166569258, 36.15513288981325], [-85.50200566553275, 36.15516388971748], [-85.50165966611814, 36.15540589029774], [-85.50141566588424, 36.155568890071685], [-85.50121766622502, 36.155702890551765], [-85.5010486659965, 36.15580989005503], [-85.50102666609416, 36.1558248906018], [-85.50063266627004, 36.156178890519705], [-85.50060066564274, 36.15620689075755], [-85.50052266515466, 36.15627889001713], [-85.50045466512991, 36.156343890022114], [-85.50046966563757, 36.155813890095935], [-85.50047566582701, 36.15563288983801], [-85.50047766570809, 36.15559289052262], [-85.50048466568718, 36.155410890394506], [-85.50048366583854, 36.15482088976222], [-85.50049166557194, 36.15454888991922], [-85.5005366660498, 36.15350188998304], [-85.50056866562, 36.152792889599326], [-85.50057666593571, 36.15266288959576], [-85.50058366511895, 36.152565889414475], [-85.50058766516678, 36.15237488940278], [-85.50059366555814, 36.15226388948511], [-85.5005996656974, 36.15217888988061], [-85.50060666560466, 36.151953889783414], [-85.50062966532157, 36.15152988926128], [-85.50065266555904, 36.151048889676176], [-85.5006716656541, 36.15067888926151], [-85.50067566536951, 36.15060288939268], [-85.50067866490193, 36.15046188951776], [-85.50069566559557, 36.1501508886979], [-85.50070566535841, 36.14996988938931], [-85.50070866563348, 36.14989588886213], [-85.50074066515855, 36.14913288900944], [-85.5007516650322, 36.148878888430886], [-85.50075266528611, 36.1488468889615], [-85.50075566494307, 36.148750888744615], [-85.50075666519945, 36.148718888372876], [-85.50077966493744, 36.14823488903087], [-85.50084966479571, 36.146782888446715], [-85.50087366498644, 36.1462998879714], [-85.50088866556598, 36.14593188843982], [-85.50093666483706, 36.14482888799763], [-85.50094266519443, 36.14470888789244], [-85.50095066475076, 36.144609888134525], [-85.50095766559731, 36.14446188829512], [-85.50096566553997, 36.144293888275364], [-85.5009676650985, 36.14423688751586], [-85.50100066527072, 36.14356388748522], [-85.50101166495956, 36.14333988757764], [-85.50101166468167, 36.143277887369095], [-85.50101166531422, 36.14326788791962], [-85.50102266544008, 36.143091888072114], [-85.50102666459944, 36.14303088767073], [-85.50103566477748, 36.14273588739822], [-85.50104366534094, 36.14248588727225], [-85.50105766461135, 36.1422058874344], [-85.50106666472118, 36.14215588772086], [-85.50107666495992, 36.14185288744341], [-85.50108166478643, 36.141726887034], [-85.50109766438838, 36.14155888752051], [-85.50110566468915, 36.14147188702414], [-85.50113166516981, 36.14121288737047], [-85.50114066468942, 36.14112688688572], [-85.50120166503638, 36.1406578873504], [-85.50121566448117, 36.14057188678897], [-85.50129366458299, 36.14011288748107], [-85.50140766446344, 36.139574886530625], [-85.50156966435584, 36.138932886506254], [-85.50168266466142, 36.13848788639889], [-85.50168966476478, 36.13843988633772], [-85.50169766478614, 36.13838888651026], [-85.50169866537526, 36.13838188696193], [-85.50170266491227, 36.138360887030075], [-85.50170466476939, 36.13835488659821], [-85.50170466543189, 36.1383508868151], [-85.50170766482127, 36.13834088712032], [-85.5017096647335, 36.13833788697855], [-85.50172066513424, 36.138290886707914], [-85.50180266484104, 36.1380148867991], [-85.50205666439005, 36.137171886654414], [-85.5021036652963, 36.137053886827374], [-85.50223166508643, 36.1367438862109], [-85.50227466498967, 36.13662988671068], [-85.5023106652119, 36.13653588609659], [-85.50238666449769, 36.13633488624118], [-85.50240266441006, 36.136288886175464], [-85.50244566533436, 36.136175886103395], [-85.5025176645137, 36.13597588627349], [-85.5025826651956, 36.1358018859037], [-85.50270366546962, 36.135501885957986], [-85.50274766529283, 36.13538288568681], [-85.50280466479785, 36.13523488597419], [-85.50281966450427, 36.13518388603969], [-85.50284466555401, 36.135123885882074], [-85.50288266520735, 36.135034886282156], [-85.50291266554547, 36.13494388626119], [-85.50293366516773, 36.13488288632143], [-85.50300566510673, 36.13469888620501], [-85.50308666448164, 36.13449388590638], [-85.50322066520918, 36.13414688594349], [-85.50329266492656, 36.133962885625316], [-85.50345266535385, 36.13400488592745], [-85.50393566493959, 36.134124885579745], [-85.50456066508731, 36.134280885998216], [-85.5052786659445, 36.13447488582431], [-85.50545866609028, 36.134511885962716], [-85.50587766634357, 36.13455788612423], [-85.50622666611875, 36.134596885778066], [-85.50653866604152, 36.13462788582821], [-85.50691766569015, 36.13466688541022], [-85.50728266613906, 36.13469288544745], [-85.50761266629274, 36.13472988561096], [-85.50789266633984, 36.134761885335976], [-85.50847366631642, 36.13481988579165], [-85.50882966652499, 36.13482788598546], [-85.50902666658071, 36.134794885209594], [-85.50917566643113, 36.13474888555804], [-85.50928466655651, 36.134707885448734], [-85.5093456669131, 36.13465688524473], [-85.50941266668012, 36.13462388592005], [-85.5094956664471, 36.13455888570939], [-85.50967066721492, 36.134394885644866], [-85.50972266642243, 36.13431188550802], [-85.50980466692343, 36.134070885821096], [-85.50982566670672, 36.13393788579121], [-85.50982566700567, 36.13378488530893], [-85.50985066646494, 36.1335978854372], [-85.50985566652045, 36.13339788564979], [-85.50985766737664, 36.13338188560888], [-85.50989766643953, 36.13316988532454], [-85.50991766660412, 36.132936885545185], [-85.50991466646141, 36.13281888496661], [-85.50996066730427, 36.132463885421956], [-85.5099836668363, 36.13231188496742], [-85.51001266655979, 36.132118885333654], [-85.51006066736224, 36.13189388521297], [-85.51017466687419, 36.13142488459152], [-85.51028466702986, 36.13097688495903], [-85.51033066682177, 36.13074788486741], [-85.51052066701014, 36.1299538842033], [-85.51079166705357, 36.128773884514814], [-85.51094866638184, 36.128096884020195], [-85.51098266731692, 36.12788688392695], [-85.51099866740472, 36.1277798844266], [-85.51101666709116, 36.12763988435374], [-85.51103366716599, 36.12744788378632], [-85.51104366652828, 36.127348883870674], [-85.51104366633295, 36.127306884216985], [-85.51106266642104, 36.1271398836983], [-85.5110776670423, 36.126926883730604], [-85.51116366732154, 36.12612888358896], [-85.5112006667908, 36.1257888840651], [-85.5112266666865, 36.12569288343221], [-85.51138366719454, 36.12537188367693], [-85.51139166697315, 36.1253568839437], [-85.5114256665543, 36.12530288379028], [-85.51153166648419, 36.12508888317761], [-85.51157266677473, 36.12502188359551], [-85.51165566741442, 36.12465788384098], [-85.51168866709045, 36.124386883754525], [-85.51169066715597, 36.12436188364885], [-85.51172266678951, 36.12400688371718], [-85.51174966646852, 36.12365488363627], [-85.51175766665057, 36.123552883290714], [-85.51175666735986, 36.12320088340002], [-85.51174166717581, 36.12303088348338], [-85.51164366645813, 36.12260988322726], [-85.51163966642517, 36.12259088285422], [-85.5116236664796, 36.1224698831588], [-85.51160866725331, 36.122259883390406], [-85.51161366675596, 36.122204883394666], [-85.51164466661298, 36.1220688831985], [-85.51166966646734, 36.121990882847754], [-85.51168066634574, 36.12196088290844], [-85.51173866717339, 36.12186688263921], [-85.51179666685167, 36.12179888284341], [-85.51195166731921, 36.1216568826441], [-85.51207266694875, 36.12158488273182], [-85.51228066633645, 36.12145088247384], [-85.51239866669037, 36.12137588242273], [-85.51244666648766, 36.12133088265255], [-85.512455666602, 36.12131388247204], [-85.51246966660794, 36.12129888257146], [-85.51248566651059, 36.12127188233578], [-85.51251766725274, 36.12125988247773], [-85.51253966702238, 36.12124588285317], [-85.51259266731114, 36.12119588320138], [-85.51260566645091, 36.12117888294505], [-85.51266166693048, 36.12111388306161], [-85.51274166703391, 36.120974882831085], [-85.51284466733283, 36.120821882396854], [-85.51286166677225, 36.120794882540515], [-85.51294466693267, 36.12066488257033], [-85.51341766715605, 36.12067688292755], [-85.51483666806998, 36.12071588218232], [-85.51530966717576, 36.12072888272464], [-85.51528266765692, 36.119235881966944], [-85.51606266823441, 36.11921988182535], [-85.51932566908937, 36.119155881628416], [-85.51934766800542, 36.11559688119524], [-85.51936266891856, 36.113323880933905], [-85.51926266795331, 36.11332988046803], [-85.51925066809383, 36.11333088080868], [-85.51896266778178, 36.11334888078915], [-85.51886366813542, 36.11335588078367], [-85.5188186676712, 36.11335988132702], [-85.51865766785005, 36.11335288050924], [-85.51855066826755, 36.11334088122797], [-85.51854366836368, 36.11334088122585], [-85.51834566818653, 36.11331088075174], [-85.5181926684386, 36.11327288075167], [-85.51785666749548, 36.11316188133738], [-85.5176736681437, 36.113119880810856], [-85.51764166810105, 36.113114880609274], [-85.51749066780923, 36.11309288063515], [-85.5173306682934, 36.11308588114336], [-85.51726966757677, 36.11308588125964], [-85.51707866807757, 36.11310488048882], [-85.51697266734722, 36.11312488137084], [-85.51661366707778, 36.1131958813089], [-85.51591166764035, 36.1133388813219], [-85.51590366698586, 36.11334088065938], [-85.51572866759152, 36.11338288093491], [-85.51568266683816, 36.11339788072311], [-85.51564566701131, 36.113415880895765], [-85.5155756677171, 36.113458881166395], [-85.51557566676644, 36.11341388106398], [-85.51556866705063, 36.11337288150066], [-85.51554366749875, 36.11330188137419], [-85.51537966763149, 36.113333880739376], [-85.50833366487572, 36.1132208809715], [-85.50839566517975, 36.11178088092056], [-85.50773266495223, 36.10893788040302], [-85.50606966355382, 36.105853879518364], [-85.50596666388732, 36.1059338802969], [-85.50593366450686, 36.10595887961773], [-85.50555166395152, 36.10625787995102], [-85.50552266359688, 36.10626988037378], [-85.50543366396073, 36.106309880432455], [-85.50535966401519, 36.10631788031548], [-85.5053476634399, 36.10624887975358], [-85.50531266382148, 36.1060448797739], [-85.50530866439145, 36.10602188018757], [-85.50530066419277, 36.105977880016496], [-85.50527466333868, 36.10585087962633], [-85.50526866328279, 36.105821880214776], [-85.50523366365945, 36.10563487986775], [-85.50519266428141, 36.10547288033916], [-85.50516166388996, 36.105348879537495], [-85.50514566426092, 36.10529787973893], [-85.50512966335663, 36.10524387961746], [-85.50510466357346, 36.105144880203184], [-85.50509266340035, 36.105093879682556], [-85.50502466348665, 36.10481188013954], [-85.50497166374495, 36.104425880104095], [-85.5048676632597, 36.103763879509195], [-85.50486366303922, 36.103735879664725], [-85.5047076638523, 36.102626879501315], [-85.50465766292021, 36.10232287965886], [-85.50461066301185, 36.10185687947009], [-85.50461266300259, 36.10162187874009], [-85.50461666388358, 36.10147987893996], [-85.50462766308685, 36.10134187886435], [-85.50466466381766, 36.10111987934727], [-85.50475766312434, 36.100662879075685], [-85.5048006632912, 36.100499878536525], [-85.50493666375982, 36.09992587907315], [-85.50493666385576, 36.099871878743], [-85.50450566343049, 36.101180879135235], [-85.50421366298659, 36.10108987948678], [-85.50406766276524, 36.10148487950877], [-85.50376366341706, 36.10231187972833], [-85.50362266288099, 36.102668879746105], [-85.50360566343033, 36.10271287901441], [-85.50347566282775, 36.103063879311456], [-85.50331166299857, 36.102874879807324], [-85.50323166347323, 36.10278287975899], [-85.50304966329682, 36.10251487909645], [-85.50302666346818, 36.102488879206746], [-85.50298766336289, 36.102410879675276], [-85.50294066285643, 36.102338879333665], [-85.50291066282787, 36.10226287892652], [-85.50290366307715, 36.10224987904153], [-85.5028736632214, 36.10218787890338], [-85.50284466243218, 36.10211087948547], [-85.50281966333512, 36.10207287905377], [-85.50280466246865, 36.102022878911555], [-85.50274966305479, 36.10183287958045], [-85.5027136628072, 36.101706879118716], [-85.50267166294292, 36.10152187949266], [-85.50265066304183, 36.10134487957536], [-85.50263766231531, 36.10127487952191], [-85.50263666325723, 36.10125387948359], [-85.50262866291142, 36.10105787947413], [-85.50251266247031, 36.101068879535894], [-85.50246566321651, 36.101074879150254], [-85.50245066279996, 36.10107787886727], [-85.50224766303383, 36.10111887888682], [-85.5021176631163, 36.10116787949457], [-85.50204966288096, 36.101207879066045], [-85.50200766307938, 36.10123587924791], [-85.50198266262004, 36.10125487926525], [-85.5018886622128, 36.10134787943693], [-85.50185566296993, 36.101402879047505], [-85.50182966307271, 36.10144787916354], [-85.50179666244368, 36.10154787901583], [-85.50179166295894, 36.10158287889598], [-85.50178966211956, 36.10160387916505], [-85.50179166240615, 36.1016468796692], [-85.50179666292252, 36.10177087952042], [-85.50185766249636, 36.10212487969037], [-85.50188066252812, 36.10225187938321], [-85.50207266315356, 36.10355887997096], [-85.5021406625642, 36.104017880140724], [-85.50214766249658, 36.10403687979587], [-85.5021846632887, 36.10434187960211], [-85.50218866330711, 36.10436888002971], [-85.50218666318995, 36.10448987940504], [-85.50216566308353, 36.104617879794354], [-85.50214966241272, 36.104679879450366], [-85.50212866336152, 36.10473487996381], [-85.50204566295253, 36.10490087950604], [-85.50188866237261, 36.10514687979974], [-85.5018616633403, 36.10518187981517], [-85.50178166317967, 36.10529187966106], [-85.5016826626525, 36.10543187980345], [-85.50175566306606, 36.1054478796672], [-85.50197466232227, 36.10549888020041], [-85.50204866282111, 36.10551587991496], [-85.50196566311533, 36.10575688003912], [-85.50190266320844, 36.10594088010846], [-85.50153866250734, 36.106670880654384], [-85.5012716628944, 36.10713588000816], [-85.50123366250234, 36.107247879985266], [-85.50109666268655, 36.10766088076621], [-85.49779766194688, 36.11127888128082], [-85.49748966224844, 36.11157788101767], [-85.49724566234835, 36.11181688186267], [-85.49615666117684, 36.11295888171519], [-85.49554466103861, 36.11359788170892], [-85.49402466141679, 36.115188881932134], [-85.49370066071718, 36.11546188253462], [-85.49368066061689, 36.11548288275838], [-85.49325866150099, 36.11594088243776], [-85.49299766131722, 36.11596088243512], [-85.49271866104496, 36.11598988279904], [-85.49292466092096, 36.11630788222563], [-85.49238566040286, 36.11687788264949], [-85.49178066091208, 36.11752088252279], [-85.48943666023902, 36.12004888374343], [-85.48894165981538, 36.12058488327782], [-85.48838265986448, 36.12029488353934], [-85.48830866005176, 36.12025488341974], [-85.48829465945647, 36.12024688389727], [-85.48825566030237, 36.120222883638235], [-85.48824265970006, 36.1202158833469], [-85.488229659667, 36.120155883356134], [-85.48820265924694, 36.120032883323105], [-85.48819066012501, 36.119977883275595], [-85.48817866014176, 36.11991888341478], [-85.48817165951917, 36.1198878835909], [-85.48815565942269, 36.11976788365461], [-85.48813465998761, 36.11963988361115], [-85.48809765963539, 36.11948888300259], [-85.48804466023526, 36.11927188342938], [-85.48802765993602, 36.11921988316367], [-85.48780565936603, 36.11857988338453], [-85.48769565901122, 36.118238883587566], [-85.48768665990109, 36.118210883651905], [-85.48765965956115, 36.118143883468214], [-85.48763865910165, 36.1181098833084], [-85.48762265915553, 36.11806888353937], [-85.4875696591369, 36.117995883127776], [-85.48749165903652, 36.11791088339063], [-85.48745865996815, 36.117877883089214], [-85.48744565945618, 36.11786388348961], [-85.4873786596322, 36.11781988295637], [-85.4871446588701, 36.11766788326619], [-85.48712865919758, 36.11765888280927], [-85.48704365921132, 36.11760988284474], [-85.48657465865834, 36.1176048835323], [-85.48516765895377, 36.117592883080285], [-85.48469965847686, 36.1175888829509], [-85.48429165800192, 36.11766888302231], [-85.48376065890986, 36.117773883673465], [-85.48356065878949, 36.11781288324666], [-85.4830646582835, 36.117745882894766], [-85.483054658645, 36.11774488289705], [-85.48299365812275, 36.1175968835022], [-85.48287665776138, 36.11738288324585], [-85.48106465735077, 36.11700288350197], [-85.47857165715463, 36.116479883125514], [-85.47889765714477, 36.11458988281478], [-85.47781265643383, 36.114531883229866], [-85.47723465662128, 36.114501882786826], [-85.47596365579, 36.11452988276444], [-85.47585565604551, 36.11452488283237], [-85.47553465600599, 36.11451088328354], [-85.47542765605724, 36.11450688321357], [-85.47521965589425, 36.11571788279764], [-85.47459665601394, 36.11935288430392], [-85.47438965581982, 36.120564884036085], [-85.47509165631668, 36.121315884504746], [-85.47601865670505, 36.12230788457782], [-85.474686656539, 36.12341188469465], [-85.47389565551586, 36.12406988458404], [-85.47390065588938, 36.124075885372555], [-85.47392765617985, 36.12410288510411], [-85.47402565581612, 36.124203885310585], [-85.47405865644225, 36.12423788514899], [-85.47345565549676, 36.12467188509669], [-85.47211865502025, 36.12563788557661], [-85.47262065554986, 36.12592588524887], [-85.47326465641969, 36.12629688553861], [-85.47479165601936, 36.12718188595699], [-85.47482865589168, 36.12761788585382], [-85.47491265613107, 36.12858788627865], [-85.47554465672853, 36.12863188623309], [-85.47537265670883, 36.12916688551165], [-85.47612265699227, 36.12921188578964], [-85.47605465716913, 36.12970088558665], [-85.47822965700813, 36.12991988614148], [-85.47779365773066, 36.13083088576128], [-85.47684365737258, 36.13281888641116], [-85.47697565687722, 36.13282588652916], [-85.47719865715402, 36.13283988622287], [-85.47737165758006, 36.13284488702843], [-85.4775046580332, 36.132849886498654], [-85.47726465773668, 36.13319988622738], [-85.47719865790965, 36.133233886915356], [-85.47684765766938, 36.13342288655421], [-85.47588765678145, 36.13394988706242], [-85.47569265699074, 36.13405788686623], [-85.47567965707779, 36.134332887072546], [-85.47567265740187, 36.13436688735978], [-85.47565465704781, 36.13446888682971], [-85.47564865734662, 36.134503887353546], [-85.47572065705614, 36.13449988682025], [-85.47615865738604, 36.13448188684219], [-85.47648065738501, 36.13446888687493], [-85.47699165782068, 36.13445888657045], [-85.47768965810863, 36.13445688677722], [-85.47820065810059, 36.13445688714711], [-85.47844365842634, 36.13445788650942], [-85.47848165834424, 36.134458887146856], [-85.47889365821847, 36.13446188679298], [-85.4791756579494, 36.13446988648138], [-85.47941965789816, 36.134477886481605], [-85.4793596578482, 36.1347508870759], [-85.47933965798929, 36.1348338870749], [-85.47929765775665, 36.13501588661292], [-85.47917465839069, 36.13554488675981], [-85.47910065867671, 36.13590488756538], [-85.47908565852438, 36.1359818868647], [-85.47902265825147, 36.136262887345744], [-85.47893165795786, 36.136602887714034], [-85.47892165779152, 36.13665188749582], [-85.47873365826655, 36.137587887424765], [-85.47867965857353, 36.13783488772415], [-85.47863565774828, 36.13804188731795], [-85.47859565855123, 36.138166887736546], [-85.47858265789964, 36.13822588750149], [-85.4784076583991, 36.13901188753946], [-85.47792365801052, 36.141198888322556], [-85.47788365817456, 36.1413718885685], [-85.47774965796262, 36.141962888744544], [-85.4777106586838, 36.1421378886199], [-85.4777066580746, 36.14215788826271], [-85.47768765785393, 36.14226488818823], [-85.47753365770525, 36.142966888770104], [-85.47752665797968, 36.14299988869107], [-85.47736765824487, 36.14369088905957], [-85.47706165774234, 36.145083889316915], [-85.47698865769638, 36.145390889352676], [-85.47698665833026, 36.14540088915843], [-85.47681065856038, 36.14605988945081], [-85.47676965829515, 36.14618988937761], [-85.47659565850482, 36.14674288925511], [-85.47654365815102, 36.146910889772116], [-85.47631465773725, 36.14754788930194], [-85.47603265783836, 36.14821888974735], [-85.47596465856009, 36.14836188990222], [-85.47571965818801, 36.14888688965607], [-85.47551065793641, 36.149168889713785], [-85.47528365838525, 36.14950989034665], [-85.47524665795939, 36.1495658903959], [-85.47493365741549, 36.149977890489296], [-85.47468965763998, 36.150255890208086], [-85.47439265818248, 36.15054589044401], [-85.47401865737964, 36.1508818906578], [-85.47370765798303, 36.15114889026701], [-85.47365265720109, 36.15119789055283], [-85.4736066578797, 36.15122089006218], [-85.47341565783981, 36.151403890624984], [-85.47323265743437, 36.15156389057615], [-85.47320165786405, 36.15162389071631], [-85.4731796572924, 36.151679890701416], [-85.47299165688482, 36.151588890946144], [-85.47285865710674, 36.1515258907819], [-85.47264865748713, 36.151436890707124], [-85.47241965744097, 36.151334890379694], [-85.47241765712148, 36.151333890251614], [-85.47223365677095, 36.151242890565356], [-85.47221465709585, 36.15123289093732], [-85.47215965734836, 36.15120589024969], [-85.4721416567642, 36.15119789036322], [-85.47196465696337, 36.15110689024026], [-85.47189465723656, 36.15106789024801], [-85.4717296575233, 36.150976890919075], [-85.47130265707314, 36.1507178904072], [-85.47118465651164, 36.15062889062868], [-85.47113465707504, 36.15059189029971], [-85.47094365668589, 36.15049289082143], [-85.47082965631827, 36.15042789068143], [-85.47081865701875, 36.15042289003795], [-85.47043165644516, 36.15024289025974], [-85.47030265700778, 36.15018389015283], [-85.47012265660244, 36.15010589007244], [-85.46991965690512, 36.150018890577435], [-85.46958165615915, 36.1498778906901], [-85.46940165598508, 36.14980289071024], [-85.46928865654111, 36.1497558907052], [-85.46925665594298, 36.149743890314156], [-85.46881665596247, 36.14958689020138], [-85.4687996561559, 36.149580890500765], [-85.46866765583525, 36.149542890038965], [-85.46859365586734, 36.14952189023346], [-85.46840165627287, 36.149471889964545], [-85.46831965543139, 36.14945088989187], [-85.46796865599505, 36.14937488996035], [-85.46777765554681, 36.14934089042262], [-85.46759265568912, 36.149314890483815], [-85.46747965560134, 36.1492988902311], [-85.46731965568236, 36.14929889062629], [-85.46730665539316, 36.14929389074028], [-85.46727065598024, 36.149279890300534], [-85.46725865577505, 36.14927589071421], [-85.46670965510414, 36.14921589065149], [-85.4665176558067, 36.14919589024562], [-85.46515165484392, 36.14905989013501], [-85.46506165454622, 36.14905089048553], [-85.46451265433171, 36.14899688999956], [-85.46448965512104, 36.14899389039098], [-85.4644206550468, 36.148987890013046], [-85.46439765464788, 36.14898589077788], [-85.46433265514973, 36.14897889058624], [-85.46414165497887, 36.14895789043238], [-85.46407765453576, 36.14895089003332], [-85.46270365436487, 36.14881289073597], [-85.46229865392829, 36.14877289051583], [-85.46224665388002, 36.14876789023583], [-85.46189565446134, 36.1487298903587], [-85.46154465379749, 36.14869589013814], [-85.46075865336496, 36.148611890678445], [-85.46052965337111, 36.148577890074], [-85.46025465366381, 36.14851989007005], [-85.4599726532098, 36.148439890836855], [-85.45978965286325, 36.14837189012042], [-85.45959865317211, 36.14830289075591], [-85.45911865282092, 36.14809689083876], [-85.45901865310395, 36.14805089025455], [-85.45868365267138, 36.1478718904586], [-85.45853065287066, 36.147778890797085], [-85.45836265327023, 36.147676890334424], [-85.45828665240789, 36.14763189000232], [-85.4581336524265, 36.14752489057663], [-85.45789765317559, 36.1473298905258], [-85.45750865270853, 36.146959890679916], [-85.45743965222272, 36.146883890031305], [-85.45736365256202, 36.146799889836664], [-85.45711965220725, 36.146494890531656], [-85.45706765282004, 36.14641288985752], [-85.45699765192262, 36.14631188982536], [-85.45682165196459, 36.14602188998165], [-85.45671465242684, 36.14581188987328], [-85.45660065268862, 36.145540889752525], [-85.45653965187948, 36.1453578901346], [-85.45643065211424, 36.14542789024573], [-85.45639465261365, 36.14545289032429], [-85.4563106527095, 36.14553288976425], [-85.4562726518319, 36.145624890308056], [-85.45625365265194, 36.14575189034368], [-85.45623465193427, 36.14588089025938], [-85.45616565187673, 36.146429890367386], [-85.45616365264038, 36.14644289012882], [-85.456066652024, 36.14722689061099], [-85.45602065243479, 36.147528890628585], [-85.45599065214552, 36.14768089055253], [-85.45589865207235, 36.14795589048028], [-85.45583565221538, 36.14810189057762], [-85.45578465263584, 36.14822289067286], [-85.45571565191986, 36.148355890919824], [-85.4555626517329, 36.14859689029783], [-85.45512365174554, 36.1491998911478], [-85.45494065192563, 36.14945289057887], [-85.45463965194207, 36.14984389069519], [-85.45430165215572, 36.150296891506876], [-85.45413465228172, 36.150546891432874], [-85.45397365190017, 36.15085089100201], [-85.45389965165818, 36.1510628916238], [-85.45380065170342, 36.15135289106194], [-85.45378765158382, 36.15144289131714], [-85.45376565163284, 36.151535891675145], [-85.45375165154378, 36.15162989168471], [-85.45373165224505, 36.15172089128363], [-85.45372465163175, 36.151785891654114], [-85.45352665237382, 36.1533268919941], [-85.45347965235372, 36.15369689226562], [-85.45325865166939, 36.15555789211232], [-85.45320565184973, 36.156225892495044], [-85.45320565155095, 36.15666889262516], [-85.45322065159063, 36.15698489249988], [-85.45328165235941, 36.15754189215106], [-85.45335065239661, 36.15796289228543], [-85.45340365188905, 36.158285892960286], [-85.45356865203534, 36.159173892612785], [-85.45362465262502, 36.15949289337397], [-85.4536636522147, 36.15971589284671], [-85.45370665204825, 36.159984893375636], [-85.45374765239247, 36.16023489355644], [-85.45385165201715, 36.160859892991155], [-85.45399165286088, 36.16169189323203], [-85.45402865267285, 36.162015893397495], [-85.45402865285735, 36.16223089326549], [-85.4540136526359, 36.16242189333016], [-85.45395865290475, 36.16276989403066], [-85.45392265270392, 36.16292489394236], [-85.45375465298639, 36.16383589376873], [-85.45361765273309, 36.164648894065046], [-85.4535716526857, 36.164965894124606], [-85.45355665262502, 36.16507189397228], [-85.45351065295766, 36.16538489420879], [-85.45351065239943, 36.16569389383007], [-85.45353365321486, 36.165888894251815], [-85.45357965321425, 36.166082894747035], [-85.45366365332968, 36.166326893976205], [-85.45384665280602, 36.166323894564265], [-85.45405165240533, 36.16633989459487], [-85.45521565349793, 36.16643089405416], [-85.45554765281659, 36.16645689453183], [-85.45560365319812, 36.16646189403797], [-85.45580065370805, 36.1664798945526], [-85.4563946540324, 36.166536894426834], [-85.45643265409463, 36.166540894096805], [-85.45659265323785, 36.16655989469765], [-85.4567076540157, 36.16657089399124], [-85.45684665362936, 36.166584894201485], [-85.45751565398712, 36.16665189469169], [-85.45761065419806, 36.1666598939791], [-85.45786665416134, 36.16668189463631], [-85.45802265446468, 36.16669589414537], [-85.45834565425771, 36.166725894035636], [-85.45849165445354, 36.16674089441538], [-85.45864865470601, 36.16675889466174], [-85.45872865426537, 36.16676789467311], [-85.4588396539404, 36.16678089460019], [-85.45941465432527, 36.16685289400541], [-85.45960665405187, 36.16687689438728], [-85.45990965517585, 36.1669128939212], [-85.46059065523383, 36.16699489454981], [-85.46082065443294, 36.16701889427965], [-85.4611246551183, 36.16705189404729], [-85.46117465551183, 36.167054894035466], [-85.46123165477138, 36.16705989448415], [-85.46132565511851, 36.16707089386338], [-85.4613766555234, 36.16707689399833], [-85.46146465515427, 36.16708589454707], [-85.46172965541264, 36.16711489384651], [-85.46181865535982, 36.167124894483024], [-85.46218065499086, 36.16714689442774], [-85.46247665547688, 36.16716489432463], [-85.46326965612396, 36.16720089368986], [-85.46363365539784, 36.16721789440503], [-85.46366365582462, 36.16721889382434], [-85.46375665592134, 36.16722189454579], [-85.46378765549998, 36.16722389425858], [-85.46403165563427, 36.16723489450119], [-85.46411565586278, 36.16723889412624], [-85.46446665552182, 36.16725389421115], [-85.46470965659633, 36.16726489405691], [-85.46622265688566, 36.16733389381881], [-85.46747965739509, 36.16734489433784], [-85.46758265692536, 36.167345893986905], [-85.46840365697332, 36.16734189355669], [-85.46923965692436, 36.16732189407158], [-85.46968465788002, 36.16731189408429], [-85.4705316577738, 36.16725789364805], [-85.4711346577678, 36.16720089420084], [-85.4713096577449, 36.16718189368995], [-85.47174065760562, 36.167116893413], [-85.47256865800232, 36.16699489331807], [-85.47271365786584, 36.16697589396051], [-85.47296965886534, 36.16693489380488], [-85.47359865870203, 36.16683489405475], [-85.4741736589719, 36.166748893787634], [-85.47457565884937, 36.16668989368886], [-85.4748496588568, 36.16665489364348], [-85.4756736593195, 36.16655189384432], [-85.47594865875874, 36.16651789333585], [-85.47610965890019, 36.16649689370158], [-85.47659565990699, 36.166434893395866], [-85.47675765901079, 36.166414893114904], [-85.47694765944034, 36.16639089343762], [-85.47751965994229, 36.16632289291774], [-85.4777106593125, 36.166300893541916], [-85.47780365942745, 36.16628589352935], [-85.47808265992494, 36.16624489372561], [-85.47817666042954, 36.166231893126316], [-85.47840565955153, 36.16619389296088], [-85.47857366016454, 36.16615589292098], [-85.47876666002122, 36.16610589317641], [-85.47901566017003, 36.16604089286877], [-85.47923666023232, 36.1659728935389], [-85.48002966071971, 36.165697892847795], [-85.48018066000158, 36.165645892967454], [-85.48270066160664, 36.164778893099445], [-85.4832116611689, 36.16459489317272], [-85.48379166125271, 36.16440489276815], [-85.48554866187733, 36.163934892699565], [-85.48588966175778, 36.16384389245646], [-85.48614166201742, 36.16375589206045], [-85.48736566252096, 36.16328189262877], [-85.48746166239404, 36.163244892022405], [-85.48759866239656, 36.163187892659536], [-85.48793966201936, 36.163059891978676], [-85.48814066214113, 36.162985891898025], [-85.48854466296486, 36.16284789230889], [-85.48871266240187, 36.16279889188862], [-85.48904866306304, 36.16272589202674], [-85.48949866266413, 36.16266089173672], [-85.4897266626211, 36.162628891676505], [-85.48985266299951, 36.162611892249885], [-85.49015266337324, 36.16256989167234], [-85.49023066295358, 36.16256189176554], [-85.49033766352522, 36.16255089233772], [-85.49053066368882, 36.162531892242804], [-85.49058166303139, 36.16252789235252], [-85.49082566375971, 36.16252789186669], [-85.49111266292712, 36.162533891589725], [-85.49130666379155, 36.16253889214805], [-85.49127166306617, 36.162850891914296], [-85.49119266326453, 36.16357289262631], [-85.49117666391253, 36.163788892498914], [-85.49115366302073, 36.164102892130245], [-85.49111866319603, 36.164544892057584], [-85.49103766410856, 36.16561089297966], [-85.49101866354569, 36.16587289261119], [-85.49098666345328, 36.166315892719695], [-85.49097366373692, 36.16641289287316], [-85.49096366351267, 36.166490892851584], [-85.49094266345551, 36.166706893069], [-85.49093366328397, 36.16680589283224], [-85.4909296636205, 36.16683889244193], [-85.49092766352376, 36.16687189327496], [-85.49092066341198, 36.16693789310192], [-85.49091766322404, 36.166971892809535], [-85.49090266385333, 36.16714389302996], [-85.49088666330724, 36.167448893118696], [-85.49087166319033, 36.167745893380484], [-85.4908106635758, 36.1684058933238]]]]}}]}