{
  "type": "FeatureCollection",
  "features": [
    {
      "type": "Feature",
      "properties": {
        "NAME": "Putnam County Commission District 3",
        "DISTRICT": 3,
        "source": "TNMap ArcGIS - CCD=3 dissolved"
      },
      "geometry": {
        "type": "MultiPolygon",
        "coordinates": [
          [
            [
              [
                -85.49892766819633,
                36.19904889941947
              ],
              [
                -85.4989106682953,
                36.19919489889974
              ],
              [
                -85.49928266810883,
                36.19919889887606
              ],
              [
                -85.49928866818583,
                36.199164899092594
              ],
              [
                -85.49931066841711,
                36.199063898680976
              ],
              [
                -85.4993176684693,
                36.19903089891596
              ],
              [
                -85.49962066777076,
                36.19912589872724
              ],
              [
                -85.49963766826045,
                36.19913189936173
              ],
              [
                -85.50010166795535,
                36.19914189907542
              ],
              [
                -85.50023266850721,
                36.19914489904268
              ],
              [
                -85.5005646681033,
                36.19907189935929
              ],
              [
                -85.50058666865488,
                36.199067898708385
              ],
              [
                -85.50063566902769,
                36.19905689890233
              ],
              [
                -85.50085966827378,
                36.198954898501356
              ],
              [
                -85.50111966827168,
                36.198852898626875
              ],
              [
                -85.50095566831155,
                36.198578898850776
              ],
              [
                -85.50085966817036,
                36.19841789854574
              ],
              [
                -85.50066266892858,
                36.19807289888514
              ],
              [
                -85.50018366883047,
                36.19781389841753
              ],
              [
                -85.4999336680043,
                36.19756689839917
              ],
              [
                -85.4998166686706,
                36.19727689893603
              ],
              [
                -85.49980866776453,
                36.19725689872133
              ],
              [
                -85.49978666838159,
                36.196681898295616
              ],
              [
                -85.50009866840666,
                36.19672389875284
              ],
              [
                -85.50039966823243,
                36.196761898226065
              ],
              [
                -85.50202966865282,
                36.19696889808579
              ],
              [
                -85.50219566921947,
                36.19698989843889
              ],
              [
                -85.5022426685316,
                36.19699489853496
              ],
              [
                -85.50282366870256,
                36.19706889882755
              ],
              [
                -85.50285466924397,
                36.197055898044724
              ],
              [
                -85.5029386690342,
                36.197025898072326
              ],
              [
                -85.50319166874344,
                36.19693589831566
              ],
              [
                -85.50327666941149,
                36.196906898101425
              ],
              [
                -85.5047116700023,
                36.19633689779528
              ],
              [
                -85.50894267059857,
                36.19465689796246
              ],
              [
                -85.5090166701852,
                36.19462789763243
              ],
              [
                -85.51045267134401,
                36.194058897511226
              ],
              [
                -85.51052567075457,
                36.19414189709532
              ],
              [
                -85.51054067151209,
                36.194153897597054
              ],
              [
                -85.51063967092651,
                36.194231897856085
              ],
              [
                -85.51076967070273,
                36.194300897643146
              ],
              [
                -85.51088267149643,
                36.19434189795311
              ],
              [
                -85.51100567073412,
                36.194387897298306
              ],
              [
                -85.51116867143072,
                36.19444989784864
              ],
              [
                -85.51141767098427,
                36.19454489739679
              ],
              [
                -85.51149367187448,
                36.19453289751822
              ],
              [
                -85.51167767141423,
                36.19453289739775
              ],
              [
                -85.51185267141,
                36.1945178972489
              ],
              [
                -85.51183267177544,
                36.19437989712682
              ],
              [
                -85.51177267098224,
                36.19396789746315
              ],
              [
                -85.51175367171409,
                36.19383089722649
              ],
              [
                -85.51166167137869,
                36.193235897338866
              ],
              [
                -85.51157767168485,
                36.19262689725753
              ],
              [
                -85.51157067097185,
                36.19257189749426
              ],
              [
                -85.51131867104353,
                36.190794896407475
              ],
              [
                -85.51127467145018,
                36.190430897185195
              ],
              [
                -85.51123467120752,
                36.19009689674165
              ],
              [
                -85.51121167102382,
                36.18959289638915
              ],
              [
                -85.51121967125536,
                36.189203896079945
              ],
              [
                -85.51122967064899,
                36.18900289652821
              ],
              [
                -85.51125067117701,
                36.188633896063564
              ],
              [
                -85.5112876706721,
                36.187788895934446
              ],
              [
                -85.5113006702997,
                36.18756589640457
              ],
              [
                -85.51132767102449,
                36.18713289642651
              ],
              [
                -85.51133767089807,
                36.18689689594677
              ],
              [
                -85.5113486706785,
                36.186674895857195
              ],
              [
                -85.51164167139689,
                36.18670789633541
              ],
              [
                -85.51251967101147,
                36.18680889562243
              ],
              [
                -85.51281367159734,
                36.18684289586949
              ],
              [
                -85.51282167082447,
                36.18677789600798
              ],
              [
                -85.51282467148746,
                36.18664989596897
              ],
              [
                -85.51283967083234,
                36.18607189605084
              ],
              [
                -85.51284567150152,
                36.18587989614642
              ],
              [
                -85.51285167121968,
                36.18565889591059
              ],
              [
                -85.51285667070071,
                36.18544489611515
              ],
              [
                -85.51285967160354,
                36.185346895832424
              ],
              [
                -85.51286767150982,
                36.185247895506855
              ],
              [
                -85.51287467095068,
                36.18512189519283
              ],
              [
                -85.51286767156165,
                36.18478689600676
              ],
              [
                -85.51280367081786,
                36.18414689565165
              ],
              [
                -85.51276067048501,
                36.18371489494073
              ],
              [
                -85.51274567116585,
                36.18346289524073
              ],
              [
                -85.51274267143101,
                36.18343289503128
              ],
              [
                -85.51269967141697,
                36.182974895027684
              ],
              [
                -85.51269167090857,
                36.182794895338745
              ],
              [
                -85.51267067131892,
                36.182589894833185
              ],
              [
                -85.51264367127212,
                36.18230989530383
              ],
              [
                -85.51263867088416,
                36.18226789500503
              ],
              [
                -85.51262667135236,
                36.182141895407575
              ],
              [
                -85.51262367035689,
                36.18210089545166
              ],
              [
                -85.51260767081888,
                36.1819218953476
              ],
              [
                -85.51258467118066,
                36.18163989491072
              ],
              [
                -85.51256167088044,
                36.18138589531241
              ],
              [
                -85.51254667045428,
                36.18120789507722
              ],
              [
                -85.51253967026425,
                36.18112789458267
              ],
              [
                -85.5125256704546,
                36.18094989476737
              ],
              [
                -85.51248567053835,
                36.18044189442546
              ],
              [
                -85.51246967092843,
                36.18017689442266
              ],
              [
                -85.51245567055973,
                36.179918894355815
              ],
              [
                -85.51274367080605,
                36.17995589439432
              ],
              [
                -85.51360767090574,
                36.180066894882295
              ],
              [
                -85.51364667126093,
                36.18007189442071
              ],
              [
                -85.51389667163566,
                36.180101894523446
              ],
              [
                -85.51401967142843,
                36.18011689443845
              ],
              [
                -85.51445367088998,
                36.1801718946749
              ],
              [
                -85.51575867217215,
                36.18033889431291
              ],
              [
                -85.51612367200431,
                36.1803998943316
              ],
              [
                -85.51632367202173,
                36.18043389419318
              ],
              [
                -85.51667467195408,
                36.18050989449615
              ],
              [
                -85.51668167140087,
                36.18044889452278
              ],
              [
                -85.51668967159709,
                36.18034989473489
              ],
              [
                -85.5167546719942,
                36.179799894425614
              ],
              [
                -85.51681967226628,
                36.17925889386585
              ],
              [
                -85.51691067212947,
                36.17843089378663
              ],
              [
                -85.51700267185227,
                36.1776718943432
              ],
              [
                -85.51700967212551,
                36.17761889379091
              ],
              [
                -85.51709367172104,
                36.17705789348031
              ],
              [
                -85.51717067150197,
                36.177004893531986
              ],
              [
                -85.51680767126547,
                36.176436893560236
              ],
              [
                -85.51671267211425,
                36.1762878937172
              ],
              [
                -85.51654467163272,
                36.17601689408324
              ],
              [
                -85.51647567141409,
                36.1759208933601
              ],
              [
                -85.51643067149918,
                36.1758408939839
              ],
              [
                -85.51599567157947,
                36.175180893583104
              ],
              [
                -85.51571167145826,
                36.174741893389054
              ],
              [
                -85.51534667113614,
                36.17417789292994
              ],
              [
                -85.5152756713259,
                36.17406289320472
              ],
              [
                -85.51518667105269,
                36.17391889283105
              ],
              [
                -85.51516367158631,
                36.173895893394885
              ],
              [
                -85.51507967157247,
                36.173727892915004
              ],
              [
                -85.51507567149146,
                36.17371689331702
              ],
              [
                -85.51506467058661,
                36.17368589300211
              ],
              [
                -85.51504967060697,
                36.17358589317357
              ],
              [
                -85.51504967046662,
                36.173517892989125
              ],
              [
                -85.5150696709086,
                36.17337989288482
              ],
              [
                -85.51512567079021,
                36.172998892832254
              ],
              [
                -85.51516567122718,
                36.172764892594806
              ],
              [
                -85.51520167099477,
                36.17256089328961
              ],
              [
                -85.51523167091136,
                36.17236189253277
              ],
              [
                -85.51528567083423,
                36.17200689254671
              ],
              [
                -85.51532767050979,
                36.171765893006175
              ],
              [
                -85.51536267071708,
                36.171568893202064
              ],
              [
                -85.51553167105408,
                36.171580893134355
              ],
              [
                -85.51603867125463,
                36.17161689240798
              ],
              [
                -85.51620867164999,
                36.17162989308488
              ],
              [
                -85.51621867124021,
                36.171629892607115
              ],
              [
                -85.51624967155303,
                36.17163189235271
              ],
              [
                -85.51626067100362,
                36.17163289266112
              ],
              [
                -85.5163746715262,
                36.17163889306709
              ],
              [
                -85.51664367094453,
                36.171655892944734
              ],
              [
                -85.51671967174804,
                36.17166189316196
              ],
              [
                -85.51683467174215,
                36.17167189237597
              ],
              [
                -85.51699167168059,
                36.17168889283027
              ],
              [
                -85.51704067163374,
                36.171694892946526
              ],
              [
                -85.51741467178361,
                36.17171789262382
              ],
              [
                -85.51746367185245,
                36.17172589244213
              ],
              [
                -85.51762067178235,
                36.17175189286007
              ],
              [
                -85.51791267204601,
                36.17177789248162
              ],
              [
                -85.51833767196037,
                36.17181689278614
              ],
              [
                -85.51879067215818,
                36.17183689312094
              ],
              [
                -85.51908467216889,
                36.17185089232716
              ],
              [
                -85.51910767261057,
                36.171850892937385
              ],
              [
                -85.51912167181042,
                36.17173989309862
              ],
              [
                -85.5191456717091,
                36.17163989229396
              ],
              [
                -85.51931767240383,
                36.17094789287717
              ],
              [
                -85.51937567227178,
                36.1707178922976
              ],
              [
                -85.51944367242817,
                36.17049889249615
              ],
              [
                -85.51945167243561,
                36.17047389212344
              ],
              [
                -85.51951267187953,
                36.170381892007676
              ],
              [
                -85.51955867180965,
                36.17033289208821
              ],
              [
                -85.51968067266274,
                36.17025589264966
              ],
              [
                -85.51974867174158,
                36.1702298926812
              ],
              [
                -85.51990167195252,
                36.17015289198226
              ],
              [
                -85.51998767207348,
                36.1701158925199
              ],
              [
                -85.52019967202091,
                36.17002789197579
              ],
              [
                -85.52009467220633,
                36.16987289210535
              ],
              [
                -85.5198636722796,
                36.16953189203901
              ],
              [
                -85.51979267194999,
                36.16940189171859
              ],
              [
                -85.51970367195315,
                36.16923789215492
              ],
              [
                -85.5197146724792,
                36.1692338920172
              ],
              [
                -85.51975167220377,
                36.16922189218473
              ],
              [
                -85.51976367260451,
                36.16921889190265
              ],
              [
                -85.51959167189112,
                36.16899489198807
              ],
              [
                -85.51949167180472,
                36.16886489230205
              ],
              [
                -85.51938567166394,
                36.16861989159166
              ],
              [
                -85.51948967198288,
                36.1682198917166
              ],
              [
                -85.51956167188077,
                36.16794789155863
              ],
              [
                -85.51950567244774,
                36.16789989153618
              ],
              [
                -85.51933867157283,
                36.16775589167471
              ],
              [
                -85.51928367165017,
                36.167707891921125
              ],
              [
                -85.51917867233367,
                36.16760589190073
              ],
              [
                -85.51914667217032,
                36.16757489207054
              ],
              [
                -85.5189786714645,
                36.167425892076004
              ],
              [
                -85.51886167186173,
                36.16730889219028
              ],
              [
                -85.51883867214549,
                36.167285891606475
              ],
              [
                -85.51875767183616,
                36.16720889204282
              ],
              [
                -85.51848467139891,
                36.16696289187785
              ],
              [
                -85.51846467148057,
                36.16694489161184
              ],
              [
                -85.51825367132595,
                36.1667668915961
              ],
              [
                -85.51811267136227,
                36.166668891769234
              ],
              [
                -85.51790467126345,
                36.166527891351755
              ],
              [
                -85.51767367185225,
                36.16638489161261
              ],
              [
                -85.51758167091398,
                36.166337891383364
              ],
              [
                -85.51745267099342,
                36.16627389156987
              ],
              [
                -85.51724567129222,
                36.16619189170501
              ],
              [
                -85.51713267112297,
                36.16614789121778
              ],
              [
                -85.517115670825,
                36.16614189206901
              ],
              [
                -85.51703267123577,
                36.16611389155853
              ],
              [
                -85.51671567111352,
                36.1660218918876
              ],
              [
                -85.51658267052058,
                36.16598389153805
              ],
              [
                -85.51657167069412,
                36.16598089137602
              ],
              [
                -85.51653867121433,
                36.165971891785205
              ],
              [
                -85.51652867060932,
                36.16596889201675
              ],
              [
                -85.51647767118497,
                36.165954891361785
              ],
              [
                -85.51645167075367,
                36.16594789172386
              ],
              [
                -85.51632767127514,
                36.16591589163446
              ],
              [
                -85.51627767117343,
                36.16590389117099
              ],
              [
                -85.51603367123406,
                36.16584689123872
              ],
              [
                -85.51598667058217,
                36.165837891231064
              ],
              [
                -85.51569767016092,
                36.16578589144243
              ],
              [
                -85.51510567087618,
                36.165692891900584
              ],
              [
                -85.51481267078607,
                36.16564789196341
              ],
              [
                -85.51480267084494,
                36.16564589154187
              ],
              [
                -85.51477467000247,
                36.16564289136505
              ],
              [
                -85.51476567094015,
                36.165641891748365
              ],
              [
                -85.51464867040747,
                36.16562589184698
              ],
              [
                -85.51446967023598,
                36.16559889140765
              ],
              [
                -85.51381266981176,
                36.16550289141027
              ],
              [
                -85.51358367015648,
                36.16546689201847
              ],
              [
                -85.51328866944633,
                36.16542089163625
              ],
              [
                -85.51314967028708,
                36.165398892058164
              ],
              [
                -85.51289867028036,
                36.16535989157499
              ],
              [
                -85.51287766988146,
                36.16532589181716
              ],
              [
                -85.51275266992684,
                36.16530589137856
              ],
              [
                -85.51272166947258,
                36.16530089135481
              ],
              [
                -85.51271966940473,
                36.165299891903096
              ],
              [
                -85.51261566959847,
                36.16528189126389
              ],
              [
                -85.51255467016203,
                36.16527189157739
              ],
              [
                -85.51241066984845,
                36.16524989167623
              ],
              [
                -85.51212366911899,
                36.16520889206112
              ],
              [
                -85.51179766949151,
                36.165152891304515
              ],
              [
                -85.5115936691767,
                36.16511789139708
              ],
              [
                -85.51151366910004,
                36.16510289165557
              ],
              [
                -85.511275669603,
                36.16505989197997
              ],
              [
                -85.51119666936376,
                36.165045891959565
              ],
              [
                -85.5111066692477,
                36.165025891858704
              ],
              [
                -85.51083666957275,
                36.164968891421964
              ],
              [
                -85.5107466690245,
                36.164949891439335
              ],
              [
                -85.51041066900704,
                36.16487989140105
              ],
              [
                -85.50981566853885,
                36.16475589205298
              ],
              [
                -85.50964766927177,
                36.16472089175442
              ],
              [
                -85.50940366882955,
                36.164670891908024
              ],
              [
                -85.50906766878703,
                36.1646028915993
              ],
              [
                -85.50885466868712,
                36.164561891360215
              ],
              [
                -85.50882366828102,
                36.16455589174499
              ],
              [
                -85.5087326688363,
                36.16453789198684
              ],
              [
                -85.50846666863711,
                36.16450289125527
              ],
              [
                -85.50821366886314,
                36.16448089209977
              ],
              [
                -85.50808566877743,
                36.16447389137292
              ],
              [
                -85.50790766812524,
                36.16446589175385
              ],
              [
                -85.50783966863766,
                36.16445789165753
              ],
              [
                -85.50781466793481,
                36.16463989130401
              ],
              [
                -85.50774166846368,
                36.165186891509556
              ],
              [
                -85.50771766809129,
                36.16536989196673
              ],
              [
                -85.50771066887269,
                36.16540989162152
              ],
              [
                -85.50769166783938,
                36.16553089190475
              ],
              [
                -85.50768666859913,
                36.165571891992606
              ],
              [
                -85.50767166816216,
                36.165693891851724
              ],
              [
                -85.50766466882945,
                36.16575289169142
              ],
              [
                -85.50762566874084,
                36.16606289209678
              ],
              [
                -85.50761066857895,
                36.16618589232356
              ],
              [
                -85.50761066888498,
                36.16621289202416
              ],
              [
                -85.50761066873444,
                36.16625089240126
              ],
              [
                -85.50760566793022,
                36.16629589222688
              ],
              [
                -85.50760266880019,
                36.16632389179581
              ],
              [
                -85.5075746683628,
                36.166527892140074
              ],
              [
                -85.50749166857413,
                36.16714189252787
              ],
              [
                -85.50747366805896,
                36.1672768923404
              ],
              [
                -85.5074576687994,
                36.16734589265586
              ],
              [
                -85.50742466877803,
                36.16758989257885
              ],
              [
                -85.5073416687516,
                36.16820589257317
              ],
              [
                -85.507324668243,
                36.168321892625194
              ],
              [
                -85.50729066861373,
                36.16856689236443
              ],
              [
                -85.50726266815158,
                36.16877189290849
              ],
              [
                -85.5072516682569,
                36.16885589237313
              ],
              [
                -85.5072136680133,
                36.16916189222312
              ],
              [
                -85.50718166814876,
                36.16938689227186
              ],
              [
                -85.50715266830794,
                36.169592892660546
              ],
              [
                -85.50713966899858,
                36.16969489272904
              ],
              [
                -85.50712566868478,
                36.16978589254398
              ],
              [
                -85.50704566820067,
                36.17032089261028
              ],
              [
                -85.50703966884905,
                36.17036389291829
              ],
              [
                -85.50701566809302,
                36.17055789275753
              ],
              [
                -85.50684966797594,
                36.170533892989134
              ],
              [
                -85.50680166830647,
                36.170526893328166
              ],
              [
                -85.50634966821785,
                36.170490892691696
              ],
              [
                -85.5061836677879,
                36.17047789267102
              ],
              [
                -85.50614766784345,
                36.17075389311344
              ],
              [
                -85.50608466856748,
                36.17124089289145
              ],
              [
                -85.50604066780825,
                36.171583892817765
              ],
              [
                -85.50603666795918,
                36.1716178932478
              ],
              [
                -85.50600866855646,
                36.17176489338168
              ],
              [
                -85.50600866782077,
                36.17186089367475
              ],
              [
                -85.50598366817923,
                36.17200489319028
              ],
              [
                -85.50593566850822,
                36.1720448933992
              ],
              [
                -85.50592966775929,
                36.172088893116054
              ],
              [
                -85.50590666837593,
                36.17229489329958
              ],
              [
                -85.5058856685229,
                36.172432893306016
              ],
              [
                -85.50588566777232,
                36.17246889374595
              ],
              [
                -85.50586766856827,
                36.17263589383949
              ],
              [
                -85.50584066865719,
                36.172794893628655
              ],
              [
                -85.50583366803404,
                36.17284289349348
              ],
              [
                -85.50580266843961,
                36.17309489311708
              ],
              [
                -85.50579466874265,
                36.17318889319816
              ],
              [
                -85.50577366847178,
                36.17332189391755
              ],
              [
                -85.50576466886506,
                36.17338189384324
              ],
              [
                -85.50571966845308,
                36.1737728935508
              ],
              [
                -85.50568766844228,
                36.17396089393426
              ],
              [
                -85.50568266828475,
                36.17400589359583
              ],
              [
                -85.50567266821695,
                36.174131893344985
              ],
              [
                -85.50565766804876,
                36.17423489344431
              ],
              [
                -85.50564366804447,
                36.1743398939036
              ],
              [
                -85.50560166825694,
                36.17465589384032
              ],
              [
                -85.50558866787486,
                36.17476189425706
              ],
              [
                -85.5055556688191,
                36.17500289386185
              ],
              [
                -85.50545866821696,
                36.17572889376209
              ],
              [
                -85.50543666863685,
                36.17589789425775
              ],
              [
                -85.50543666788502,
                36.17593689402297
              ],
              [
                -85.50542966840864,
                36.17597089382133
              ],
              [
                -85.50541866890462,
                36.176054893870415
              ],
              [
                -85.50539566879965,
                36.17623689437254
              ],
              [
                -85.50538266842855,
                36.17630589393091
              ],
              [
                -85.50537666796201,
                36.176346894215285
              ],
              [
                -85.5053756688933,
                36.17639089452289
              ],
              [
                -85.50535066890939,
                36.17655789452371
              ],
              [
                -85.50533766865215,
                36.17665289421301
              ],
              [
                -85.50532966891716,
                36.17674889404835
              ],
              [
                -85.5052796679914,
                36.17705889461914
              ],
              [
                -85.50525366823521,
                36.17722589407888
              ],
              [
                -85.50501266796634,
                36.17720689462977
              ],
              [
                -85.50471166879197,
                36.17718389393368
              ],
              [
                -85.50458966789965,
                36.17719489414213
              ],
              [
                -85.50452866785301,
                36.17720789394701
              ],
              [
                -85.50429566807867,
                36.17725689451327
              ],
              [
                -85.50426266800972,
                36.177264894572104
              ],
              [
                -85.5041396679233,
                36.177297894221994
              ],
              [
                -85.504101667666,
                36.17730589442594
              ],
              [
                -85.5040626681852,
                36.177316894376276
              ],
              [
                -85.50406366761179,
                36.177340894241915
              ],
              [
                -85.50408266764471,
                36.177398894682966
              ],
              [
                -85.5041226684847,
                36.177516894631296
              ],
              [
                -85.50416466863132,
                36.177643894536544
              ],
              [
                -85.50419266768178,
                36.17772589432891
              ],
              [
                -85.50426966815078,
                36.17796589414719
              ],
              [
                -85.50442066852787,
                36.17843689491265
              ],
              [
                -85.5045036686866,
                36.17868689508357
              ],
              [
                -85.5045186687964,
                36.17872989485083
              ],
              [
                -85.50457566793531,
                36.178781894721325
              ],
              [
                -85.50458966836413,
                36.1788318948813
              ],
              [
                -85.50461266879046,
                36.17890789514772
              ],
              [
                -85.50438666818913,
                36.17888489500463
              ],
              [
                -85.50370866826599,
                36.178815894744055
              ],
              [
                -85.50348366797232,
                36.17879389470263
              ],
              [
                -85.50326066837822,
                36.17877089487773
              ],
              [
                -85.50259166822661,
                36.17870489498188
              ],
              [
                -85.50236966780339,
                36.1786828944068
              ],
              [
                -85.50224666799323,
                36.17867089457158
              ],
              [
                -85.50187966793615,
                36.17863589483813
              ],
              [
                -85.50185066732219,
                36.17863389516134
              ],
              [
                -85.50175866736339,
                36.17862189477177
              ],
              [
                -85.50154966750576,
                36.17860089445808
              ],
              [
                -85.50092266746248,
                36.178537894945364
              ],
              [
                -85.50088166692463,
                36.17853389512038
              ],
              [
                -85.50071366696685,
                36.17852289459676
              ],
              [
                -85.5006836672518,
                36.17867189478285
              ],
              [
                -85.50067266671675,
                36.178743895126615
              ],
              [
                -85.50060666745775,
                36.17922889509758
              ],
              [
                -85.50056966689694,
                36.17941289510548
              ],
              [
                -85.50056866681528,
                36.17942289483007
              ],
              [
                -85.5005386675195,
                36.1796368948135
              ],
              [
                -85.50050766684976,
                36.179860895396445
              ],
              [
                -85.5004156676553,
                36.180532894861265
              ],
              [
                -85.50038566718042,
                36.18075789537993
              ],
              [
                -85.50036666689012,
                36.180893895352995
              ],
              [
                -85.50032466777714,
                36.18119689518964
              ],
              [
                -85.50031466715072,
                36.181304895453636
              ],
              [
                -85.50030966721194,
                36.1813688958376
              ],
              [
                -85.50029366777636,
                36.181440895232505
              ],
              [
                -85.5002746672049,
                36.181615895785605
              ],
              [
                -85.50021966681415,
                36.18214289562029
              ],
              [
                -85.50020266736219,
                36.18231889578732
              ],
              [
                -85.50017666703896,
                36.18252089573545
              ],
              [
                -85.50009866712573,
                36.18312589600305
              ],
              [
                -85.50007266775738,
                36.18332889537426
              ],
              [
                -85.50004666753469,
                36.18351489628991
              ],
              [
                -85.49999666713163,
                36.18387889607085
              ],
              [
                -85.49997266728839,
                36.18407289569125
              ],
              [
                -85.49995066698641,
                36.18425989637872
              ],
              [
                -85.49991366756639,
                36.18449689562263
              ],
              [
                -85.49982066734783,
                36.18509589584409
              ],
              [
                -85.49980566745103,
                36.185210895960594
              ],
              [
                -85.49977566748136,
                36.18544989603341
              ],
              [
                -85.49976266737946,
                36.18544889585753
              ],
              [
                -85.49972666694528,
                36.185446896421055
              ],
              [
                -85.4997146677874,
                36.18544689626615
              ],
              [
                -85.4994956676683,
                36.185424896645564
              ],
              [
                -85.49943666691159,
                36.185424896264976
              ],
              [
                -85.4993586673956,
                36.185424896380624
              ],
              [
                -85.49860266734844,
                36.18536189628651
              ],
              [
                -85.4983256665294,
                36.18533989607489
              ],
              [
                -85.49822766681254,
                36.18533389655895
              ],
              [
                -85.49803066709914,
                36.185312895975194
              ],
              [
                -85.49792066658611,
                36.18530189665939
              ],
              [
                -85.49714766712032,
                36.18523989643777
              ],
              [
                -85.49706166674177,
                36.18523389638515
              ],
              [
                -85.4968536659892,
                36.18524089667489
              ],
              [
                -85.49683266616569,
                36.18546789649871
              ],
              [
                -85.4967996665667,
                36.185835896022326
              ],
              [
                -85.49676166600518,
                36.186064896904135
              ],
              [
                -85.49673766620242,
                36.186145896507206
              ],
              [
                -85.49670866601575,
                36.18625189658822
              ],
              [
                -85.49665466656224,
                36.18635789697825
              ],
              [
                -85.49669266628457,
                36.18637689687933
              ],
              [
                -85.49675566661965,
                36.18645789684567
              ],
              [
                -85.49678766629827,
                36.18651789648108
              ],
              [
                -85.4967926663194,
                36.18652589696508
              ],
              [
                -85.49704566681355,
                36.187105897102654
              ],
              [
                -85.49705966657345,
                36.18713689704027
              ],
              [
                -85.49713566658092,
                36.187300896314035
              ],
              [
                -85.49722766720771,
                36.187506897189515
              ],
              [
                -85.4974326666945,
                36.18796389703586
              ],
              [
                -85.4974716667339,
                36.18805189669843
              ],
              [
                -85.49750666713918,
                36.18812489647044
              ],
              [
                -85.49758566727319,
                36.18828489734718
              ],
              [
                -85.4976006664663,
                36.188330897214556
              ],
              [
                -85.49776066715607,
                36.18867789671994
              ],
              [
                -85.49785266716377,
                36.18887589665877
              ],
              [
                -85.49787766743833,
                36.18895489666807
              ],
              [
                -85.4979216672902,
                36.1891538973557
              ],
              [
                -85.4979216672836,
                36.18945289670499
              ],
              [
                -85.49788066678465,
                36.18979389754181
              ],
              [
                -85.49784466728448,
                36.1900968973544
              ],
              [
                -85.49782966695743,
                36.190172897449855
              ],
              [
                -85.49780766717373,
                36.19036489757776
              ],
              [
                -85.49779966696792,
                36.190447897019425
              ],
              [
                -85.49777666756631,
                36.190649897703835
              ],
              [
                -85.49777666710015,
                36.19094589758308
              ],
              [
                -85.49777666742797,
                36.1910448976672
              ],
              [
                -85.49778266696141,
                36.19113989773845
              ],
              [
                -85.49780066722286,
                36.191458897447376
              ],
              [
                -85.49780666749844,
                36.19155589737422
              ],
              [
                -85.4977996669775,
                36.191740897653645
              ],
              [
                -85.49777666700479,
                36.19191289759233
              ],
              [
                -85.49776166774838,
                36.191976897558675
              ],
              [
                -85.49771566668053,
                36.19223689767059
              ],
              [
                -85.49767566771439,
                36.192406898182355
              ],
              [
                -85.4976546673364,
                36.192502898026014
              ],
              [
                -85.49763166769878,
                36.192624897694024
              ],
              [
                -85.49760766752608,
                36.192694897622985
              ],
              [
                -85.49759366678869,
                36.19271389800736
              ],
              [
                -85.4975596677486,
                36.19275789773894
              ],
              [
                -85.4974856672165,
                36.19281789752448
              ],
              [
                -85.4974846676546,
                36.192817897870505
              ],
              [
                -85.49733266674042,
                36.192900898034864
              ],
              [
                -85.49707566753062,
                36.19301889766961
              ],
              [
                -85.49702866680387,
                36.193041898142994
              ],
              [
                -85.49696666701952,
                36.193074897614395
              ],
              [
                -85.49693766688848,
                36.193079897664816
              ],
              [
                -85.49688866719966,
                36.19312389779034
              ],
              [
                -85.49683066700456,
                36.193174898214
              ],
              [
                -85.496781667479,
                36.19324689819446
              ],
              [
                -85.4967096674181,
                36.19344689811482
              ],
              [
                -85.49667066744232,
                36.193575898445296
              ],
              [
                -85.4966216674559,
                36.19379789804619
              ],
              [
                -85.49660166657583,
                36.19389189837506
              ],
              [
                -85.4966016674448,
                36.19404489830835
              ],
              [
                -85.4966316669068,
                36.194334898138976
              ],
              [
                -85.49663166700985,
                36.19446489827013
              ],
              [
                -85.49660866747327,
                36.194528898046435
              ],
              [
                -85.49656366717332,
                36.19458289779506
              ],
              [
                -85.49651766648367,
                36.19462089805385
              ],
              [
                -85.49641066690872,
                36.19466289867266
              ],
              [
                -85.4961586669838,
                36.1947238980953
              ],
              [
                -85.49607466641619,
                36.19476589795406
              ],
              [
                -85.49605566638634,
                36.194782898152496
              ],
              [
                -85.49600666721854,
                36.194822898181634
              ],
              [
                -85.49595266720141,
                36.19489589803801
              ],
              [
                -85.49592266636131,
                36.19499089832328
              ],
              [
                -85.49592266673801,
                36.1953078986935
              ],
              [
                -85.4958996667731,
                36.19559789814272
              ],
              [
                -85.49585366667294,
                36.19578489828049
              ],
              [
                -85.49584666673805,
                36.195814898536355
              ],
              [
                -85.49578466684139,
                36.19602889892006
              ],
              [
                -85.49570866708243,
                36.19647089900222
              ],
              [
                -85.49570166661692,
                36.196573898270685
              ],
              [
                -85.49569166745697,
                36.19663489871993
              ],
              [
                -85.49566366671861,
                36.19682089872721
              ],
              [
                -85.49565566703546,
                36.19688289889037
              ],
              [
                -85.495641666861,
                36.197006898550434
              ],
              [
                -85.49564166668755,
                36.19700989879336
              ],
              [
                -85.49561766701935,
                36.19722989871678
              ],
              [
                -85.4956036667589,
                36.19737889888647
              ],
              [
                -85.49560166704082,
                36.19741289899846
              ],
              [
                -85.49559966735957,
                36.19750389922605
              ],
              [
                -85.49686266753763,
                36.19750789882652
              ],
              [
                -85.49909066745455,
                36.19751689905266
              ],
              [
                -85.49906266794781,
                36.19820889888868
              ],
              [
                -85.49901566854479,
                36.198876898936895
              ],
              [
                -85.49904466808084,
                36.198870898905
              ],
              [
                -85.49907166779727,
                36.19885089875535
              ],
              [
                -85.4990886682889,
                36.198822899133525
              ],
              [
                -85.4990986680752,
                36.19878889882454
              ],
              [
                -85.49910666786464,
                36.198752899369644
              ],
              [
                -85.49911466761043,
                36.19871989925417
              ],
              [
                -85.49911566764342,
                36.198717899035564
              ],
              [
                -85.49913066851163,
                36.198685898600644
              ],
              [
                -85.49915666854838,
                36.19866289854901
              ],
              [
                -85.49917566844202,
                36.19864789864128
              ],
              [
                -85.49920766757118,
                36.19863789867284
              ],
              [
                -85.49927566834961,
                36.19868789871759
              ],
              [
                -85.49927166805941,
                36.19877589852953
              ],
              [
                -85.49924366820781,
                36.198812899249816
              ],
              [
                -85.49920266755133,
                36.19884689897517
              ],
              [
                -85.4991456684723,
                36.19889089922302
              ],
              [
                -85.49909266788005,
                36.198934898907325
              ],
              [
                -85.49897466752581,
                36.19902289888669
              ],
              [
                -85.49892766819633,
                36.19904889941947
              ]
            ]
          ]
        ]
      }
    }
  ]
}