{"type": "FeatureCollection", "features": [{"type": "Feature", "properties": {"name": "District 9", "slug": "district-9", "ccd": 9}, "geometry": {"type": "MultiPolygon", "coordinates": [[[[-85.58290669425546, 36.23058690186157], [-85.58313069431303, 36.23062590176378], [-85.58324469397392, 36.2306419017625], [-85.5833836949217, 36.230662901401494], [-85.58349869428302, 36.23067390186723], [-85.58364169407486, 36.23066890182701], [-85.58367569425853, 36.23064090146565], [-85.58394769464168, 36.230532902146194], [-85.58397269466083, 36.23051990145466], [-85.58400769464299, 36.230512901353784], [-85.58410069484333, 36.23047290135248], [-85.58416869499588, 36.23043890214496], [-85.58428769464382, 36.23037090188706], [-85.58464169483231, 36.23011290176722], [-85.58487669523853, 36.2299219011909], [-85.58499269472962, 36.229840901360355], [-85.58504569527487, 36.22981190153044], [-85.58513869461679, 36.22975990171419], [-85.58533669485018, 36.22965090157038], [-85.5854126950485, 36.22959690103054], [-85.58549969522556, 36.22953590136493], [-85.58661869585023, 36.22959390182874], [-85.58948469617702, 36.22974290172796], [-85.58955269600374, 36.22925390150235], [-85.58970769655454, 36.22814390134063], [-85.58977769664548, 36.227636900934606], [-85.589953696471, 36.22637990084049], [-85.59021069593932, 36.22632490105103], [-85.59070969616018, 36.22621990042341], [-85.59071069613753, 36.22621990020685], [-85.59089969669027, 36.22617990026555], [-85.59121869620779, 36.2261129001982], [-85.5914716965981, 36.22606690013055], [-85.59166369697328, 36.226033900907595], [-85.591881696652, 36.225995900864966], [-85.59253869672042, 36.22588490059582], [-85.59275769707449, 36.22584790001411], [-85.59350669669757, 36.22572490008862], [-85.59358169675058, 36.22515390033837], [-85.5940076968216, 36.22516990049062], [-85.5948226977068, 36.22520190015506], [-85.59470069772499, 36.225900900097706], [-85.59845669811523, 36.226092899950764], [-85.60021669908569, 36.22618389991877], [-85.60022069886426, 36.22612589989722], [-85.60023369910387, 36.22595590010656], [-85.60023869935003, 36.22589890015552], [-85.60023869956478, 36.22561490002376], [-85.60020769874116, 36.22535890041469], [-85.60020669928761, 36.225344900056015], [-85.60014869881815, 36.22517289969772], [-85.60008069859931, 36.22502589974749], [-85.59993169867454, 36.22477989959605], [-85.5994946983275, 36.22415289994254], [-85.59937069876663, 36.22397989981735], [-85.59905469868218, 36.223541899932194], [-85.5993976990883, 36.22354889964783], [-85.60042969928217, 36.22357190000378], [-85.600773699278, 36.223579899486985], [-85.60152769905235, 36.22359389983509], [-85.60378969985557, 36.22363789951173], [-85.60410170056095, 36.22364489953314], [-85.60410269986971, 36.22320189972427], [-85.60430869943765, 36.220963899313], [-85.60433270003068, 36.22071389900409], [-85.6048126995984, 36.2207428986349], [-85.61080770128451, 36.221114898819096], [-85.61305070278664, 36.221254898712196], [-85.61305970246494, 36.221209898306334], [-85.61308970278058, 36.22107889825971], [-85.61309970300474, 36.221034898719594], [-85.61319370231298, 36.2206068983675], [-85.61324770288753, 36.2203128986571], [-85.61327870244165, 36.22009089873587], [-85.6132927021032, 36.21999989820374], [-85.61330870260277, 36.2198438980665], [-85.6133317027151, 36.21968689832999], [-85.6133387029436, 36.21953089820073], [-85.61339970205745, 36.218817898210474], [-85.6134227028956, 36.21861889819285], [-85.61344570188146, 36.218214897975436], [-85.61344570265103, 36.21794389768388], [-85.61343770239195, 36.21773789763745], [-85.61342270221473, 36.217554898111814], [-85.61337670259375, 36.2173258976627], [-85.61335370181803, 36.21725689760613], [-85.61334370265297, 36.217226897740154], [-85.61322470253059, 36.2168448978844], [-85.6132097020728, 36.2167808973251], [-85.61316370217087, 36.21659389788837], [-85.61313270170572, 36.216413897695425], [-85.61312570179832, 36.21632289741371], [-85.61311770235928, 36.216295897828445], [-85.61303770222504, 36.21517489716738], [-85.613033701811, 36.215130897763345], [-85.61310970179763, 36.21517689696065], [-85.61322170213471, 36.215244897001526], [-85.61346970245258, 36.215394897660836], [-85.61350970249516, 36.215418897588656], [-85.61360270273588, 36.2154328975443], [-85.61369770226823, 36.2154478969841], [-85.61374470177842, 36.21545489759426], [-85.61372370174536, 36.2153838978201], [-85.6136637020733, 36.21517189762075], [-85.6136437027121, 36.21510189779369], [-85.61361370206554, 36.214975897455766], [-85.61358970171953, 36.214896897697336], [-85.61349670180394, 36.2145668975978], [-85.61327470177811, 36.21377189749542], [-85.61304370136462, 36.21296889652385], [-85.61297770159719, 36.21273989731931], [-85.61289670202402, 36.21243589689919], [-85.61282970202947, 36.21228689708559], [-85.61239970107803, 36.2111088963711], [-85.612305701982, 36.210621896389945], [-85.61218570122783, 36.209990896109865], [-85.61220970088831, 36.208284895938995], [-85.61220970104532, 36.20820889642682], [-85.61227570093797, 36.20758789554605], [-85.6122787011771, 36.2075678959115], [-85.61234670159823, 36.20717489541313], [-85.6124237017057, 36.206800895667314], [-85.61256870173784, 36.206285895516785], [-85.61266770139369, 36.20596589526171], [-85.61282170081984, 36.20556489587885], [-85.61290370107903, 36.205355894981615], [-85.6130947019101, 36.20492089563578], [-85.61310270116412, 36.204893894946004], [-85.61323270137129, 36.20460689492659], [-85.61344370140613, 36.20415889555821], [-85.6142467013465, 36.20245989511389], [-85.61450870180335, 36.20188289467004], [-85.61470470173971, 36.20145289492241], [-85.6148647014416, 36.20112489484551], [-85.61529070170963, 36.20019889432852], [-85.61597070178627, 36.19872189397212], [-85.6165717023911, 36.19742189332026], [-85.61700070198994, 36.196497893515726], [-85.61723870239118, 36.195985893225185], [-85.61758870157472, 36.19523489314083], [-85.61768970177503, 36.1950168929798], [-85.6178557021134, 36.19466289313468], [-85.61795270218808, 36.19444889328615], [-85.61806870163379, 36.194197892645946], [-85.61819170172213, 36.19393789260101], [-85.6182287022881, 36.193846893296346], [-85.61828970248328, 36.193715892593886], [-85.61854470179831, 36.193176892392316], [-85.61877870205633, 36.19268289272237], [-85.61880870247504, 36.19260689298931], [-85.61925970181947, 36.19164889204838], [-85.6194117024039, 36.19131389245652], [-85.61960570238405, 36.19089789255444], [-85.61996170212743, 36.19013889244836], [-85.62002970204583, 36.18999189231867], [-85.62023570230863, 36.18955189203064], [-85.62030470261224, 36.18940589164519], [-85.62048370200465, 36.189018891782624], [-85.62060970292117, 36.18873089140264], [-85.62065570268993, 36.188639891580344], [-85.62074670207495, 36.18842889128553], [-85.62083670245843, 36.188204891868786], [-85.62098370265392, 36.18786889196384], [-85.62128870303012, 36.18717489157745], [-85.62170870308674, 36.18619389144967], [-85.62241070268405, 36.18454589090182], [-85.62255670287718, 36.184214891160124], [-85.62266170268354, 36.18395889066207], [-85.62295070240943, 36.183304890249104], [-85.62298070303912, 36.183239890779205], [-85.62325070300619, 36.18267389065028], [-85.62332670292109, 36.18249589078038], [-85.62342570245441, 36.182295890257265], [-85.62352370307262, 36.18207388988777], [-85.62369070251063, 36.1817178904919], [-85.6237227027609, 36.18164989049898], [-85.62380770318573, 36.1814678897791], [-85.62399670262572, 36.1810698902274], [-85.62415670308283, 36.18071788965087], [-85.62427170312118, 36.18046789031178], [-85.62448270335946, 36.180007889733595], [-85.625047702792, 36.178779889876104], [-85.62511770313125, 36.17862988975185], [-85.62533270272002, 36.17817188985486], [-85.62535570282381, 36.178126889123995], [-85.62538870373486, 36.17805988941457], [-85.62555670359903, 36.17772388971306], [-85.6256137030724, 36.17761288902987], [-85.62561870287179, 36.177601889530315], [-85.62563470358401, 36.17756988910917], [-85.62564070357998, 36.17755988948645], [-85.62566070277703, 36.177519889401], [-85.62568370280317, 36.177477888842375], [-85.62572770366668, 36.17737888931534], [-85.62584770325984, 36.17713588932324], [-85.62613570281513, 36.17657288929245], [-85.62621070319022, 36.17642888910659], [-85.62632470359654, 36.176190889040264], [-85.62640870349941, 36.17603188922639], [-85.62675170334468, 36.175350888396046], [-85.62688570383821, 36.17507388873343], [-85.62694070389138, 36.17497288859687], [-85.62701570357635, 36.17481988892639], [-85.62715870398725, 36.17448988838979], [-85.62717470404702, 36.17443788821464], [-85.6272947037674, 36.17412788897148], [-85.62736170306543, 36.1739078883325], [-85.62740070305422, 36.17380088854459], [-85.62747370374349, 36.17355188806196], [-85.62749870352943, 36.17346988882375], [-85.62759070364933, 36.17309088819107], [-85.6277047039436, 36.17247288827854], [-85.62772470370341, 36.17231688851629], [-85.6277507036543, 36.1721288878021], [-85.6277697040339, 36.1718498883638], [-85.62777070319194, 36.17184588811263], [-85.62778870398093, 36.171694887667364], [-85.62778870383846, 36.17159088843983], [-85.62780170312064, 36.17128288819516], [-85.62780470350937, 36.171217887896844], [-85.62748370346945, 36.17125588824925], [-85.6271407037972, 36.17127888795568], [-85.62699770341354, 36.17129488756404], [-85.62656970341271, 36.171342887569445], [-85.62642770292408, 36.17135988817658], [-85.62628870271692, 36.171375887609535], [-85.6262437027719, 36.171379887699175], [-85.62613270324262, 36.171392887786915], [-85.62582070271081, 36.17142788791494], [-85.62569070329803, 36.17144088817854], [-85.62560670315105, 36.17144988796163], [-85.6255077028874, 36.17146188826028], [-85.62550570254967, 36.1714398880553], [-85.6254997029449, 36.171376887690556], [-85.62549970265026, 36.171373888344114], [-85.62549670305049, 36.1713558883714], [-85.62568070340103, 36.17134388764164], [-85.62586270263124, 36.17133288802152], [-85.62623370305228, 36.17128388759179], [-85.62641770265931, 36.17126088783615], [-85.6263677033677, 36.17072988762633], [-85.62666870263972, 36.170529888027644], [-85.62657870273348, 36.16888988709844], [-85.62656670248964, 36.168655887343334], [-85.62712170344555, 36.16859588763103], [-85.62730170340828, 36.16476988688712], [-85.62736370268193, 36.16347988594862], [-85.62704770289604, 36.163456886105266], [-85.62705970325618, 36.16311888595164], [-85.62706870297868, 36.162862886429], [-85.62709470275176, 36.16207688584412], [-85.62711070232228, 36.16163488579335], [-85.62585970241722, 36.16218188664109], [-85.62547870251375, 36.16156088607135], [-85.62546070248695, 36.16152688650747], [-85.62540970220425, 36.161424886293425], [-85.62539270223742, 36.1613918857011], [-85.62532670224594, 36.161278886020874], [-85.62459670183803, 36.1616198858426], [-85.6243757020732, 36.16172288591174], [-85.62392570188145, 36.16193288577758], [-85.62372870190748, 36.16202688657683], [-85.623754701653, 36.16210488592792], [-85.62181470143062, 36.16294988625214], [-85.62092070135581, 36.16334088635166], [-85.62065670106773, 36.16345188639904], [-85.62064370077478, 36.16345788660139], [-85.6200567010603, 36.16361588634221], [-85.61982370088536, 36.16364088685625], [-85.61954070023134, 36.1636718866395], [-85.61875269992133, 36.1637578863671], [-85.6163886997021, 36.16401588714868], [-85.6156016990353, 36.1641028870033], [-85.61350169877055, 36.164332886851255], [-85.61057469858362, 36.16465488778995], [-85.6072436968223, 36.165281887508094], [-85.60516869659872, 36.165672887622634], [-85.60517569644604, 36.16558088771332], [-85.60518269607813, 36.16527088766039], [-85.60521369600193, 36.16506488808669], [-85.60532569610584, 36.16440288756489], [-85.60537369668724, 36.164121887550905], [-85.60542769677352, 36.163717887628884], [-85.60548069700783, 36.16330988733616], [-85.60548069699098, 36.163290887218444], [-85.60557969702687, 36.1627188874035], [-85.60559469700756, 36.16254688718194], [-85.60561069679756, 36.162466886966676], [-85.60561769668335, 36.16231388684715], [-85.60563369631446, 36.162161886773504], [-85.60566369602952, 36.16179188703433], [-85.60567169687687, 36.161630887066266], [-85.60569469679176, 36.16147088691281], [-85.6057326965713, 36.1608718869564], [-85.60573269623838, 36.160761886818946], [-85.60573869689864, 36.16058488670415], [-85.60574769630588, 36.16036488697023], [-85.6057626968095, 36.16021588650062], [-85.60578569631119, 36.16004488652455], [-85.60587769660472, 36.15931188648687], [-85.60599169577712, 36.15839288609596], [-85.60608869596614, 36.15747888590859], [-85.60608969646502, 36.15745688606342], [-85.60615169655206, 36.156687886115876], [-85.60624369613238, 36.15567288580768], [-85.60646469577689, 36.15382688520943], [-85.60657969637093, 36.152941885024596], [-85.60667869638662, 36.152117884925595], [-85.60669669664395, 36.15189188460558], [-85.60682369599579, 36.15033988422707], [-85.60682369644175, 36.15003088476643], [-85.60593869626895, 36.150385884940526], [-85.6059056956918, 36.15039788458247], [-85.60570969528389, 36.15047688430301], [-85.6045726954635, 36.15091588468405], [-85.60445869592189, 36.150953884550646], [-85.60413769483984, 36.1510458852485], [-85.60380969528687, 36.15112988514026], [-85.60340569532444, 36.15120588452885], [-85.60307869502212, 36.15125888537743], [-85.60289469482387, 36.151289885102194], [-85.60210069436489, 36.15139988460091], [-85.60135669482422, 36.15149588540831], [-85.60048369392781, 36.15160988520531], [-85.6000556945706, 36.15168988561134], [-85.59968969427625, 36.151792885534284], [-85.59916869399609, 36.15197688507746], [-85.59877469375185, 36.152117885109966], [-85.59851669431187, 36.1521918849569], [-85.59845669410531, 36.15220788531402], [-85.59821669415302, 36.152271885545964], [-85.5979576931693, 36.152342885104346], [-85.59749269385077, 36.152443885690765], [-85.59745469333254, 36.152452885005886], [-85.5972486932369, 36.15248788540808], [-85.5964096927681, 36.15262488534476], [-85.59513469309165, 36.15280788547347], [-85.59510969261726, 36.15281088567659], [-85.59456269251999, 36.15289988536246], [-85.593860692721, 36.15299488607345], [-85.59231969188778, 36.15326188586276], [-85.59133569139082, 36.153448885658904], [-85.59072569210012, 36.153574886197916], [-85.59005169156354, 36.15369988577303], [-85.5896416911162, 36.15377688581581], [-85.58872269116746, 36.153959886407364], [-85.58814669133183, 36.154074886372946], [-85.58659769064607, 36.15436088606966], [-85.58574069037353, 36.1545468864457], [-85.5849116897968, 36.15470788621857], [-85.58478269016568, 36.154731886175874], [-85.58453068956902, 36.154779886501764], [-85.58414868988675, 36.154852886132836], [-85.58353668911265, 36.154957886671646], [-85.58293068921864, 36.15502688634492], [-85.58264568965716, 36.155046886680395], [-85.58261568955906, 36.155050886321845], [-85.58241668949009, 36.15506288660738], [-85.5822966893331, 36.15506488666789], [-85.58171268927828, 36.15510588690557], [-85.581684688919, 36.15510788706177], [-85.58158568885875, 36.15511588673646], [-85.58074568864151, 36.15518088699272], [-85.58051768834383, 36.1552108868288], [-85.58022768855902, 36.15527588698367], [-85.5799526885177, 36.15535588680534], [-85.57961668901562, 36.15548188698582], [-85.57932468802677, 36.15560688691116], [-85.57886168822796, 36.15580588697683], [-85.57873168788166, 36.15585588708791], [-85.57820568840059, 36.15603888739824], [-85.57766368777371, 36.15619888717037], [-85.57757968808924, 36.156221886911865], [-85.57711468744986, 36.156351887001634], [-85.57691568785232, 36.156408886708185], [-85.57682068764765, 36.156431887010605], [-85.57618168771995, 36.15659188693693], [-85.57584768774566, 36.15665688697096], [-85.57563468713155, 36.15668888692482], [-85.57534868757074, 36.156715887275745], [-85.57490368720926, 36.15673688702983], [-85.5744896874823, 36.15672288711629], [-85.57420868711097, 36.15671388749715], [-85.57394968734837, 36.1566888874762], [-85.57370468738752, 36.15668788710199], [-85.57327968673282, 36.15666688741771], [-85.57246868688857, 36.15662688732061], [-85.57200768682104, 36.15662488737758], [-85.57167868595572, 36.156623887775304], [-85.57158368634131, 36.15663388701784], [-85.5712936864052, 36.15667188766782], [-85.57100368634083, 36.15673288755332], [-85.57077468612519, 36.156797887166604], [-85.5705146855081, 36.15690088723631], [-85.57045268553897, 36.15693188771947], [-85.57017968604106, 36.15706888736617], [-85.57010268575713, 36.15711488784223], [-85.5699676863138, 36.15720288720602], [-85.56925668552189, 36.15768688751279], [-85.56843568553263, 36.15825888769721], [-85.56801468560005, 36.15858188770589], [-85.56772968566904, 36.158830887750135], [-85.56758068571328, 36.15896588768228], [-85.5672346850936, 36.1592818877516], [-85.56689068556081, 36.15958688791956], [-85.56669268515508, 36.159735888454975], [-85.56646368496286, 36.15988388867439], [-85.56639168475279, 36.15992188810233], [-85.5662276845729, 36.16000988810161], [-85.56588368485787, 36.16015088839269], [-85.5655256849519, 36.16025388834201], [-85.56539868426366, 36.16027888869973], [-85.56522068452706, 36.160314888828715], [-85.56515968495016, 36.16032288846672], [-85.56505268492027, 36.1603498882971], [-85.56532768458709, 36.16038688852723], [-85.56544168432987, 36.16040288799037], [-85.56572368532387, 36.16042988881666], [-85.56579268453197, 36.160444888749794], [-85.56593768485597, 36.16043688811609], [-85.56615568488873, 36.16044988842428], [-85.56618968511147, 36.16045288833555], [-85.56643368521785, 36.16045288822737], [-85.56641068464988, 36.16059388825696], [-85.56637668558957, 36.160997888620514], [-85.56637268510168, 36.161051888888416], [-85.56635668557115, 36.16115088873483], [-85.56629568473782, 36.16151288836293], [-85.56623468542865, 36.16190988888606], [-85.56620868546023, 36.16217288839111], [-85.56614968536852, 36.16262688924097], [-85.56607968506978, 36.16317188932104], [-85.56602868502257, 36.16356588921139], [-85.56596768565844, 36.164045889083596], [-85.56592968565414, 36.1644578893868], [-85.56590268472273, 36.16472188904539], [-85.5658996851273, 36.1647628896173], [-85.56583868545238, 36.16556788971749], [-85.56581568537128, 36.165769889609685], [-85.56575468505228, 36.16636488939353], [-85.565761684816, 36.16649088937963], [-85.56576968528299, 36.16655588921199], [-85.56583068550826, 36.16669388981468], [-85.56590668473231, 36.16678489011346], [-85.56660168518682, 36.16754788949281], [-85.56711968572053, 36.16808588955409], [-85.5676006861134, 36.16855889008489], [-85.56768168597245, 36.16864488987043], [-85.56774568549486, 36.16871188988231], [-85.56784468625136, 36.16883389039925], [-85.56792068587949, 36.16895888986219], [-85.56795768568013, 36.16907288963762], [-85.56796668555565, 36.16913089014912], [-85.56797468600992, 36.169157890446044], [-85.5679596856779, 36.16943989053873], [-85.5679516865712, 36.16991688990893], [-85.56795168646903, 36.170043890198635], [-85.56795168571288, 36.17011589001075], [-85.56537268584873, 36.17007589039937], [-85.56343768528382, 36.17004689072145], [-85.56128268434433, 36.170014890377125], [-85.55998268362858, 36.17017289039585], [-85.55769468341481, 36.170648890384], [-85.55681868334044, 36.170831890448326], [-85.55520868259623, 36.17094389131821], [-85.55513968246338, 36.17093789067417], [-85.55421268196811, 36.17086189126079], [-85.55350568231012, 36.17080489132839], [-85.55349868179893, 36.17080489066759], [-85.55317668217074, 36.17077989082823], [-85.55199068176448, 36.17084689065741], [-85.55144768138338, 36.17098689097165], [-85.55054868072857, 36.17121989116026], [-85.55054468087124, 36.17125589106204], [-85.55053668143553, 36.17136689149629], [-85.55053468114647, 36.171403891116725], [-85.55051568144684, 36.17165289121484], [-85.55030268150257, 36.171895890975655], [-85.55024268071801, 36.17196489141543], [-85.54986268124107, 36.17209789161104], [-85.54949268103522, 36.17268789148892], [-85.54942268059858, 36.1728008918843], [-85.54929168128065, 36.17301289191906], [-85.54922568085468, 36.17314389153581], [-85.54896968065536, 36.17365689183036], [-85.54907368089256, 36.17364589221549], [-85.54938668063255, 36.17361389154105], [-85.54949168105962, 36.17360389208053], [-85.55005068151691, 36.17354589178904], [-85.55082868191033, 36.173466892034526], [-85.55148168184706, 36.173438891338314], [-85.5521556818895, 36.17344289173712], [-85.55229868187462, 36.17343789124516], [-85.55241068152414, 36.173438891506265], [-85.55245968148944, 36.17344889138575], [-85.55293568243992, 36.17354989169658], [-85.55309468203085, 36.173583891539614], [-85.55323568221753, 36.17361289202464], [-85.55328368250265, 36.17363089185101], [-85.55383568252333, 36.17383489135892], [-85.5540196827836, 36.17390289183169], [-85.55403268250869, 36.17390789131635], [-85.55407368254357, 36.17392289174612], [-85.55408768270532, 36.173927891315714], [-85.55408568184178, 36.17394589175661], [-85.55408368196811, 36.174001891511516], [-85.55408368190514, 36.17402089161702], [-85.5540316827223, 36.174947891398816], [-85.5539626824917, 36.176188892064275], [-85.55391268292811, 36.176987891827075], [-85.5531706818436, 36.17700089232194], [-85.55224268167386, 36.177018892560284], [-85.55223868161866, 36.177075892418095], [-85.55222668253019, 36.17724689198977], [-85.55222368172555, 36.1773048923295], [-85.55219668234805, 36.177706892539774], [-85.55217368189041, 36.17788189245746], [-85.55216668235599, 36.177927892268954], [-85.55215468233523, 36.178028892848076], [-85.5521206821474, 36.1783168926179], [-85.55206768162482, 36.178766893053044], [-85.55202868163565, 36.17906789269668], [-85.55193768241179, 36.1797278929131], [-85.55192268200547, 36.179834892697926], [-85.551874682184, 36.18019489314351], [-85.55184568170642, 36.18041889300435], [-85.5518056822564, 36.18068989345889], [-85.55178168259393, 36.180855893216815], [-85.55177268248468, 36.18091589271037], [-85.55175768263186, 36.18101189273423], [-85.55171468158431, 36.18130089337512], [-85.55170068202375, 36.18139789297381], [-85.55169768212923, 36.181415893236235], [-85.55165068187995, 36.18176489294334], [-85.55163068239156, 36.18192089373754], [-85.5515986819839, 36.18208889329615], [-85.55155568166833, 36.182428893501466], [-85.55148868205922, 36.18286689338247], [-85.55143368171407, 36.18323389347118], [-85.55143368229378, 36.183332893502175], [-85.5514106817249, 36.18352089348515], [-85.55134268181028, 36.184099893799036], [-85.55131968196005, 36.18422989408277], [-85.55129768167781, 36.1843808934848], [-85.55125868180785, 36.18466789429799], [-85.55123768263373, 36.18481089433514], [-85.55121268255162, 36.18499589373968], [-85.55118868228688, 36.18524389388326], [-85.55118268258592, 36.18531889392759], [-85.55118268237162, 36.18538889363526], [-85.55115968172511, 36.185621894436906], [-85.5511726822917, 36.185748893948535], [-85.55118468255256, 36.1858508937055], [-85.55124968231671, 36.18602389407878], [-85.55134768187013, 36.18634489420942], [-85.55151068210758, 36.18677989443488], [-85.55154868200718, 36.18687889402978], [-85.55162468207628, 36.187124894367834], [-85.55173868210665, 36.18746789429536], [-85.55179268255128, 36.1876738948766], [-85.55185368278403, 36.188043894719804], [-85.55188468252601, 36.18841889500176], [-85.55191468306366, 36.18876889461724], [-85.55198368291201, 36.18966889514282], [-85.55199068255747, 36.189848895036306], [-85.55205168330372, 36.19072589466534], [-85.5520746827884, 36.19097789473862], [-85.55207468232014, 36.19126389539736], [-85.55203668317263, 36.19153089563162], [-85.55202168268816, 36.191576895322505], [-85.55196768233382, 36.191885895371755], [-85.55187668321378, 36.19231289574011], [-85.5518576833863, 36.19236889517386], [-85.55172368334505, 36.192770895693585], [-85.55138068315372, 36.19360589606212], [-85.55133268264646, 36.193722895520345], [-85.55119068254912, 36.19407589565125], [-85.55114368317356, 36.19419389551732], [-85.55093768301214, 36.194708895500646], [-85.55073168226691, 36.1952998959605], [-85.55068368267378, 36.19545289615487], [-85.5506636826208, 36.19552089618748], [-85.5506176825567, 36.19574189623161], [-85.55060968253684, 36.19599389622645], [-85.55062568310701, 36.19616989633372], [-85.55067868259131, 36.19647089674658], [-85.55081568329001, 36.19699389630638], [-85.55087668346884, 36.19730289690761], [-85.55088468277815, 36.19742089655462], [-85.5508846829555, 36.19753889618537], [-85.55086168344184, 36.19771789644933], [-85.55079268307159, 36.19807289675317], [-85.55072468303864, 36.198553897023814], [-85.55068668270424, 36.19913789638768], [-85.55069168311135, 36.199424896478796], [-85.55069368256518, 36.19951889711143], [-85.55070168263727, 36.19957589706508], [-85.55069368319303, 36.20023589693005], [-85.55067868259889, 36.20055689754326], [-85.55064768276694, 36.20076289697889], [-85.55058968284794, 36.200991897426235], [-85.55051368318904, 36.201188897151695], [-85.55037968252596, 36.201539897643976], [-85.54998268334502, 36.20242289759905], [-85.54979968263298, 36.20283189792889], [-85.5497936830282, 36.20284489758917], [-85.54972568323261, 36.20299889771694], [-85.54970968282447, 36.20303589797439], [-85.54949068319321, 36.203495898124956], [-85.54941268275648, 36.20366189771189], [-85.54969468246095, 36.20379089786921], [-85.54998468356014, 36.203962897425924], [-85.5500076828903, 36.20398589807612], [-85.55014468315645, 36.20408089818621], [-85.55036568300169, 36.20429889770145], [-85.55049568354399, 36.204450898224344], [-85.55052568308733, 36.20449689834748], [-85.5505566835422, 36.20453189804298], [-85.55057168302535, 36.20455789787475], [-85.55065568346062, 36.204698897696964], [-85.5507476830553, 36.20488189797282], [-85.5508156836161, 36.20507289843198], [-85.55088468356573, 36.205400898269524], [-85.55096868359787, 36.20628589848203], [-85.55101468309668, 36.20654189816899], [-85.55112068374547, 36.20689689854459], [-85.55122068368553, 36.207125898505225], [-85.55147168382943, 36.20760189875974], [-85.55167668363741, 36.20796189855823], [-85.55209368429286, 36.208688898540004], [-85.5523646844761, 36.20916289892037], [-85.55240268361206, 36.20923889886357], [-85.55258568439741, 36.20954789898495], [-85.55283768474088, 36.20997889906324], [-85.55305868478969, 36.210348898840344], [-85.55330368393754, 36.210733898833666], [-85.55342068452447, 36.210901898847084], [-85.55396668429677, 36.21168389892475], [-85.55429768451025, 36.21212889972937], [-85.55458468497, 36.212549899537585], [-85.55490568556321, 36.21298889906952], [-85.55532068562306, 36.2135758999371], [-85.55569868490193, 36.21410989924325], [-85.55595768497506, 36.21446489940067], [-85.55606768516914, 36.21461489931478], [-85.55639768594915, 36.21506690005762], [-85.55642368614586, 36.215101899579], [-85.55651468569732, 36.21521289941489], [-85.55661768542214, 36.215336899421665], [-85.55670568615525, 36.215441900274186], [-85.55695068554684, 36.21568890015424], [-85.55706468621425, 36.21580389980342], [-85.55736768572586, 36.216107900258194], [-85.55797268629456, 36.21671589963503], [-85.55820868685551, 36.21697890051874], [-85.55826168673205, 36.21703890045633], [-85.5585446869824, 36.217363900090454], [-85.55887668643396, 36.21774789991097], [-85.55934568723004, 36.21829090005632], [-85.55956668635042, 36.21852390072316], [-85.55962768727937, 36.21857690046144], [-85.5599146865712, 36.218863900741034], [-85.55991768737627, 36.21886690017481], [-85.56029168660864, 36.219206900063405], [-85.56053868766315, 36.21940990035499], [-85.56068068701256, 36.21952690081152], [-85.5611156870467, 36.21985090038284], [-85.56131068767226, 36.219986900553], [-85.5615736871442, 36.220171900510095], [-85.56175868791232, 36.220302900533625], [-85.5617946875249, 36.22032790075319], [-85.5622596881791, 36.22062590064514], [-85.56233468737786, 36.220666901083526], [-85.56253468829647, 36.22077790084909], [-85.56263868783995, 36.220828900797116], [-85.56268068835668, 36.22084990026175], [-85.56287768809526, 36.2209349005521], [-85.56295868788527, 36.22096390073146], [-85.56306868791117, 36.22100290043465], [-85.56305568773605, 36.22106390040349], [-85.56299068809567, 36.22120090089366], [-85.56296868800135, 36.221227900717516], [-85.56293168808553, 36.22127790076637], [-85.56315268797235, 36.22139990114492], [-85.56324668817604, 36.221445900384666], [-85.56347268798564, 36.22155690064447], [-85.5636446884677, 36.22167090118384], [-85.56377068860647, 36.2217849011705], [-85.56386968834217, 36.22190690112915], [-85.56394668856731, 36.22204090083765], [-85.56398968867549, 36.22214690075033], [-85.56399468819993, 36.22216290130458], [-85.56405268823144, 36.22233490052321], [-85.56407468786233, 36.222509900671064], [-85.56407468843567, 36.22251890130915], [-85.56416468830015, 36.222475901016196], [-85.5682006889243, 36.22099190056539], [-85.5685876893322, 36.22103990078822], [-85.56930469009569, 36.221197900231616], [-85.57112169081235, 36.221658900148185], [-85.57144468996923, 36.22173390014255], [-85.57198469089323, 36.221858900214215], [-85.57216169058259, 36.22189990083977], [-85.57224469050551, 36.221917900476896], [-85.57232869072183, 36.221937900735455], [-85.57247669068256, 36.22197190015838], [-85.5724936911733, 36.221975900531355], [-85.57257469054723, 36.22200190033288], [-85.57280669066532, 36.22230190046668], [-85.57255369125636, 36.224747901494176], [-85.57230169118729, 36.226129900934296], [-85.57227669057552, 36.22639490135037], [-85.57241869144592, 36.22679190191585], [-85.57308769082454, 36.22709790106205], [-85.57495469170718, 36.22709690128397], [-85.57509969218692, 36.22984590239332], [-85.57511769208323, 36.230477902024646], [-85.57521169171754, 36.23047290182489], [-85.57540969179288, 36.23047090235426], [-85.57548569257632, 36.23048490245056], [-85.57556169178403, 36.23048590221201], [-85.57592969178673, 36.23050590246577], [-85.57611469225617, 36.23052790199049], [-85.57617769286641, 36.230531901916706], [-85.5763766925539, 36.230557902060944], [-85.57671869246542, 36.23056390180557], [-85.57681169248725, 36.23055090202361], [-85.57697269261227, 36.23053890186556], [-85.5771636930292, 36.23050490197734], [-85.57746469267228, 36.2304539018274], [-85.57765469250998, 36.23040990209259], [-85.57778669320236, 36.23038690175049], [-85.57784569240233, 36.23036690231735], [-85.57789669246068, 36.230360901688506], [-85.57809769301468, 36.23031590237833], [-85.57845169257413, 36.230254901843175], [-85.57848969326484, 36.2302489015619], [-85.57851569286714, 36.23024890215962], [-85.57871069289642, 36.23022290230879], [-85.57884569271216, 36.23021190217014], [-85.57898469370849, 36.23020090230784], [-85.57938669342919, 36.230200902227104], [-85.57969569323856, 36.230227901726806], [-85.57984269381417, 36.23025290140971], [-85.57994769293147, 36.23028490164065], [-85.57997769345315, 36.23028790161973], [-85.58013469360836, 36.23034290169743], [-85.58026969405798, 36.23040890217826], [-85.58031369329211, 36.23042190212332], [-85.58035569352596, 36.230442901657376], [-85.58063169392712, 36.23051190231161], [-85.58071069407173, 36.23052790215487], [-85.58094569355968, 36.23054390158134], [-85.58101369345458, 36.230543902238004], [-85.58129769365283, 36.23052890180541], [-85.58146269340573, 36.23051390211613], [-85.58163969358559, 36.23051490188655], [-85.58210369448996, 36.23055290155619], [-85.58223469419671, 36.23055690192917], [-85.58267869475549, 36.23055690185209], [-85.58290669425546, 36.23058690186157]]]]}}]}