{"type": "FeatureCollection", "features": [{"type": "Feature", "properties": {"name": "District 11", "slug": "district-11", "ccd": 11}, "geometry": {"type": "MultiPolygon", "coordinates": [[[[-85.4539286565273, 36.219326904708915], [-85.45390965642376, 36.219226905408924], [-85.45382465651144, 36.219023904919524], [-85.45375265660742, 36.21883690520952], [-85.4536876563739, 36.21863390492527], [-85.45366465581873, 36.21856090488219], [-85.45361765613124, 36.21838890485427], [-85.45361465581004, 36.21835090485832], [-85.45360265613773, 36.21831990464675], [-85.45358365587435, 36.21823390514729], [-85.45356165563216, 36.21815990471674], [-85.453450656512, 36.21768190489081], [-85.45339765606403, 36.217490904635966], [-85.45335965613376, 36.217375904554025], [-85.45334065567546, 36.21728290504615], [-85.45332065637615, 36.21723090480465], [-85.4532856557839, 36.21708290488063], [-85.45326265620031, 36.21695890436006], [-85.45325065575784, 36.21692790499745], [-85.45323565542654, 36.21681790451869], [-85.45324165627805, 36.21652890433106], [-85.45329665576898, 36.215825904295315], [-85.45330965575407, 36.21567090444424], [-85.45330265637773, 36.21556690457105], [-85.45327065586295, 36.21526890458794], [-85.45316265587324, 36.21500890383204], [-85.45310865601083, 36.21490690455751], [-85.45357865542127, 36.214717903686875], [-85.45362865586563, 36.21432890405232], [-85.45379465618787, 36.21307190333949], [-85.45522165679444, 36.21305490391709], [-85.45579565632048, 36.21304890387356], [-85.45599765669796, 36.21279490377635], [-85.45603265647966, 36.21279690356789], [-85.45613765638541, 36.21280590402225], [-85.45617365692078, 36.212808903251485], [-85.45620565695636, 36.21272790396047], [-85.45644765616514, 36.2124449036609], [-85.45658565713775, 36.212304903788926], [-85.45666765626721, 36.21221490331312], [-85.45684465668323, 36.21202390332021], [-85.45689765614988, 36.21195490369433], [-85.45697465659548, 36.21185890348199], [-85.4570436564443, 36.211780902921866], [-85.45726465683933, 36.211500903195976], [-85.45749365658337, 36.211218903077636], [-85.45761565643518, 36.21105490301514], [-85.45782165736992, 36.210813902850965], [-85.45795065696795, 36.210647903361746], [-85.45814265710295, 36.210410903494186], [-85.4584846566557, 36.20999390287608], [-85.45864565664144, 36.20981890299307], [-85.45862965715096, 36.20978090334697], [-85.45862565705299, 36.2097729031029], [-85.45855965663738, 36.20964090311467], [-85.45853765713814, 36.209597902591], [-85.45850165739431, 36.20952690254475], [-85.45846965680147, 36.20945590239439], [-85.45841665740734, 36.20932290255297], [-85.4584086570437, 36.20927290263823], [-85.45839365742393, 36.209249903228184], [-85.45837865658683, 36.20917790320302], [-85.458378657153, 36.20908190274896], [-85.45838565743279, 36.2090199024555], [-85.45844665690356, 36.20855990281549], [-85.45848465685663, 36.208307902538884], [-85.45861665725714, 36.20720490238732], [-85.45864565702436, 36.20696890196104], [-85.45865965668025, 36.20680190201215], [-85.45868365690268, 36.20659890252615], [-85.45872365662609, 36.20628990190518], [-85.45872965633937, 36.20625190260122], [-85.45874465738571, 36.20613790206225], [-85.45888165734563, 36.205446902055485], [-85.4588816563779, 36.2054089019822], [-85.45888965701498, 36.20537490233799], [-85.4588896563865, 36.20526790209038], [-85.4588586569528, 36.20512990161558], [-85.45882865705372, 36.20507490211403], [-85.45887065694414, 36.20495190192158], [-85.45899765664984, 36.20458290210977], [-85.45904065668759, 36.20446090219964], [-85.45915965633652, 36.20411290138666], [-85.4592866563952, 36.203745901961376], [-85.45944565708223, 36.20326690191896], [-85.45951565723097, 36.2030679013309], [-85.45963965640708, 36.202721901439624], [-85.45985665647147, 36.202469900924676], [-85.4599986571527, 36.202256901282766], [-85.4600866573067, 36.202096901085554], [-85.46021865708326, 36.201821901248806], [-85.46026165719637, 36.2016739008002], [-85.46026265713428, 36.20167190090024], [-85.46040565656426, 36.20097090065838], [-85.46040565728757, 36.20083790116466], [-85.46044965716173, 36.20056290065839], [-85.46074565717964, 36.19801790057284], [-85.46075765731334, 36.19791990038299], [-85.46080165652374, 36.19771590061583], [-85.46084465663338, 36.197301900560824], [-85.46090365674499, 36.19679889989268], [-85.46091665699433, 36.1966758999381], [-85.46098365709004, 36.196076899826224], [-85.46108965684276, 36.19512490025755], [-85.46116165696859, 36.19448689992405], [-85.46122265647702, 36.19391089941819], [-85.4612716567651, 36.19345689937377], [-85.46130265643724, 36.193189899872486], [-85.46150665686672, 36.19335189973627], [-85.46158565671816, 36.19341389916691], [-85.46327765791456, 36.19475489960186], [-85.46337965796147, 36.19483789997578], [-85.46358665719636, 36.19500689961143], [-85.4637376573178, 36.194932899362485], [-85.46563265804407, 36.19399689979652], [-85.46852065853426, 36.194100899080425], [-85.46856465881126, 36.194101899371574], [-85.4710356598693, 36.194199898945534], [-85.47156866000317, 36.19422089947771], [-85.47180465917435, 36.192114899052676], [-85.47525566089017, 36.19224889907118], [-85.47530366050621, 36.19189589819081], [-85.47544966035096, 36.1908378980092], [-85.47549866116893, 36.19048589805071], [-85.47599366134565, 36.19051589869676], [-85.47747866089097, 36.190607898224094], [-85.47797366150641, 36.19063889834104], [-85.47802266114363, 36.1906418986527], [-85.4783446616574, 36.190660898012204], [-85.47841766133892, 36.19066489859866], [-85.47864166173902, 36.19067989850933], [-85.4797526615847, 36.190746897724566], [-85.47997766186772, 36.19076089817716], [-85.48019866167263, 36.1907638983907], [-85.48019966174017, 36.190730898129274], [-85.4801756625761, 36.19069989825223], [-85.48017566235225, 36.19031289824953], [-85.4801836622614, 36.1900998976938], [-85.48018866208812, 36.19000589840976], [-85.48020366157789, 36.189761898028046], [-85.4802136619105, 36.18851389726518], [-85.4802216623903, 36.18813989772603], [-85.48021366211248, 36.1879168973071], [-85.48022066154033, 36.187707897447545], [-85.48022166223026, 36.187689897529054], [-85.48022066224793, 36.18709689737434], [-85.48022866194087, 36.186941897342294], [-85.48023566187828, 36.186420897069866], [-85.48025866140175, 36.18485989707507], [-85.48026666164228, 36.18433989669118], [-85.48030466164703, 36.18433689689726], [-85.48034366169351, 36.18430189715684], [-85.48034366137102, 36.18412389694624], [-85.48040266201325, 36.184102896752925], [-85.48074266218592, 36.18398889706798], [-85.48078666150788, 36.183972897180034], [-85.48091466208608, 36.18392889709735], [-85.48222666247919, 36.18349089703061], [-85.48616666283115, 36.182176895951876], [-85.48747966322503, 36.18173889626423], [-85.48748066379183, 36.18175489587745], [-85.48748666369235, 36.181807895857915], [-85.48749266377378, 36.18184589635321], [-85.48754666369285, 36.18216689627106], [-85.48755266389176, 36.18219989573046], [-85.48756466397388, 36.18227489631867], [-85.4875686634248, 36.18229889642594], [-85.48757966348045, 36.182349896116875], [-85.4875916638774, 36.1823998960609], [-85.48760666407334, 36.18249889610883], [-85.48760666402677, 36.182524896232266], [-85.48761266338305, 36.18257989606324], [-85.48762166370108, 36.182657895878386], [-85.4876596631512, 36.18289789653654], [-85.48768366399015, 36.182975896011904], [-85.48778966358479, 36.18330989608089], [-85.48793466383759, 36.18373789673421], [-85.4879946637179, 36.18390089684234], [-85.48803366433843, 36.18400789621857], [-85.48811766400179, 36.18420289680841], [-85.48821366389032, 36.18443189641775], [-85.48826266449703, 36.18454589663145], [-85.4883236635457, 36.184721896767805], [-85.48839566417315, 36.18515089677299], [-85.48843766414025, 36.18539689644437], [-85.48848366450393, 36.18538889630906], [-85.48906166429668, 36.1851628964823], [-85.48925466450196, 36.18508789656364], [-85.490772664167, 36.1845688968664], [-85.49095966425074, 36.1845188965717], [-85.49098666443957, 36.184511896865196], [-85.49120766444747, 36.184469896616775], [-85.49161966493175, 36.18441689678708], [-85.49199766537393, 36.18441689637946], [-85.49258866514732, 36.1844168961846], [-85.49303866558213, 36.1844698964911], [-85.49312666546176, 36.184485896341634], [-85.49331366546208, 36.18451989592398], [-85.49349666538372, 36.18456489618902], [-85.49372466522246, 36.18460889615057], [-85.49441166602037, 36.18474189648269], [-85.49464066551096, 36.184786896575694], [-85.49485466568893, 36.18482489656852], [-85.49486066608631, 36.1848258959244], [-85.4950146663478, 36.184862896529886], [-85.49538866554167, 36.18493489647783], [-85.49551966664785, 36.18496189649035], [-85.49573966588405, 36.18500789601927], [-85.49596266613503, 36.185050896606626], [-85.49663266655048, 36.18518289670462], [-85.4966926660753, 36.18519489642321], [-85.4968536659892, 36.18524089667489], [-85.49683266616569, 36.18546789649871], [-85.4967996665667, 36.185835896022326], [-85.49676166600518, 36.186064896904135], [-85.49673766620242, 36.186145896507206], [-85.49670866601575, 36.18625189658822], [-85.49665466656224, 36.18635789697825], [-85.49669266628457, 36.18637689687933], [-85.49675566661965, 36.18645789684567], [-85.49678766629827, 36.18651789648108], [-85.4967926663194, 36.18652589696508], [-85.49704566681355, 36.187105897102654], [-85.49705966657345, 36.18713689704027], [-85.49713566658092, 36.187300896314035], [-85.49722766720771, 36.187506897189515], [-85.4974326666945, 36.18796389703586], [-85.4974716667339, 36.18805189669843], [-85.49750666713918, 36.18812489647044], [-85.49758566727319, 36.18828489734718], [-85.4976006664663, 36.188330897214556], [-85.49776066715607, 36.18867789671994], [-85.49785266716377, 36.18887589665877], [-85.49787766743833, 36.18895489666807], [-85.4979216672902, 36.1891538973557], [-85.4979216672836, 36.18945289670499], [-85.49788066678465, 36.18979389754181], [-85.49784466728448, 36.1900968973544], [-85.49782966695743, 36.190172897449855], [-85.49780766717373, 36.19036489757776], [-85.49779966696792, 36.190447897019425], [-85.49777666756631, 36.190649897703835], [-85.49777666710015, 36.19094589758308], [-85.49777666742797, 36.1910448976672], [-85.49778266696141, 36.19113989773845], [-85.49780066722286, 36.191458897447376], [-85.49780666749844, 36.19155589737422], [-85.4977996669775, 36.191740897653645], [-85.49777666700479, 36.19191289759233], [-85.49776166774838, 36.191976897558675], [-85.49771566668053, 36.19223689767059], [-85.49767566771439, 36.192406898182355], [-85.4976546673364, 36.192502898026014], [-85.49763166769878, 36.192624897694024], [-85.49760766752608, 36.192694897622985], [-85.49759366678869, 36.19271389800736], [-85.4975596677486, 36.19275789773894], [-85.4974856672165, 36.19281789752448], [-85.4974846676546, 36.192817897870505], [-85.49733266674042, 36.192900898034864], [-85.49707566753062, 36.19301889766961], [-85.49702866680387, 36.193041898142994], [-85.49696666701952, 36.193074897614395], [-85.49693766688848, 36.193079897664816], [-85.49688866719966, 36.19312389779034], [-85.49683066700456, 36.193174898214], [-85.496781667479, 36.19324689819446], [-85.4967096674181, 36.19344689811482], [-85.49667066744232, 36.193575898445296], [-85.4966216674559, 36.19379789804619], [-85.49660166657583, 36.19389189837506], [-85.4966016674448, 36.19404489830835], [-85.4966316669068, 36.194334898138976], [-85.49663166700985, 36.19446489827013], [-85.49660866747327, 36.194528898046435], [-85.49656366717332, 36.19458289779506], [-85.49651766648367, 36.19462089805385], [-85.49641066690872, 36.19466289867266], [-85.4961586669838, 36.1947238980953], [-85.49607466641619, 36.19476589795406], [-85.49605566638634, 36.194782898152496], [-85.49600666721854, 36.194822898181634], [-85.49595266720141, 36.19489589803801], [-85.49592266636131, 36.19499089832328], [-85.49592266673801, 36.1953078986935], [-85.4958996667731, 36.19559789814272], [-85.49585366667294, 36.19578489828049], [-85.49584666673805, 36.195814898536355], [-85.49578466684139, 36.19602889892006], [-85.49570866708243, 36.19647089900222], [-85.49570166661692, 36.196573898270685], [-85.49569166745697, 36.19663489871993], [-85.49566366671861, 36.19682089872721], [-85.49565566703546, 36.19688289889037], [-85.495641666861, 36.197006898550434], [-85.49564166668755, 36.19700989879336], [-85.49561766701935, 36.19722989871678], [-85.4956036667589, 36.19737889888647], [-85.49560166704082, 36.19741289899846], [-85.49559966735957, 36.19750389922605], [-85.49686266753763, 36.19750789882652], [-85.49909066745455, 36.19751689905266], [-85.49906266794781, 36.19820889888868], [-85.49901566854479, 36.198876898936895], [-85.49904466808084, 36.198870898905], [-85.49907166779727, 36.19885089875535], [-85.4990886682889, 36.198822899133525], [-85.4990986680752, 36.19878889882454], [-85.49910666786464, 36.198752899369644], [-85.49911466761043, 36.19871989925417], [-85.49911566764342, 36.198717899035564], [-85.49913066851163, 36.198685898600644], [-85.49915666854838, 36.19866289854901], [-85.49917566844202, 36.19864789864128], [-85.49920766757118, 36.19863789867284], [-85.49927566834961, 36.19868789871759], [-85.49927166805941, 36.19877589852953], [-85.49924366820781, 36.198812899249816], [-85.49920266755133, 36.19884689897517], [-85.4991456684723, 36.19889089922302], [-85.49909266788005, 36.198934898907325], [-85.49897466752581, 36.19902289888669], [-85.49892766819633, 36.19904889941947], [-85.4989106682953, 36.19919489889974], [-85.49928266810883, 36.19919889887606], [-85.49928866818583, 36.199164899092594], [-85.49931066841711, 36.199063898680976], [-85.4993176684693, 36.19903089891596], [-85.49962066777076, 36.19912589872724], [-85.49963766826045, 36.19913189936173], [-85.50010166795535, 36.19914189907542], [-85.50023266850721, 36.19914489904268], [-85.5005646681033, 36.19907189935929], [-85.50058666865488, 36.199067898708385], [-85.50063566902769, 36.19905689890233], [-85.50085966827378, 36.198954898501356], [-85.50111966827168, 36.198852898626875], [-85.50095566831155, 36.198578898850776], [-85.50085966817036, 36.19841789854574], [-85.50066266892858, 36.19807289888514], [-85.50018366883047, 36.19781389841753], [-85.4999336680043, 36.19756689839917], [-85.4998166686706, 36.19727689893603], [-85.49980866776453, 36.19725689872133], [-85.49978666838159, 36.196681898295616], [-85.50009866840666, 36.19672389875284], [-85.50039966823243, 36.196761898226065], [-85.50202966865282, 36.19696889808579], [-85.50219566921947, 36.19698989843889], [-85.5022426685316, 36.19699489853496], [-85.50282366870256, 36.19706889882755], [-85.50285466924397, 36.197055898044724], [-85.50284966935257, 36.197078898844225], [-85.50285566925025, 36.19724389812557], [-85.50293966944912, 36.19732689886923], [-85.50297066892632, 36.19736589894672], [-85.50298066926197, 36.197378898201485], [-85.50330666945702, 36.19771389830258], [-85.50333966973787, 36.19775589864079], [-85.5033636692503, 36.197803898482036], [-85.50338866949794, 36.19783289879984], [-85.5034556690426, 36.197949898974485], [-85.50348066897249, 36.198004898360054], [-85.50350866881347, 36.198083898488306], [-85.50352066934146, 36.198176898539614], [-85.50351866936367, 36.19824789843271], [-85.50351666978663, 36.198416898697374], [-85.50350666916367, 36.198605898905555], [-85.50350166920171, 36.19869589909625], [-85.50350566943895, 36.19871889906704], [-85.50353666969976, 36.19880089913268], [-85.50359566973691, 36.19887189835967], [-85.50363766905208, 36.19896089851179], [-85.50371266888874, 36.19904489900029], [-85.50377866977156, 36.199133898608345], [-85.50385266985911, 36.199272898704166], [-85.50381366929882, 36.199683899344265], [-85.50385666977236, 36.19974289930814], [-85.50398966979456, 36.19985789915185], [-85.5041156693151, 36.19992789894159], [-85.50415766935308, 36.199941899197874], [-85.50446166990449, 36.20000589894771], [-85.5044866700354, 36.200039899114536], [-85.50452967010241, 36.20016689945371], [-85.50454366959916, 36.20020589872727], [-85.50458566988982, 36.20025389914532], [-85.50460267001506, 36.20028889928731], [-85.5046436696225, 36.20033689918318], [-85.50467667024299, 36.20039889861246], [-85.50470966954148, 36.2004888987577], [-85.5047496696129, 36.2006198990303], [-85.5047996700816, 36.20074389888251], [-85.50494966946911, 36.20121489894472], [-85.50504266988594, 36.20154289920596], [-85.50514066952961, 36.201824899676176], [-85.50537667040588, 36.202457899292625], [-85.50540267028775, 36.202542899263406], [-85.50552367060955, 36.20300989971591], [-85.50554367020175, 36.203068899453285], [-85.50555567008276, 36.2031278997765], [-85.50565366994365, 36.2033688994596], [-85.50570367021629, 36.20344489954813], [-85.50575366997258, 36.203506899709225], [-85.50598367026802, 36.20374389973851], [-85.50600467033279, 36.20377089945512], [-85.5060606709284, 36.20394289994805], [-85.5060926700505, 36.20414989932242], [-85.50612567006057, 36.204231899548745], [-85.5061826701533, 36.20431490005568], [-85.50625067067003, 36.20439089959989], [-85.50653467101806, 36.20466389950838], [-85.50670167039117, 36.2048339000125], [-85.50679267013653, 36.20493790015241], [-85.50689267027947, 36.20506989981349], [-85.50695867025703, 36.205186899988924], [-85.50701567061687, 36.205310900281795], [-85.50705267124707, 36.20541789988571], [-85.50708167073755, 36.20556590036472], [-85.50709967032078, 36.20580190006288], [-85.50710267066496, 36.205840900036435], [-85.5071276710231, 36.205902900275554], [-85.50721967104343, 36.20601390047873], [-85.50724467113497, 36.20606290027467], [-85.507269671148, 36.206089899848884], [-85.50730167091926, 36.20615189976655], [-85.50734267128546, 36.20627590037573], [-85.50734267049802, 36.206295899829925], [-85.50736667048707, 36.20642089994089], [-85.5074736714965, 36.2066488999459], [-85.50750167122219, 36.20672690035238], [-85.50751367144584, 36.206791899979706], [-85.50748667117412, 36.20693690058764], [-85.5074346711728, 36.207046900436126], [-85.50734867104855, 36.20720290062158], [-85.50732267067765, 36.20723090066833], [-85.50731367072208, 36.20725490006314], [-85.50727067072008, 36.20731290066603], [-85.50712367124405, 36.207558900300036], [-85.5070806705337, 36.207654900775246], [-85.50706767060925, 36.20769890039566], [-85.50711667147857, 36.207710900356425], [-85.50754967122916, 36.20782690011441], [-85.50783167169948, 36.20792990084507], [-85.50783467141535, 36.207930900831116], [-85.50815267073978, 36.208074900784894], [-85.50850367128993, 36.208254900908415], [-85.50863867190743, 36.208311900428626], [-85.50877067122714, 36.20836890020515], [-85.50894567186579, 36.208433900176935], [-85.50922767153024, 36.208517900348006], [-85.50938967204704, 36.20855190092066], [-85.50978467198716, 36.20863590007604], [-85.51010267170065, 36.20868490042724], [-85.51042567221171, 36.2087349007625], [-85.51066967158404, 36.208772900060616], [-85.51089167210603, 36.208830900232314], [-85.51092967235583, 36.20905590024167], [-85.51095267223228, 36.20911690014995], [-85.5109906719343, 36.209234900292856], [-85.51100667198632, 36.20927090025983], [-85.51105167270592, 36.20937190068087], [-85.5112046725938, 36.20975790053896], [-85.51144867186377, 36.21037890091652], [-85.5114556728828, 36.21039690087754], [-85.51151667270095, 36.21054390114032], [-85.51169267239146, 36.21096690086225], [-85.51166067267243, 36.21108590103442], [-85.51172867305299, 36.2112329006259], [-85.51194467288104, 36.21169890115883], [-85.51199367269022, 36.2119189008444], [-85.51206267293115, 36.21231990074886], [-85.51215067305446, 36.212832901407005], [-85.5121786728299, 36.21299390115692], [-85.51231167336799, 36.21364990101432], [-85.5123666727804, 36.21395390125551], [-85.51238067281318, 36.214191901263796], [-85.51238267256852, 36.21422390154064], [-85.51237867339684, 36.21435990136976], [-85.51233367300765, 36.21455690186456], [-85.51224867324477, 36.214725901510306], [-85.512203672641, 36.21476590152271], [-85.5121986731923, 36.21477390145976], [-85.51200367254211, 36.21498490134999], [-85.5118986731265, 36.21510990162512], [-85.5117156725775, 36.21529990199107], [-85.51142567259737, 36.21562090149668], [-85.51125767282626, 36.21579090205059], [-85.51101167292953, 36.21606190209098], [-85.51002167238575, 36.217153901893944], [-85.50983067233744, 36.217390902535136], [-85.50969367237332, 36.21759690228039], [-85.50949567173436, 36.217939901988636], [-85.50922767245089, 36.21845090252269], [-85.50911667261015, 36.2186819021256], [-85.50899167252842, 36.21893590288653], [-85.50820367256179, 36.22049390301918], [-85.50795667182945, 36.22098490274147], [-85.50783967151997, 36.22123890321941], [-85.5077786716443, 36.22133090356027], [-85.50753467192767, 36.2218239035855], [-85.50742167218496, 36.222070902882145], [-85.5073776715496, 36.22216390330688], [-85.50733667237, 36.22225590296491], [-85.50729867152208, 36.22246090301053], [-85.50729767174047, 36.22247090357197], [-85.50729767229168, 36.22256390319257], [-85.50732067232728, 36.22270490371738], [-85.50734167150351, 36.222792903299315], [-85.50735167170936, 36.22283090331487], [-85.50746567188355, 36.22304390348991], [-85.5075646721113, 36.223169903612366], [-85.5076796724738, 36.2232879036913], [-85.50775367159208, 36.22334990310436], [-85.50780867171966, 36.22339490341843], [-85.50794667192996, 36.22348290373492], [-85.50862167289276, 36.223899903587366], [-85.50882367286609, 36.22402490396474], [-85.50993767303672, 36.2246959036402], [-85.51065067342464, 36.22514390353925], [-85.51070867342027, 36.225180903557], [-85.5110056737294, 36.225393904146166], [-85.51128067311171, 36.225626903536615], [-85.51136167321488, 36.2257119042304], [-85.51144067363391, 36.225794904144706], [-85.51146367363253, 36.22583290408588], [-85.51146767318608, 36.22584090431759], [-85.511509673353, 36.22591690422998], [-85.51152667365413, 36.22597890415786], [-85.5115476738269, 36.22606890365287], [-85.51154767369493, 36.226137904126425], [-85.51153967377238, 36.226297904347994], [-85.51152467392916, 36.22643190442147], [-85.51149367351641, 36.22658390416221], [-85.51147967354085, 36.22667890365241], [-85.511455673101, 36.226850903982964], [-85.51143267354358, 36.22696190366098], [-85.51134167399611, 36.227519904607874], [-85.51128767398127, 36.22785490453931], [-85.51127267321968, 36.22796890428936], [-85.51121167316322, 36.228350904121044], [-85.5110956739348, 36.229200904855446], [-85.51102067359204, 36.22976190439853], [-85.51101567311491, 36.229791904315675], [-85.51100267383515, 36.22988390480148], [-85.5109986738777, 36.22991490463249], [-85.51095967337096, 36.23015090471354], [-85.51094167302648, 36.230269904879044], [-85.51091467377971, 36.23045990488475], [-85.51086867320694, 36.23070390476421], [-85.51085367362097, 36.23083790459367], [-85.51079967346327, 36.231134905220344], [-85.51076167339102, 36.23132990480971], [-85.51076067363908, 36.231334905319954], [-85.51070867306969, 36.23169190468351], [-85.51065467359587, 36.23202790522636], [-85.51061967379556, 36.2322889053056], [-85.51061667373367, 36.23231790480775], [-85.5104796733562, 36.23310390517835], [-85.5104336732314, 36.23327890528593], [-85.51034967301531, 36.23353090514768], [-85.51033467361844, 36.23354990546264], [-85.5103036734131, 36.23362990587183], [-85.5101076732802, 36.234010905713674], [-85.51008267385087, 36.234060905762576], [-85.51003667362782, 36.2341869055544], [-85.51000667322077, 36.234361905454485], [-85.51001367297016, 36.23451090610268], [-85.51003667310889, 36.23459490612033], [-85.5100526733229, 36.23469590566444], [-85.51007867325578, 36.23471590586046], [-85.5101166734667, 36.23478590563103], [-85.51016267334408, 36.23485590538108], [-85.51023267407922, 36.23492090593965], [-85.51031067366388, 36.23498190585686], [-85.5103966740517, 36.23503390597861], [-85.51048967391765, 36.23507890567463], [-85.51053667329244, 36.235097905773195], [-85.51093567339574, 36.23526290560835], [-85.51098267409894, 36.23528190553692], [-85.51123267372421, 36.23537890593416], [-85.511755673844, 36.23561190620205], [-85.51194567421578, 36.235730905955904], [-85.51199867420405, 36.23578490571341], [-85.5121006746195, 36.2358749057788], [-85.51218867400884, 36.23597590555779], [-85.51227167458943, 36.23611590581299], [-85.51234267466104, 36.23629290638615], [-85.5123566744881, 36.236327905538616], [-85.51236367466173, 36.23634590620123], [-85.51261267398593, 36.23699190602713], [-85.51267567452223, 36.237153906391185], [-85.51267967465951, 36.23716590623104], [-85.5127376741397, 36.2373139064442], [-85.51280767450731, 36.23747090607181], [-85.5128296743033, 36.23753890634328], [-85.51288867446384, 36.237686905994906], [-85.51295867448343, 36.237860906381826], [-85.51296667438096, 36.23788390656776], [-85.51305767445032, 36.238043906168365], [-85.51314867501115, 36.23817290596984], [-85.51316467493166, 36.23819590593519], [-85.51335567488339, 36.238397906457394], [-85.51364567500806, 36.23862290638504], [-85.51399467526622, 36.2388709063083], [-85.51429367528266, 36.23908490614291], [-85.51440867547107, 36.23890590679489], [-85.51443167517236, 36.238840906776645], [-85.51456867478063, 36.238561906532524], [-85.51476667540652, 36.23824990645082], [-85.51479767567453, 36.238180906369195], [-85.51481167475748, 36.23814790625734], [-85.51481267544472, 36.23814690630235], [-85.51485867534366, 36.238081906635635], [-85.5149576747069, 36.237955906184176], [-85.51511067550238, 36.23780690573457], [-85.51522467504464, 36.23772290596097], [-85.51535467476806, 36.23765790608278], [-85.51559067559816, 36.23758590588803], [-85.5159116748928, 36.23752890622428], [-85.51655267552255, 36.23745190589137], [-85.51678867563481, 36.2374449057154], [-85.51681167610033, 36.23744090611216], [-85.51749867574739, 36.23745190632189], [-85.51781267579861, 36.237460906122834], [-85.51836867624306, 36.237478905546425], [-85.51888667603097, 36.23748290633343], [-85.51938267695901, 36.23747490578151], [-85.519611676342, 36.237482905711474], [-85.51983267628353, 36.237505905982694], [-85.5201076771352, 36.23755890613023], [-85.52029867633594, 36.23761990582901], [-85.52051167708079, 36.237722906200084], [-85.5207486772669, 36.23788290615847], [-85.52151167704429, 36.23850890609527], [-85.52189267710928, 36.23877990567094], [-85.52203067702784, 36.238851905972936], [-85.52218267758523, 36.238912906067775], [-85.52241167721071, 36.23897090646964], [-85.52336567769746, 36.23907690631448], [-85.52367067769742, 36.23908890602129], [-85.5241126782015, 36.23908090560842], [-85.52435767832156, 36.23912690594507], [-85.52443367845002, 36.23917690631706], [-85.52449467841751, 36.23923790572436], [-85.52453267767234, 36.23930590637762], [-85.52455567758383, 36.239382906276994], [-85.52488367828721, 36.241190906010495], [-85.52496767799764, 36.24154590625645], [-85.52510567821797, 36.241595906591854], [-85.52515467781286, 36.241681906380116], [-85.525191678539, 36.24174490641674], [-85.52523867879005, 36.24181590631701], [-85.52524367894364, 36.241835906276066], [-85.5253256785161, 36.24194690695573], [-85.52555567880069, 36.242182906619824], [-85.52566967869511, 36.24226390634013], [-85.5256846780551, 36.24227190688197], [-85.52586767843528, 36.2423639064493], [-85.5259376784486, 36.242391906631795], [-85.52593767914198, 36.242392907001644], [-85.52593767816948, 36.24239790703119], [-85.52603467888477, 36.242422906555596], [-85.52620267853854, 36.24244990671091], [-85.52693467908907, 36.24254490626369], [-85.52717167923564, 36.24256790699481], [-85.52735767923245, 36.242567906594694], [-85.52738467907507, 36.24256690640683], [-85.52759067870218, 36.2425519062787], [-85.52835367887413, 36.24244490644724], [-85.5285216794886, 36.242433906555185], [-85.52885767912721, 36.24244790665925], [-85.52963568011435, 36.242515906097196], [-85.53011567971494, 36.2425709060037], [-85.53114667978086, 36.24268690657207], [-85.53163568023894, 36.24273090608941], [-85.53177168043926, 36.24274290681923], [-85.53215367994748, 36.24278490603726], [-85.53246668090036, 36.24278490644122], [-85.5325726808957, 36.242777906670774], [-85.53283268098667, 36.242746905985975], [-85.53294668100384, 36.242750906608656], [-85.53306268056507, 36.242777906162274], [-85.53318668086018, 36.242728905945924], [-85.53332968059952, 36.242674905961394], [-85.53357168042848, 36.24261490643599], [-85.533701681079, 36.24258390661773], [-85.53296168152075, 36.24794490784317], [-85.5301556799731, 36.2476919070298], [-85.52987868062218, 36.25043090770971], [-85.53484468217168, 36.25093390827007], [-85.53475868189332, 36.25232690849301], [-85.53475668231404, 36.252359908293236], [-85.53450568255377, 36.256386909484995], [-85.53402068144787, 36.25636690926728], [-85.53391968241382, 36.25874990996649], [-85.5307856815144, 36.258753909889094], [-85.53056668128002, 36.261218910476224], [-85.52347267942925, 36.2606239099263], [-85.52337367926602, 36.260614910072995], [-85.5198616776526, 36.260530910582645], [-85.51986567815725, 36.26049491073755], [-85.51987667759292, 36.26034291020851], [-85.51988767760353, 36.260191910036184], [-85.51997567823705, 36.25902491063414], [-85.52009667785191, 36.258301910028976], [-85.52012767767687, 36.25810191011054], [-85.52022167841997, 36.257520910297586], [-85.51257567519981, 36.256885909962975], [-85.51202967590307, 36.258912910816534], [-85.51197567531207, 36.25941091042743], [-85.51170767582627, 36.26178991100305], [-85.51169367528679, 36.261998911188655], [-85.51162167576686, 36.2630669112516], [-85.51151467620161, 36.2645489118804], [-85.50941767563891, 36.264562912023194], [-85.50947967592964, 36.265760911551375], [-85.50947067499055, 36.265792911806166], [-85.5092936755902, 36.26654391224258], [-85.50977967565365, 36.26662891184941], [-85.50958167609531, 36.26853591232283], [-85.50950767519232, 36.26924991241307], [-85.50949767579628, 36.269343912882285], [-85.50921667546521, 36.27120591328576], [-85.50921267609374, 36.271220913251774], [-85.50828767602799, 36.27772691448278], [-85.50736767527376, 36.277642914406684], [-85.50549467501696, 36.27811191485255], [-85.50551267532774, 36.27876491460482], [-85.49995467394096, 36.2792099153197], [-85.49987667371619, 36.279219915218185], [-85.49851567324322, 36.27935891534859], [-85.49829267290278, 36.279381915613094], [-85.49400467164905, 36.279823915654724], [-85.4939006724304, 36.281343915393535], [-85.49724067337657, 36.28248491603638], [-85.49728367247748, 36.28249991547211], [-85.4972906726418, 36.28251591604502], [-85.49730667294577, 36.282586915983934], [-85.49731167263722, 36.28260891578289], [-85.49737467299684, 36.282791915877326], [-85.49737867296614, 36.28284991624017], [-85.49738667344393, 36.28294091616254], [-85.497390672972, 36.282990916372036], [-85.49736067348067, 36.283117916213236], [-85.49727067272973, 36.28331391641382], [-85.49725367271363, 36.28340291618297], [-85.49724867253023, 36.28350291570368], [-85.49717967354506, 36.28379891622637], [-85.49715367331827, 36.28386691611069], [-85.49710367305411, 36.28393591653504], [-85.49706067308945, 36.28397091592755], [-85.49694167325677, 36.284024915832966], [-85.49687067282223, 36.284044915849385], [-85.4967966731024, 36.28406691576691], [-85.49661467272446, 36.28411091627257], [-85.49628267241734, 36.28416591639552], [-85.49618867228816, 36.28417291647401], [-85.49600667275404, 36.28416191630359], [-85.49591367256436, 36.28412791654641], [-85.49583767311415, 36.284085916281406], [-85.49579467268248, 36.28405091641979], [-85.49575267224739, 36.28400291608214], [-85.49572767286186, 36.283933916085175], [-85.49566867204258, 36.283858916283656], [-85.49561767236486, 36.28375491607065], [-85.49554267257717, 36.2835689162261], [-85.49545767280121, 36.28347591584756], [-85.49528867286469, 36.283334916192416], [-85.49520367222051, 36.2832879158017], [-85.49511867274268, 36.28325891636556], [-85.49505967289556, 36.2832599163131], [-85.4949236724369, 36.28327891636473], [-85.49474467212544, 36.28336891596185], [-85.49466067270318, 36.28342991642338], [-85.49457467265866, 36.28351991609582], [-85.49451467253678, 36.283656915917135], [-85.4944506718125, 36.28383191612102], [-85.49442067261096, 36.28394691635307], [-85.49438567257377, 36.28422091626262], [-85.4943306718577, 36.28458291609122], [-85.49432467170845, 36.2846269165766], [-85.49432167224134, 36.28535591666438], [-85.49428267238487, 36.28565491670592], [-85.49426467191898, 36.2857579168037], [-85.49427667217766, 36.28588691647754], [-85.49429367190447, 36.286057916853714], [-85.49432167240506, 36.286143916780794], [-85.49437667283472, 36.28640191687273], [-85.49438067215006, 36.28648691696462], [-85.4943576719937, 36.28674591645625], [-85.49431567261594, 36.28687591676301], [-85.49428867225538, 36.286923917305685], [-85.49424667185639, 36.28697591688956], [-85.49418667240143, 36.287027916849304], [-85.49414567187569, 36.287050916581514], [-85.49411967241004, 36.28706591675325], [-85.49404267206266, 36.28710191731204], [-85.4939916724588, 36.28711591700289], [-85.49390767203498, 36.28715091665762], [-85.49377067266506, 36.287184916567966], [-85.49354967219008, 36.28725291717332], [-85.49343167235557, 36.287294917129444], [-85.49316267162729, 36.28736591701046], [-85.49313367208067, 36.287369916704], [-85.49298867237918, 36.28741091711522], [-85.49285767167137, 36.28743491686889], [-85.49271367196272, 36.287441917173275], [-85.49245367196276, 36.287437916680055], [-85.49215767211554, 36.287402917400065], [-85.49212267170029, 36.28739591747173], [-85.49205567127359, 36.287374916889036], [-85.49188567223469, 36.287298917143126], [-85.49172867167867, 36.28721691740512], [-85.49164067206264, 36.287147916672346], [-85.49150467124346, 36.287023917012654], [-85.49147967115823, 36.28699291708232], [-85.49137767137715, 36.28688891690706], [-85.49119167155652, 36.28671991670003], [-85.4910316709008, 36.28651691713752], [-85.49098967149388, 36.28647991728996], [-85.49092967154128, 36.2864449171369], [-85.49088767187996, 36.28643291713468], [-85.49081967108428, 36.28643091660081], [-85.49079967088244, 36.28643591704668], [-85.4907686713313, 36.286444916737246], [-85.49063267137416, 36.286540916838014], [-85.49059867084911, 36.2865819170271], [-85.4904456711114, 36.28680791675728], [-85.49038867150036, 36.28694991714408], [-85.49035467113926, 36.287258917038756], [-85.49033667088325, 36.28752491679765], [-85.49181967163344, 36.288343917300296], [-85.49219167141763, 36.28885991718392], [-85.49224567188587, 36.288933917035585], [-85.49260267166059, 36.28953291712844], [-85.49316967233558, 36.29003491781184], [-85.49361667186938, 36.290188917927075], [-85.4942736727698, 36.29031891778781], [-85.49473167230084, 36.29059391792897], [-85.49470167296235, 36.29237991840029], [-85.49469067323649, 36.29304191820608], [-85.49466867304484, 36.2943579181894], [-85.49463167257232, 36.29668791869271], [-85.49463167287088, 36.296688919046424], [-85.49463167317516, 36.29668991849892], [-85.49463167347372, 36.29669091885266], [-85.49463167265894, 36.29669191920165], [-85.49463167296324, 36.296692918654166], [-85.49465067361454, 36.29669191841697], [-85.49651867334818, 36.29643291896682], [-85.4965806732901, 36.29642491838228], [-85.4967686731912, 36.29640291825833], [-85.49682567385238, 36.29639691907328], [-85.49683167427364, 36.29639591845991], [-85.49678967331936, 36.2973049187907], [-85.49666667362101, 36.30003391967818], [-85.49662667435494, 36.3009439195196], [-85.4967356745194, 36.30112991946035], [-85.49710267411983, 36.30162392014987], [-85.49714467404308, 36.30165992001098], [-85.49741067470043, 36.30189092013623], [-85.49760967431574, 36.302036919685335], [-85.49773767431553, 36.30235192024662], [-85.49618267343145, 36.30231191999435], [-85.49601467403018, 36.3023069201302], [-85.49512867393021, 36.302284920036044], [-85.49297867340256, 36.302283919765436], [-85.49290167272343, 36.30314792056485], [-85.49290267353226, 36.30335491981531], [-85.49220967259735, 36.303339920657386], [-85.49076367249597, 36.3033159202981], [-85.49070767178702, 36.30152291953959], [-85.4907606726497, 36.30127291979652], [-85.49065267257045, 36.30115292018925], [-85.49047667186885, 36.30089691959669], [-85.49029467243781, 36.30038791985844], [-85.49019367233547, 36.30010191978115], [-85.49002967199668, 36.29963992000767], [-85.48999767223332, 36.29945291930896], [-85.4869836709828, 36.299972920240904], [-85.48423567014127, 36.300530920249464], [-85.48421667101351, 36.302841920559686], [-85.48347767062431, 36.3036999211485], [-85.47993966907924, 36.30343792087746], [-85.47985166885285, 36.30343192054439], [-85.47990166972828, 36.303381920709874], [-85.47998066956886, 36.30329592118474], [-85.4800226691617, 36.30323492087371], [-85.48003566980594, 36.30320092068162], [-85.48005066925259, 36.30313092094468], [-85.48004566931648, 36.303095920494485], [-85.48000766911989, 36.303031921144886], [-85.47989066913586, 36.30292492105055], [-85.47981966928437, 36.302882920789706], [-85.47970866883564, 36.30282592063351], [-85.479668669182, 36.30280992042011], [-85.47949466952696, 36.302784920628504], [-85.47939066911435, 36.30278692057592], [-85.47925866891205, 36.302778920699325], [-85.47921566949725, 36.30276992069007], [-85.47912766884568, 36.30276292037334], [-85.47899466889663, 36.302765920668186], [-85.47877466875595, 36.302767920355215], [-85.47868666853445, 36.30276492112491], [-85.47850866860249, 36.30277192112064], [-85.47846566869661, 36.302779920508186], [-85.47824366828952, 36.30279992053218], [-85.4781566685368, 36.3028159210965], [-85.47799066832356, 36.302867920344205], [-85.47791066873468, 36.302899920528056], [-85.47782966871303, 36.30292592053833], [-85.47772166847787, 36.302988920510415], [-85.4776666685601, 36.3030409210917], [-85.47750366819267, 36.303158920674], [-85.47743066885909, 36.303199920607334], [-85.4773916687114, 36.303216921136865], [-85.47730766842432, 36.30323992119437], [-85.4772196687866, 36.30324992096312], [-85.47712966824365, 36.30324492116394], [-85.47699866797662, 36.30323092103939], [-85.47678766861684, 36.303191920914145], [-85.47670566836618, 36.30316192049757], [-85.4765036685964, 36.30310192080236], [-85.47641766816803, 36.30308892055996], [-85.47628966786561, 36.30305992107526], [-85.47621166812864, 36.30302592092221], [-85.47617066838983, 36.30301392112962], [-85.47609766857984, 36.302972921177606], [-85.47602966769905, 36.30292692125961], [-85.47585366771396, 36.3027209205252], [-85.47579666819155, 36.302666921189314], [-85.47573166817807, 36.30261792043586], [-85.47560666781214, 36.30259792107156], [-85.47543066838595, 36.30257992092664], [-85.47520866796216, 36.30256392074401], [-85.47507866748917, 36.30254292040757], [-85.47485666783521, 36.30251692056994], [-85.47467966800004, 36.3025029208978], [-85.47459166719368, 36.30250192118834], [-85.47441366742747, 36.302483920781484], [-85.47432766782042, 36.302466921246996], [-85.4741496680611, 36.30244592119785], [-85.4740166679755, 36.3024379211576], [-85.4739286674102, 36.30244092057099], [-85.47375066728972, 36.302435921054844], [-85.47357066711324, 36.302418920963596], [-85.47339366679911, 36.302410920614264], [-85.47330466713528, 36.302401920913354], [-85.47313266757995, 36.30237092125577], [-85.47286466712981, 36.302355921234806], [-85.47273166714703, 36.30234092092172], [-85.47268666697424, 36.30233892133542], [-85.4725566675013, 36.30231692063748], [-85.47234866737041, 36.30225892093387], [-85.472049666388, 36.30219292087046], [-85.47189766710324, 36.30212192060286], [-85.47177866709345, 36.30207492045568], [-85.47156766652483, 36.302023920470795], [-85.47139366660039, 36.30199592055614], [-85.47130466650462, 36.30198692117934], [-85.47121566648782, 36.3019879207521], [-85.47108366623775, 36.30200292093842], [-85.47099566605796, 36.302019921344446], [-85.47087066673839, 36.302054921119804], [-85.47079166600267, 36.30208792133376], [-85.47071466708147, 36.302124920852904], [-85.47061766700244, 36.3021969207761], [-85.4705236662184, 36.30227292074371], [-85.47043766609073, 36.3023539213907], [-85.47033066692318, 36.302467920908505], [-85.47027366616307, 36.30252092145742], [-85.47020066662246, 36.30260992132349], [-85.47011066610682, 36.302731921335905], [-85.47003366647445, 36.30285892144405], [-85.4699996669306, 36.30292392145551], [-85.46993366692543, 36.30309292140096], [-85.46991166677424, 36.30312392147228], [-85.46974466583225, 36.30344992120561], [-85.46963566611191, 36.303604921219666], [-85.46960766668452, 36.30363192144747], [-85.46950166594159, 36.30378992112504], [-85.46943166609533, 36.30388092174796], [-85.46926766644644, 36.30404792129659], [-85.4688996660465, 36.30434992112004], [-85.46876066609978, 36.304437921800805], [-85.46868666570366, 36.304475921825535], [-85.4686536664445, 36.30449992133355], [-85.4685806657122, 36.30454092133323], [-85.468390666538, 36.30463492123731], [-85.46803666550856, 36.304852921602134], [-85.46795966601152, 36.30488792135087], [-85.46792366576224, 36.304908921719836], [-85.46780266625811, 36.30495392140844], [-85.46767666538591, 36.304990921380565], [-85.46763366533605, 36.30499992177723], [-85.46755466595036, 36.30503092187176], [-85.46747066525072, 36.30505492176126], [-85.46738466614438, 36.305072921496084], [-85.46734466543411, 36.30508592198792], [-85.46712866580899, 36.30513292132952], [-85.46699866573093, 36.30515192188094], [-85.46682066515915, 36.30515292150761], [-85.46669066588676, 36.3051329215472], [-85.46660666518058, 36.30510792164481], [-85.46653566590821, 36.30506592170342], [-85.46651166522513, 36.30503592152561], [-85.46648566578838, 36.30496792170008], [-85.46647966572819, 36.30471892126478], [-85.46650866578278, 36.30464292157185], [-85.46652566493783, 36.304572921499364], [-85.4665386660337, 36.30453892184723], [-85.46668166501917, 36.30431692127413], [-85.46690666531296, 36.304008921097456], [-85.46699066552812, 36.30388292176768], [-85.46714166583203, 36.303624921594135], [-85.46722066572144, 36.30345692132742], [-85.4672706651393, 36.303319921296215], [-85.46734766583684, 36.3031529214888], [-85.46738466543383, 36.30305092150941], [-85.46741466509035, 36.30294592116912], [-85.46745466593913, 36.30277192165277], [-85.46746266615686, 36.30262992131476], [-85.46746066580162, 36.30248792108292], [-85.46743866546939, 36.302346921424686], [-85.46736266503471, 36.3021419208885], [-85.46730066596406, 36.30193492089195], [-85.46726166510969, 36.30183292129751], [-85.46721266595517, 36.301734921395735], [-85.46717566544363, 36.30167092144214], [-85.46710966593821, 36.30157892078511], [-85.46705766573162, 36.30152192113426], [-85.46697166508146, 36.30144192117679], [-85.4668776657665, 36.30136792134681], [-85.46676866543072, 36.30130592079709], [-85.4666526651192, 36.30124992112442], [-85.46657366571417, 36.301218921270255], [-85.46649066562044, 36.30119492059828], [-85.46645066497064, 36.301178921391546], [-85.4663676648394, 36.301156921339526], [-85.46628166508275, 36.301138921115275], [-85.46614766483161, 36.30112992115339], [-85.46601666501302, 36.301141920971645], [-85.46588566478019, 36.30115992095966], [-85.46563266503327, 36.3012249209504], [-85.46551766486402, 36.30127792068403], [-85.46543566464833, 36.30130592131565], [-85.46536266518171, 36.30134692121546], [-85.46522566493613, 36.30143692114746], [-85.46509766530131, 36.30153792136266], [-85.46503966514716, 36.30159192081029], [-85.46495766468372, 36.30167692138397], [-85.46485566527072, 36.30179292091684], [-85.46475966427336, 36.30191192093586], [-85.46472766482256, 36.30197792149798], [-85.4646876650507, 36.302079920946404], [-85.46466266505392, 36.30222192158138], [-85.46466066434624, 36.30229292151906], [-85.46467166484909, 36.30236292098907], [-85.46474866446016, 36.30260492086255], [-85.46476666502842, 36.30267492156479], [-85.46479866474081, 36.30274092153876], [-85.46484166444404, 36.302916921510864], [-85.46484066434829, 36.3030239214177], [-85.46483066478812, 36.30320192180591], [-85.46481966459645, 36.3032719211919], [-85.46479066521067, 36.30333892185786], [-85.46476866519926, 36.303369921902075], [-85.46471166539189, 36.30342592179473], [-85.46467866535976, 36.30344992112686], [-85.46456766459484, 36.303509921182766], [-85.4645076650046, 36.30353792127023], [-85.46448966500661, 36.30354492151835], [-85.4644476649776, 36.303556921763025], [-85.46432866482427, 36.303606921399535], [-85.4640496644929, 36.30369692162271], [-85.46378766484185, 36.303742921631915], [-85.46339266482623, 36.30379092188665], [-85.46304266427181, 36.3038269218141], [-85.46273866454574, 36.30388192184441], [-85.46247766387891, 36.30392292169756], [-85.4620396636776, 36.30398492145223], [-85.46173366432926, 36.30401792214532], [-85.4616466643272, 36.304023921743095], [-85.46160366433583, 36.30403092199869], [-85.46151466448617, 36.30403792196071], [-85.46134066406758, 36.30406192139605], [-85.4612536640981, 36.30406692216189], [-85.46112166387287, 36.30408292175198], [-85.46094866369542, 36.304110921983636], [-85.46077266373632, 36.304130921995906], [-85.460597663755, 36.30415792146755], [-85.46015766371174, 36.3041999218824], [-85.45997966332331, 36.30420592220245], [-85.45957966294145, 36.30420492180094], [-85.45949066313463, 36.304208921922154], [-85.4592696631478, 36.3042089215194], [-85.45909166353862, 36.304193922154674], [-85.45896766331666, 36.30415292159671], [-85.45889166318439, 36.30411692210222], [-85.45885566274636, 36.304095922118975], [-85.45879166307172, 36.30404592177171], [-85.45873366303832, 36.30399292195684], [-85.45869366369013, 36.303932921830395], [-85.4586396634312, 36.303834922222656], [-85.45859866304421, 36.30369692164642], [-85.45859466330958, 36.30362692143501], [-85.45858766309696, 36.30359192191924], [-85.45858566305371, 36.30348592158071], [-85.45857166362207, 36.303380921932046], [-85.45856466311874, 36.30323992200776], [-85.45857666278529, 36.303099921896184], [-85.45861166298805, 36.30296092148025], [-85.4586576633353, 36.30282292198655], [-85.45869166325974, 36.30275792151824], [-85.45870966288794, 36.30268992135046], [-85.45873566322979, 36.30262292129912], [-85.45876766333168, 36.302557921766926], [-85.45886066336779, 36.30243992151831], [-85.45903466338957, 36.30227992184931], [-85.45914166348133, 36.30221592105041], [-85.45925566295449, 36.302161921642245], [-85.45938366322316, 36.302130921644924], [-85.45956266299919, 36.30212692108298], [-85.45974566371706, 36.3021589210898], [-85.45995666289132, 36.302216921667224], [-85.46030466302594, 36.30237092115459], [-85.4606386631633, 36.30254492190336], [-85.46111166409472, 36.302809921804965], [-85.461374664049, 36.302943921569884], [-85.46141466369325, 36.30295792173858], [-85.46145766345661, 36.302966921779316], [-85.46161566384963, 36.30303092159147], [-85.46169766346769, 36.30305492114013], [-85.4617346641304, 36.30307492167967], [-85.46185666396437, 36.30310992191621], [-85.46202966377479, 36.30313292122783], [-85.46206866367692, 36.30314792158854], [-85.46215566384312, 36.3031619215255], [-85.46219366383734, 36.30317792135473], [-85.4622796643212, 36.303190921810604], [-85.46241266446827, 36.30319992159339], [-85.46249966395449, 36.303210921123664], [-85.46258666438926, 36.30321292193184], [-85.462765664698, 36.303203921169235], [-85.46285066452025, 36.30318192156907], [-85.46295666481107, 36.30312092124496], [-85.4629906639606, 36.30309692140883], [-85.46308166476138, 36.3030189213656], [-85.46315466481491, 36.30293092162045], [-85.46321066482123, 36.30283592139612], [-85.46323866440993, 36.3027689211611], [-85.46327066457933, 36.30266492113597], [-85.46329466484126, 36.30249092130508], [-85.46331666416081, 36.302246921253506], [-85.46331166387448, 36.30221192096886], [-85.46331466431, 36.302142921682815], [-85.46330466462327, 36.30200492147655], [-85.46328766395727, 36.30183192110461], [-85.46329466483047, 36.30179792126822], [-85.46327366391324, 36.301588921071954], [-85.46325466396418, 36.30148392136098], [-85.46324266381357, 36.30144992098411], [-85.46323366443691, 36.301343921148934], [-85.4632326647218, 36.30127292140637], [-85.4631636644366, 36.30085292108841], [-85.46312866451923, 36.30067892056525], [-85.46312566402699, 36.30064392102398], [-85.4630946646565, 36.30050392050494], [-85.46305366433222, 36.300223920755975], [-85.46296066377352, 36.29998692057964], [-85.46285866360967, 36.29979192039976], [-85.46282066427639, 36.29972892037848], [-85.46279366367254, 36.29970092119695], [-85.46275166414179, 36.29963792050102], [-85.46262166444386, 36.299492920586204], [-85.46244666390177, 36.29933292062888], [-85.46238166358489, 36.299284921062586], [-85.46211266402746, 36.29910192073389], [-85.46208266419451, 36.2990769208191], [-85.4619586634439, 36.299008920897144], [-85.46189766338138, 36.29897592073655], [-85.46165966422205, 36.29887592086638], [-85.46153466419526, 36.298837920352476], [-85.46149066341823, 36.29882992071881], [-85.46141166309728, 36.2987969203425], [-85.46108166352874, 36.2986899206362], [-85.46099766298823, 36.29866992032045], [-85.46083466308347, 36.29861292048205], [-85.4606656639117, 36.29857092059512], [-85.46058466325155, 36.29853992046944], [-85.4604156631212, 36.29849892058031], [-85.46026866315101, 36.298446921050136], [-85.4600116629193, 36.29835492062253], [-85.45960566361117, 36.298225921082235], [-85.45936666259774, 36.29814492070145], [-85.45925266331881, 36.298107920491496], [-85.45929566277685, 36.29806092043009], [-85.45958366356622, 36.29773392075936], [-85.45999966288637, 36.29725592047251], [-85.46054166289498, 36.29678392075566], [-85.46110266391089, 36.29633091987781], [-85.4616636636265, 36.29590092000379], [-85.46220566356936, 36.295631919807754], [-85.46257666412217, 36.29541391964923], [-85.46296166358373, 36.295171919749784], [-85.46319966394547, 36.29488191948885], [-85.46322266398626, 36.29485291939878], [-85.46328566415487, 36.29474591961606], [-85.46337466421481, 36.294587919780206], [-85.46347966342358, 36.29420791930127], [-85.4634886644377, 36.29389291952938], [-85.46348366369355, 36.29368691972655], [-85.46347966362386, 36.29348291965413], [-85.46049666268813, 36.291655919628006], [-85.46007166286086, 36.29142691890656], [-85.4599026627741, 36.291335919267745], [-85.45891266270671, 36.29067191958753], [-85.458858661933, 36.290642918984524], [-85.4584326627065, 36.29041991906133], [-85.45835266197668, 36.2903679188229], [-85.45811566166371, 36.290211919522086], [-85.45803666214194, 36.29015991905115], [-85.45774966251025, 36.28997091920713], [-85.45688966186809, 36.289407918692625], [-85.4566056616814, 36.289221918894846], [-85.45605366171009, 36.288863918539626], [-85.45677966209131, 36.28797791881849], [-85.45706266217545, 36.287635918957776], [-85.45340965991932, 36.2849639184744], [-85.45345066065299, 36.28453191839796], [-85.45362066069406, 36.28273891757441], [-85.45367865979429, 36.28238391798207], [-85.453852660235, 36.28132091775301], [-85.45391165994857, 36.280966917378564], [-85.45396065985497, 36.280949917235986], [-85.45408466041285, 36.28091591716372], [-85.45416266057038, 36.28089491759847], [-85.45434266069907, 36.280855917789495], [-85.45452466035661, 36.28082491699517], [-85.45471066011106, 36.28080591755844], [-85.4549346608378, 36.28079791741695], [-85.45523466077462, 36.28080991691688], [-85.45536466046812, 36.28081991693128], [-85.45645466074085, 36.28090491696336], [-85.45675366106248, 36.280926917195906], [-85.45699466143542, 36.28094891750433], [-85.45717166112377, 36.280957917258036], [-85.45734966178452, 36.28097191763524], [-85.45797166131213, 36.28101291762893], [-85.45840666166042, 36.28104291718969], [-85.45923366191099, 36.281088916990754], [-85.45950966149886, 36.281102917276236], [-85.45959566224631, 36.281106917508424], [-85.45976966178578, 36.28111491680567], [-85.46027066171177, 36.2811409174828], [-85.46037966223909, 36.28114691693015], [-85.46077966180017, 36.28116691752396], [-85.4612406628675, 36.28118591707385], [-85.46150666227341, 36.28119691671361], [-85.46184666283378, 36.28120791720786], [-85.46207266246105, 36.28120491723564], [-85.4622466622205, 36.28121491728877], [-85.46230266295109, 36.28121891730878], [-85.4626266624826, 36.281233917061094], [-85.46320766333045, 36.28127491689705], [-85.46380466265056, 36.281323917481636], [-85.46488966327989, 36.281401916713236], [-85.46581666399477, 36.28148491730671], [-85.46601566417723, 36.279389916531834], [-85.46411466348273, 36.279173916236616], [-85.46345866249533, 36.27909391621534], [-85.46363566300413, 36.27789791648499], [-85.46371466321189, 36.27733591602003], [-85.46343566252499, 36.27712391634501], [-85.46348466237056, 36.276962916354535], [-85.46248266270868, 36.276834916400304], [-85.46210566290765, 36.27678791661652], [-85.4618216624215, 36.27675891629372], [-85.46156566198601, 36.276736916388934], [-85.46129766177258, 36.27670791581289], [-85.46126766245884, 36.27670491620677], [-85.4609176625086, 36.27666091607085], [-85.46065566241896, 36.27662891631612], [-85.46018666132713, 36.27658091597219], [-85.4594756611163, 36.276504916716235], [-85.45916566114197, 36.27647491607437], [-85.45903366184406, 36.27646891620268], [-85.45893966119736, 36.27647991668296], [-85.45832966142464, 36.27634991610074], [-85.45798366116738, 36.276314916003464], [-85.45798966131485, 36.27711491683356], [-85.45365466018944, 36.2768469164228], [-85.4536596599508, 36.27681091702226], [-85.4537406602601, 36.27627291685109], [-85.45376565984101, 36.27607191672402], [-85.45381066020404, 36.275689916373544], [-85.45384165945414, 36.275458916251814], [-85.45389066040296, 36.27510291623817], [-85.45400166033512, 36.27421491563987], [-85.45408766005487, 36.27344291586104], [-85.45419965991866, 36.27254691537624], [-85.45423266001742, 36.27191191555476], [-85.45423466021387, 36.27174591582331], [-85.4561326602693, 36.27180391567508], [-85.45629766002068, 36.27181591528239], [-85.4564316602296, 36.270796915435994], [-85.45654666029068, 36.269919915461244], [-85.45659466063182, 36.269551914888666], [-85.45682766059356, 36.26778991434021], [-85.45625865966407, 36.26776191488898], [-85.45505965982619, 36.26770291481015], [-85.4545936600051, 36.267679915001466], [-85.4536096588716, 36.267630914435436], [-85.45265165863933, 36.267586914579525], [-85.45266665902453, 36.26734591470286], [-85.45267465954728, 36.26715191462221], [-85.45268365908741, 36.26690091453925], [-85.45277765916522, 36.264447913712885], [-85.45289265827722, 36.261466913247375], [-85.44984665814721, 36.2612639135475], [-85.44918365769453, 36.259418913181285], [-85.44858865713043, 36.25938491336505], [-85.44306065606003, 36.259044913387285], [-85.4429086560461, 36.25968591368812], [-85.44044665450005, 36.25954091388762], [-85.44009965532327, 36.26098391428824], [-85.43565665340124, 36.26223991459446], [-85.43563665416536, 36.26221591424748], [-85.43563065396795, 36.26220791483906], [-85.43561365382698, 36.262173914017275], [-85.43558465333903, 36.262138914457495], [-85.43556565413913, 36.26211591462867], [-85.4354526538281, 36.26198091412518], [-85.43543565380575, 36.26194691417727], [-85.43535965410109, 36.26184991469924], [-85.43533465360697, 36.26180191458253], [-85.43526765400603, 36.26171891445934], [-85.43525065411923, 36.26168491448273], [-85.43508165378398, 36.26147191440319], [-85.43505665403096, 36.26142291385916], [-85.43501465307617, 36.26136791453855], [-85.43496265347997, 36.261312914414184], [-85.43494565381111, 36.26127891439059], [-85.43484565323551, 36.2611199138922], [-85.43476965297802, 36.261029913872164], [-85.43476065314628, 36.261008914546395], [-85.43467665341322, 36.26090591463792], [-85.43464965324276, 36.26085691455475], [-85.43462865366017, 36.26080491440183], [-85.43460965291776, 36.26075491441627], [-85.43460565329738, 36.26073091393913], [-85.43457565329994, 36.26064491417002], [-85.43452965365289, 36.260392913821136], [-85.43447465326665, 36.260224913846514], [-85.4343656533854, 36.25994991382668], [-85.4343306534938, 36.25981691387752], [-85.43424865279258, 36.25964691371327], [-85.43417265280915, 36.2594669135767], [-85.43415965302017, 36.25939491369244], [-85.43413865291676, 36.25932391365995], [-85.43397865312973, 36.2591299141107], [-85.43395365321715, 36.259081913664275], [-85.43392865357859, 36.25905491371547], [-85.43391165299167, 36.2590129141818], [-85.43388565299281, 36.258985914043315], [-85.43387665355502, 36.25895791387011], [-85.43385865349678, 36.258937914120565], [-85.43382665302168, 36.25887591355583], [-85.43379365309436, 36.25879291410281], [-85.43377165341587, 36.258706913711215], [-85.43374365263844, 36.25849691353489], [-85.4337396525122, 36.25836291404627], [-85.43372665310767, 36.258338913705295], [-85.43370265303352, 36.25816691376506], [-85.43370265265928, 36.258124913647976], [-85.43372665280708, 36.257858913924615], [-85.43372065295337, 36.25769191363417], [-85.43369165318741, 36.257529913732114], [-85.43367965313756, 36.257498913686355], [-85.43365865314615, 36.25740591354736], [-85.43363765237343, 36.25734791365316], [-85.43362565326484, 36.257288913220144], [-85.43358765317033, 36.25718991318589], [-85.43345265257375, 36.25693491379955], [-85.43340265322122, 36.256872913406916], [-85.43337665288107, 36.256824913520425], [-85.43333465330298, 36.256769913530384], [-85.43323265325364, 36.25665991378979], [-85.43314865279706, 36.25655591318521], [-85.433080652334, 36.256424913659515], [-85.43304465295793, 36.25633991354436], [-85.43303965304112, 36.25632891307283], [-85.43300965258202, 36.25619491313851], [-85.43298865307854, 36.256142913519476], [-85.43296765314444, 36.25604991321784], [-85.43293465284852, 36.25583691334325], [-85.43294865308727, 36.25557191298771], [-85.43296565263097, 36.25547591323934], [-85.43300065227895, 36.25538591274092], [-85.43302565279676, 36.25533791323088], [-85.43313565278376, 36.25521091298574], [-85.43325665297691, 36.25510491338916], [-85.43336665270381, 36.25503591266927], [-85.43343465239562, 36.25501591322913], [-85.43348565214454, 36.25498791311452], [-85.43364265253767, 36.25499891322773], [-85.4338426529537, 36.25502291302436], [-85.43399465237961, 36.25502291313335], [-85.43414265336463, 36.25500691276521], [-85.43431065312835, 36.2549819133046], [-85.43440165337783, 36.2549629132175], [-85.43443465344367, 36.25494891291636], [-85.43450465334745, 36.254921913349506], [-85.43452965283149, 36.254907913431744], [-85.43456365333604, 36.254900913146344], [-85.43468265346642, 36.25484691291145], [-85.43486065275111, 36.254777912615545], [-85.43489565272071, 36.25475791302257], [-85.4349386527104, 36.254743913387145], [-85.43497265275725, 36.2547229132335], [-85.43501465303713, 36.25470991286974], [-85.43506565313729, 36.25468191299212], [-85.43514965284436, 36.25462791267867], [-85.43519265282151, 36.2545889127528], [-85.43538865322682, 36.25436691329875], [-85.43544865337454, 36.25431491312105], [-85.43560565321687, 36.25420191275134], [-85.43601865281391, 36.2539749126145], [-85.43624865383468, 36.253857912676295], [-85.4363756530774, 36.25376991302484], [-85.43641865359169, 36.25373491233261], [-85.43648765376138, 36.25364591293328], [-85.43651365354914, 36.25358391308881], [-85.43653065391238, 36.253487912808524], [-85.43653465390155, 36.25343691265515], [-85.43651565325462, 36.25324391239194], [-85.43648965396622, 36.25295791276152], [-85.43649065318588, 36.252813912062], [-85.43650265330422, 36.25274791213138], [-85.43654165287823, 36.25264891237356], [-85.43657665355272, 36.25260091277368], [-85.43665165363178, 36.252531912564464], [-85.43676365299856, 36.25246291264575], [-85.43681065294912, 36.252424912216874], [-85.43634265381438, 36.25205591263618], [-85.43587965290487, 36.251668912549356], [-85.43572765311507, 36.25079391234598], [-85.43566565330104, 36.25007191192992], [-85.43585465322339, 36.247154911073444], [-85.43473765304755, 36.246645911766876], [-85.4326816522301, 36.245707911041926], [-85.43232065145114, 36.24602891172331], [-85.42697865070194, 36.24561491174985], [-85.42492065005092, 36.24545591144371], [-85.42266064916305, 36.24528491135202], [-85.42318264832694, 36.241665911155444], [-85.41947664763683, 36.241501911040515], [-85.41947264764654, 36.241206910567314], [-85.41954364751642, 36.241215910801586], [-85.41962764726519, 36.24122691110499], [-85.41978064772954, 36.24124691085444], [-85.42009364774265, 36.24128191085821], [-85.42024964801095, 36.24129291113828], [-85.42065564787546, 36.24132291065564], [-85.42102264856108, 36.241342911048065], [-85.4213986477625, 36.241369910971514], [-85.42181464809265, 36.241415910886076], [-85.42226964829278, 36.24146691117917], [-85.42251264901182, 36.24145791061968], [-85.42267264832515, 36.24142691121245], [-85.42291664929839, 36.24136591054073], [-85.42340064850093, 36.24121191092447], [-85.42378264860454, 36.24109491078471], [-85.42408964920725, 36.24101191070247], [-85.42419064889081, 36.240988910392126], [-85.42427764909024, 36.24097791084905], [-85.4243896489142, 36.240972910928505], [-85.42520564894751, 36.24107991103584], [-85.42586964960213, 36.24115291061054], [-85.42618964919734, 36.241178910297876], [-85.42644664980615, 36.24117991076964], [-85.42684064970258, 36.241182910777], [-85.42711265012014, 36.241178910634446], [-85.42718564945005, 36.241182910385604], [-85.42785665042753, 36.24120691034071], [-85.42796264972857, 36.241194910327366], [-85.42801565036197, 36.24118191038424], [-85.42806665005754, 36.24116791048612], [-85.42815865074743, 36.24112591035067], [-85.42825965060386, 36.241052910532474], [-85.42826964997599, 36.241046910554566], [-85.42844264986155, 36.24095691059481], [-85.42866165026814, 36.240858910461085], [-85.4289516504581, 36.24076391050667], [-85.42906965033534, 36.240710910401674], [-85.42909265001803, 36.24070191028977], [-85.42933265074684, 36.24058791028338], [-85.42940965024235, 36.240557910402046], [-85.42959865090458, 36.240466910081146], [-85.42977265080236, 36.24040191054476], [-85.42988465077309, 36.2403749099473], [-85.43011065029542, 36.24034790991937], [-85.43031765059084, 36.240347910160565], [-85.4304286505267, 36.24035290996995], [-85.43052465085827, 36.24035891054439], [-85.43082765088803, 36.240394909878475], [-85.43110465132142, 36.24041990989672], [-85.43122165088158, 36.24042791040879], [-85.43154865134723, 36.240433910600444], [-85.43169065111614, 36.240440909853355], [-85.43209665183143, 36.240479910339104], [-85.43289665165089, 36.240568909949815], [-85.433148651884, 36.24059991001905], [-85.43383065158402, 36.24066390997991], [-85.43454065187413, 36.240731909757784], [-85.43490265178723, 36.24077490992704], [-85.43496465168869, 36.24078091014978], [-85.4352116518889, 36.240805910027426], [-85.43524165269616, 36.24080791042761], [-85.43574665230223, 36.240849910070416], [-85.43606265253895, 36.24086691023545], [-85.43607665224069, 36.240867910165775], [-85.43625065264823, 36.24088590971411], [-85.43628465206194, 36.24089790970728], [-85.43630465312346, 36.240910910539746], [-85.43633665242555, 36.240942910436985], [-85.43638765264882, 36.240923909679395], [-85.43653565281367, 36.24088891017387], [-85.436593652609, 36.24088891029809], [-85.43680265286304, 36.24089291023774], [-85.4373436528399, 36.24092790979292], [-85.43738565270905, 36.240931910410566], [-85.43764965324266, 36.2409579100348], [-85.43766465321785, 36.24085490995798], [-85.43768165277872, 36.24078290999949], [-85.43773465313583, 36.24057391030874], [-85.43779365271816, 36.24027490947996], [-85.4377966534616, 36.24026091011744], [-85.43783965331104, 36.240087909671374], [-85.4380296532107, 36.239070909874236], [-85.4380306526592, 36.23906990964434], [-85.43807465242392, 36.23885690960901], [-85.4380896528243, 36.238809909580056], [-85.43811465331996, 36.238695909440956], [-85.43820565302651, 36.238478909235994], [-85.43824565263382, 36.23842290942211], [-85.43830565281493, 36.238325909785644], [-85.43835365307156, 36.238267909435834], [-85.43846765337855, 36.238146909367], [-85.43865665342777, 36.23797890941144], [-85.43908365372432, 36.23761590974703], [-85.43921365349806, 36.2375129097552], [-85.43947265356148, 36.23729990930667], [-85.44006565393323, 36.23685090872117], [-85.44012165303829, 36.2368099087184], [-85.44062465337737, 36.23644090923278], [-85.44084565317638, 36.23626590896659], [-85.4408836535922, 36.23621990904781], [-85.44107465318675, 36.236009908738104], [-85.44137965334458, 36.23559090841892], [-85.44140665349163, 36.23554990889828], [-85.4417916533837, 36.23498790850112], [-85.4418756536099, 36.2348199084655], [-85.44194465418965, 36.23457590888927], [-85.44198265401693, 36.23434690866004], [-85.44204365397835, 36.233747908654514], [-85.44211065386236, 36.23315390835919], [-85.44213565403508, 36.23294290786866], [-85.44216565395936, 36.23257290785478], [-85.44216565360726, 36.23253690788885], [-85.44216565362409, 36.23246290811135], [-85.44215765420266, 36.2323059078939], [-85.44215065353305, 36.2322419083682], [-85.44209665356053, 36.2320239080648], [-85.44185465412848, 36.23143590812489], [-85.44153265307158, 36.23065090816612], [-85.44147865289374, 36.23041390755413], [-85.44146365367583, 36.23025390794709], [-85.44147865326721, 36.23008190735046], [-85.44151765394429, 36.229944907378766], [-85.44160865362242, 36.229753907601726], [-85.44178465332264, 36.22950990756904], [-85.44191365295515, 36.22929690725233], [-85.44196765371906, 36.22913290769181], [-85.44198265353853, 36.22901790766281], [-85.44198265312573, 36.22886290712577], [-85.441982653624, 36.2288309077261], [-85.44194465290309, 36.22855290712542], [-85.4418526535822, 36.2281789075079], [-85.44180765388926, 36.22795790760909], [-85.44164965320685, 36.22711890734338], [-85.44159965312005, 36.22685390728219], [-85.44158565312752, 36.2268089067433], [-85.44154065336265, 36.22653190720836], [-85.44151065315448, 36.22639790733592], [-85.44137865253649, 36.2254329069741], [-85.44128065249903, 36.22462390686327], [-85.44127765303054, 36.22458990631142], [-85.44125765344077, 36.22433690680041], [-85.44122765328264, 36.22409290675508], [-85.4412046532399, 36.22374090645401], [-85.44119965286505, 36.22368590673955], [-85.44119865272101, 36.22361190664876], [-85.44119665292261, 36.22341790623703], [-85.4412046524238, 36.22329590623696], [-85.44121765336595, 36.22322590662997], [-85.44124265336552, 36.2230999062528], [-85.44359065338638, 36.223234906654454], [-85.44918365561422, 36.22355690584108], [-85.45062865538102, 36.223735905779925], [-85.45213265585012, 36.223922905789145], [-85.45286765590701, 36.22432490630012], [-85.45291565634261, 36.22426990565353], [-85.45303565686194, 36.224160906111756], [-85.45315965598691, 36.224065906388354], [-85.45319865648476, 36.224045905991005], [-85.45331965671679, 36.22395490574741], [-85.4533886569279, 36.22388390560981], [-85.45340565602262, 36.22384890627744], [-85.45356165663671, 36.22365890614098], [-85.45367365664274, 36.223550906185594], [-85.45372565655781, 36.22350290610757], [-85.4538806570726, 36.22333290585008], [-85.4539856565661, 36.22316190610215], [-85.4540386566349, 36.22305290546188], [-85.45406465615177, 36.22298490544634], [-85.45410765636151, 36.22280290598018], [-85.45413265610601, 36.222579905227725], [-85.45413365647272, 36.222524905252165], [-85.4541196567349, 36.22240090521757], [-85.4540726559857, 36.22220790576314], [-85.45392665668953, 36.221931905111575], [-85.45377865648459, 36.2216759054517], [-85.45375365678127, 36.22164690583015], [-85.45371365589402, 36.22157190572962], [-85.45361465618225, 36.22144590519757], [-85.45356565611416, 36.22139190559679], [-85.4535496562893, 36.22135590525337], [-85.45349765581686, 36.22128490546505], [-85.4534426564075, 36.221169905228784], [-85.4534316557484, 36.221110905295774], [-85.45343865674488, 36.220991905611626], [-85.45347365598316, 36.22091590553952], [-85.45349965635386, 36.22088890575409], [-85.45352665604861, 36.220833905329364], [-85.45353465679693, 36.2208069052071], [-85.45356065670298, 36.220786905342806], [-85.45357865649693, 36.22074490514134], [-85.4536046567758, 36.220717905331995], [-85.45368065610151, 36.22056690555431], [-85.45370165619775, 36.22052690523822], [-85.45378165642173, 36.22030090509838], [-85.45383865628277, 36.22021990518148], [-85.45396465642177, 36.220069905464925], [-85.45398965681784, 36.22001490490037], [-85.45401665676474, 36.219939904918455], [-85.45402165653242, 36.21990190506487], [-85.45401565666559, 36.219840905385894], [-85.45395565595635, 36.21967790516056], [-85.45394065617411, 36.2195949051453], [-85.45394865645717, 36.21954790464361], [-85.4539286565273, 36.219326904708915]]]]}}]}