{"type": "FeatureCollection", "features": [{"type": "Feature", "properties": {"name": "District 10", "slug": "district-10", "ccd": 10}, "geometry": {"type": "MultiPolygon", "coordinates": [[[[-85.55223868161866, 36.177075892418095], [-85.55222668253019, 36.17724689198977], [-85.55222368172555, 36.1773048923295], [-85.55219668234805, 36.177706892539774], [-85.55217368189041, 36.17788189245746], [-85.55216668235599, 36.177927892268954], [-85.55215468233523, 36.178028892848076], [-85.5521206821474, 36.1783168926179], [-85.55206768162482, 36.178766893053044], [-85.55202868163565, 36.17906789269668], [-85.55193768241179, 36.1797278929131], [-85.55192268200547, 36.179834892697926], [-85.551874682184, 36.18019489314351], [-85.55184568170642, 36.18041889300435], [-85.5518056822564, 36.18068989345889], [-85.55178168259393, 36.180855893216815], [-85.55177268248468, 36.18091589271037], [-85.55175768263186, 36.18101189273423], [-85.55171468158431, 36.18130089337512], [-85.55170068202375, 36.18139789297381], [-85.55169768212923, 36.181415893236235], [-85.55165068187995, 36.18176489294334], [-85.55163068239156, 36.18192089373754], [-85.5515986819839, 36.18208889329615], [-85.55155568166833, 36.182428893501466], [-85.55148868205922, 36.18286689338247], [-85.55143368171407, 36.18323389347118], [-85.55143368229378, 36.183332893502175], [-85.5514106817249, 36.18352089348515], [-85.55134268181028, 36.184099893799036], [-85.55131968196005, 36.18422989408277], [-85.55129768167781, 36.1843808934848], [-85.55125868180785, 36.18466789429799], [-85.55123768263373, 36.18481089433514], [-85.55121268255162, 36.18499589373968], [-85.55118868228688, 36.18524389388326], [-85.55118268258592, 36.18531889392759], [-85.55118268237162, 36.18538889363526], [-85.55115968172511, 36.185621894436906], [-85.5511726822917, 36.185748893948535], [-85.55118468255256, 36.1858508937055], [-85.55124968231671, 36.18602389407878], [-85.55134768187013, 36.18634489420942], [-85.55151068210758, 36.18677989443488], [-85.55154868200718, 36.18687889402978], [-85.55162468207628, 36.187124894367834], [-85.55173868210665, 36.18746789429536], [-85.55179268255128, 36.1876738948766], [-85.55185368278403, 36.188043894719804], [-85.55188468252601, 36.18841889500176], [-85.55191468306366, 36.18876889461724], [-85.55198368291201, 36.18966889514282], [-85.55199068255747, 36.189848895036306], [-85.55205168330372, 36.19072589466534], [-85.5520746827884, 36.19097789473862], [-85.55207468232014, 36.19126389539736], [-85.55203668317263, 36.19153089563162], [-85.55202168268816, 36.191576895322505], [-85.55196768233382, 36.191885895371755], [-85.55187668321378, 36.19231289574011], [-85.5518576833863, 36.19236889517386], [-85.55172368334505, 36.192770895693585], [-85.55138068315372, 36.19360589606212], [-85.55133268264646, 36.193722895520345], [-85.55119068254912, 36.19407589565125], [-85.55114368317356, 36.19419389551732], [-85.55093768301214, 36.194708895500646], [-85.55073168226691, 36.1952998959605], [-85.55068368267378, 36.19545289615487], [-85.5506636826208, 36.19552089618748], [-85.5506176825567, 36.19574189623161], [-85.55060968253684, 36.19599389622645], [-85.55062568310701, 36.19616989633372], [-85.55067868259131, 36.19647089674658], [-85.55081568329001, 36.19699389630638], [-85.55087668346884, 36.19730289690761], [-85.55088468277815, 36.19742089655462], [-85.5508846829555, 36.19753889618537], [-85.55086168344184, 36.19771789644933], [-85.55079268307159, 36.19807289675317], [-85.55072468303864, 36.198553897023814], [-85.55068668270424, 36.19913789638768], [-85.55069168311135, 36.199424896478796], [-85.55069368256518, 36.19951889711143], [-85.55070168263727, 36.19957589706508], [-85.55069368319303, 36.20023589693005], [-85.55067868259889, 36.20055689754326], [-85.55064768276694, 36.20076289697889], [-85.55058968284794, 36.200991897426235], [-85.55051368318904, 36.201188897151695], [-85.55037968252596, 36.201539897643976], [-85.54998268334502, 36.20242289759905], [-85.54979968263298, 36.20283189792889], [-85.5497936830282, 36.20284489758917], [-85.54972568323261, 36.20299889771694], [-85.54970968282447, 36.20303589797439], [-85.54949068319321, 36.203495898124956], [-85.54941268275648, 36.20366189771189], [-85.54969468246095, 36.20379089786921], [-85.54998468356014, 36.203962897425924], [-85.5500076828903, 36.20398589807612], [-85.55014468315645, 36.20408089818621], [-85.55036568300169, 36.20429889770145], [-85.55049568354399, 36.204450898224344], [-85.55052568308733, 36.20449689834748], [-85.5505566835422, 36.20453189804298], [-85.55057168302535, 36.20455789787475], [-85.55065568346062, 36.204698897696964], [-85.5507476830553, 36.20488189797282], [-85.5508156836161, 36.20507289843198], [-85.55088468356573, 36.205400898269524], [-85.55096868359787, 36.20628589848203], [-85.55101468309668, 36.20654189816899], [-85.55112068374547, 36.20689689854459], [-85.55122068368553, 36.207125898505225], [-85.55147168382943, 36.20760189875974], [-85.55167668363741, 36.20796189855823], [-85.55209368429286, 36.208688898540004], [-85.5523646844761, 36.20916289892037], [-85.55240268361206, 36.20923889886357], [-85.55258568439741, 36.20954789898495], [-85.55283768474088, 36.20997889906324], [-85.55305868478969, 36.210348898840344], [-85.55330368393754, 36.210733898833666], [-85.55342068452447, 36.210901898847084], [-85.55396668429677, 36.21168389892475], [-85.55429768451025, 36.21212889972937], [-85.55458468497, 36.212549899537585], [-85.55490568556321, 36.21298889906952], [-85.55532068562306, 36.2135758999371], [-85.55569868490193, 36.21410989924325], [-85.55595768497506, 36.21446489940067], [-85.55606768516914, 36.21461489931478], [-85.55639768594915, 36.21506690005762], [-85.55642368614586, 36.215101899579], [-85.55651468569732, 36.21521289941489], [-85.55661768542214, 36.215336899421665], [-85.55670568615525, 36.215441900274186], [-85.55695068554684, 36.21568890015424], [-85.55706468621425, 36.21580389980342], [-85.55736768572586, 36.216107900258194], [-85.55797268629456, 36.21671589963503], [-85.55820868685551, 36.21697890051874], [-85.55826168673205, 36.21703890045633], [-85.5585446869824, 36.217363900090454], [-85.55887668643396, 36.21774789991097], [-85.55934568723004, 36.21829090005632], [-85.55956668635042, 36.21852390072316], [-85.55962768727937, 36.21857690046144], [-85.5599146865712, 36.218863900741034], [-85.55991768737627, 36.21886690017481], [-85.56029168660864, 36.219206900063405], [-85.56053868766315, 36.21940990035499], [-85.56068068701256, 36.21952690081152], [-85.5611156870467, 36.21985090038284], [-85.56131068767226, 36.219986900553], [-85.5615736871442, 36.220171900510095], [-85.56175868791232, 36.220302900533625], [-85.5617946875249, 36.22032790075319], [-85.5622596881791, 36.22062590064514], [-85.56233468737786, 36.220666901083526], [-85.56253468829647, 36.22077790084909], [-85.56263868783995, 36.220828900797116], [-85.56268068835668, 36.22084990026175], [-85.56287768809526, 36.2209349005521], [-85.56295868788527, 36.22096390073146], [-85.56306868791117, 36.22100290043465], [-85.56305568773605, 36.22106390040349], [-85.56299068809567, 36.22120090089366], [-85.56296868800135, 36.221227900717516], [-85.56293168808553, 36.22127790076637], [-85.56315268797235, 36.22139990114492], [-85.56324668817604, 36.221445900384666], [-85.56347268798564, 36.22155690064447], [-85.5636446884677, 36.22167090118384], [-85.56377068860647, 36.2217849011705], [-85.56386968834217, 36.22190690112915], [-85.56394668856731, 36.22204090083765], [-85.56398968867549, 36.22214690075033], [-85.56399468819993, 36.22216290130458], [-85.56405268823144, 36.22233490052321], [-85.56407468786233, 36.222509900671064], [-85.56407468843567, 36.22251890130915], [-85.56367068807253, 36.22266090116571], [-85.55753168657961, 36.22318390125099], [-85.55757568618802, 36.22511090207502], [-85.55958368764752, 36.22612890190763], [-85.55919868695416, 36.22709090173141], [-85.55838968691425, 36.22786190232053], [-85.55837068663381, 36.22832690204549], [-85.55829568729722, 36.23023790296402], [-85.55820168684089, 36.230461903241384], [-85.55796868659483, 36.23069290304715], [-85.55751768727407, 36.23090490274777], [-85.55688768721895, 36.23112190312243], [-85.55652868646034, 36.23118990315148], [-85.55587068622587, 36.23080190293731], [-85.55456868584214, 36.22977790293987], [-85.55314368567481, 36.2297019029303], [-85.55110368499574, 36.229594903321065], [-85.55110468562015, 36.229901903348306], [-85.55110468552986, 36.22996990324298], [-85.55110568506058, 36.230097902886115], [-85.55110568538782, 36.2301729026612], [-85.55110768517649, 36.23098090302343], [-85.55217668603734, 36.23106890359801], [-85.55500868590396, 36.23130390343384], [-85.55515268692058, 36.231315902909444], [-85.55537768667469, 36.23133390337764], [-85.55594968675881, 36.231382903063626], [-85.55593568663501, 36.23148590311343], [-85.55590768665242, 36.231710902998], [-85.55589068632786, 36.23184090286198], [-85.55561168649525, 36.23402190396982], [-85.55516768620788, 36.2339949037405], [-85.55060968561956, 36.23372190424139], [-85.55059668555279, 36.23440690364318], [-85.54752568416049, 36.234341904105996], [-85.54475268305698, 36.23428490378267], [-85.54472368381848, 36.23447790438187], [-85.5446996838436, 36.23465190418739], [-85.54464068397024, 36.23505990422645], [-85.54461368400169, 36.235254904018454], [-85.54458768410788, 36.23543090417178], [-85.54450968318466, 36.23596190474555], [-85.544485683571, 36.23612890456579], [-85.54448668388821, 36.236139904275376], [-85.54448868399824, 36.236176904707165], [-85.54449168388443, 36.236227904147434], [-85.54451168316707, 36.23628590446916], [-85.54451668317937, 36.23630090450837], [-85.54452368342326, 36.23632190438335], [-85.53986468216482, 36.23602090464493], [-85.53947268216157, 36.23801790476639], [-85.53944668276814, 36.23815090503222], [-85.53866068271745, 36.24085690539539], [-85.5381336815573, 36.24080490591536], [-85.52620167874593, 36.23963290566273], [-85.5259376784486, 36.242391906631795], [-85.52586767843528, 36.2423639064493], [-85.5256846780551, 36.24227190688197], [-85.52566967869511, 36.24226390634013], [-85.52555567880069, 36.242182906619824], [-85.5253256785161, 36.24194690695573], [-85.52524367894364, 36.241835906276066], [-85.52523867879005, 36.24181590631701], [-85.525191678539, 36.24174490641674], [-85.52515467781286, 36.241681906380116], [-85.52510567821797, 36.241595906591854], [-85.52496767799764, 36.24154590625645], [-85.52488367828721, 36.241190906010495], [-85.52455567758383, 36.239382906276994], [-85.52453267767234, 36.23930590637762], [-85.52449467841751, 36.23923790572436], [-85.52443367845002, 36.23917690631706], [-85.52435767832156, 36.23912690594507], [-85.5241126782015, 36.23908090560842], [-85.52367067769742, 36.23908890602129], [-85.52336567769746, 36.23907690631448], [-85.52241167721071, 36.23897090646964], [-85.52218267758523, 36.238912906067775], [-85.52203067702784, 36.238851905972936], [-85.52189267710928, 36.23877990567094], [-85.52151167704429, 36.23850890609527], [-85.5207486772669, 36.23788290615847], [-85.52051167708079, 36.237722906200084], [-85.52029867633594, 36.23761990582901], [-85.5201076771352, 36.23755890613023], [-85.51983267628353, 36.237505905982694], [-85.519611676342, 36.237482905711474], [-85.51938267695901, 36.23747490578151], [-85.51888667603097, 36.23748290633343], [-85.51836867624306, 36.237478905546425], [-85.51781267579861, 36.237460906122834], [-85.51749867574739, 36.23745190632189], [-85.51681167610033, 36.23744090611216], [-85.51678867563481, 36.2374449057154], [-85.51655267552255, 36.23745190589137], [-85.5159116748928, 36.23752890622428], [-85.51559067559816, 36.23758590588803], [-85.51535467476806, 36.23765790608278], [-85.51522467504464, 36.23772290596097], [-85.51511067550238, 36.23780690573457], [-85.5149576747069, 36.237955906184176], [-85.51485867534366, 36.238081906635635], [-85.51481267544472, 36.23814690630235], [-85.51481167475748, 36.23814790625734], [-85.51479767567453, 36.238180906369195], [-85.51476667540652, 36.23824990645082], [-85.51456867478063, 36.238561906532524], [-85.51443167517236, 36.238840906776645], [-85.51440867547107, 36.23890590679489], [-85.51429367528266, 36.23908490614291], [-85.51399467526622, 36.2388709063083], [-85.51364567500806, 36.23862290638504], [-85.51335567488339, 36.238397906457394], [-85.51316467493166, 36.23819590593519], [-85.51314867501115, 36.23817290596984], [-85.51305767445032, 36.238043906168365], [-85.51296667438096, 36.23788390656776], [-85.51295867448343, 36.237860906381826], [-85.51288867446384, 36.237686905994906], [-85.5128296743033, 36.23753890634328], [-85.51280767450731, 36.23747090607181], [-85.5127376741397, 36.2373139064442], [-85.51267967465951, 36.23716590623104], [-85.51267567452223, 36.237153906391185], [-85.51261267398593, 36.23699190602713], [-85.51236367466173, 36.23634590620123], [-85.5123566744881, 36.236327905538616], [-85.51234267466104, 36.23629290638615], [-85.51227167458943, 36.23611590581299], [-85.51218867400884, 36.23597590555779], [-85.5121006746195, 36.2358749057788], [-85.51199867420405, 36.23578490571341], [-85.51194567421578, 36.235730905955904], [-85.511755673844, 36.23561190620205], [-85.51123267372421, 36.23537890593416], [-85.51098267409894, 36.23528190553692], [-85.51093567339574, 36.23526290560835], [-85.51053667329244, 36.235097905773195], [-85.51048967391765, 36.23507890567463], [-85.5103966740517, 36.23503390597861], [-85.51031067366388, 36.23498190585686], [-85.51023267407922, 36.23492090593965], [-85.51016267334408, 36.23485590538108], [-85.5101166734667, 36.23478590563103], [-85.51007867325578, 36.23471590586046], [-85.5100526733229, 36.23469590566444], [-85.51003667310889, 36.23459490612033], [-85.51001367297016, 36.23451090610268], [-85.51000667322077, 36.234361905454485], [-85.51003667362782, 36.2341869055544], [-85.51008267385087, 36.234060905762576], [-85.5101076732802, 36.234010905713674], [-85.5103036734131, 36.23362990587183], [-85.51033467361844, 36.23354990546264], [-85.51034967301531, 36.23353090514768], [-85.5104336732314, 36.23327890528593], [-85.5104796733562, 36.23310390517835], [-85.51061667373367, 36.23231790480775], [-85.51061967379556, 36.2322889053056], [-85.51065467359587, 36.23202790522636], [-85.51070867306969, 36.23169190468351], [-85.51076067363908, 36.231334905319954], [-85.51076167339102, 36.23132990480971], [-85.51079967346327, 36.231134905220344], [-85.51085367362097, 36.23083790459367], [-85.51086867320694, 36.23070390476421], [-85.51091467377971, 36.23045990488475], [-85.51094167302648, 36.230269904879044], [-85.51095967337096, 36.23015090471354], [-85.5109986738777, 36.22991490463249], [-85.51100267383515, 36.22988390480148], [-85.51101567311491, 36.229791904315675], [-85.51102067359204, 36.22976190439853], [-85.5110956739348, 36.229200904855446], [-85.51121167316322, 36.228350904121044], [-85.51127267321968, 36.22796890428936], [-85.51128767398127, 36.22785490453931], [-85.51134167399611, 36.227519904607874], [-85.51143267354358, 36.22696190366098], [-85.511455673101, 36.226850903982964], [-85.51147967354085, 36.22667890365241], [-85.51149367351641, 36.22658390416221], [-85.51152467392916, 36.22643190442147], [-85.51153967377238, 36.226297904347994], [-85.51154767369493, 36.226137904126425], [-85.5115476738269, 36.22606890365287], [-85.51152667365413, 36.22597890415786], [-85.511509673353, 36.22591690422998], [-85.51146767318608, 36.22584090431759], [-85.51146367363253, 36.22583290408588], [-85.51144067363391, 36.225794904144706], [-85.51136167321488, 36.2257119042304], [-85.51128067311171, 36.225626903536615], [-85.5110056737294, 36.225393904146166], [-85.51070867342027, 36.225180903557], [-85.51065067342464, 36.22514390353925], [-85.50993767303672, 36.2246959036402], [-85.50882367286609, 36.22402490396474], [-85.50862167289276, 36.223899903587366], [-85.50794667192996, 36.22348290373492], [-85.50780867171966, 36.22339490341843], [-85.50775367159208, 36.22334990310436], [-85.5076796724738, 36.2232879036913], [-85.5075646721113, 36.223169903612366], [-85.50746567188355, 36.22304390348991], [-85.50735167170936, 36.22283090331487], [-85.50734167150351, 36.222792903299315], [-85.50732067232728, 36.22270490371738], [-85.50729767229168, 36.22256390319257], [-85.50729767174047, 36.22247090357197], [-85.50729867152208, 36.22246090301053], [-85.50733667237, 36.22225590296491], [-85.5073776715496, 36.22216390330688], [-85.50742167218496, 36.222070902882145], [-85.50753467192767, 36.2218239035855], [-85.5077786716443, 36.22133090356027], [-85.50783967151997, 36.22123890321941], [-85.50795667182945, 36.22098490274147], [-85.50820367256179, 36.22049390301918], [-85.50899167252842, 36.21893590288653], [-85.50911667261015, 36.2186819021256], [-85.50922767245089, 36.21845090252269], [-85.50949567173436, 36.217939901988636], [-85.50969367237332, 36.21759690228039], [-85.50983067233744, 36.217390902535136], [-85.51002167238575, 36.217153901893944], [-85.51101167292953, 36.21606190209098], [-85.51125767282626, 36.21579090205059], [-85.51142567259737, 36.21562090149668], [-85.5117156725775, 36.21529990199107], [-85.5118986731265, 36.21510990162512], [-85.51200367254211, 36.21498490134999], [-85.5121986731923, 36.21477390145976], [-85.512203672641, 36.21476590152271], [-85.51224867324477, 36.214725901510306], [-85.51233367300765, 36.21455690186456], [-85.51237867339684, 36.21435990136976], [-85.51238267256852, 36.21422390154064], [-85.51238067281318, 36.214191901263796], [-85.5123666727804, 36.21395390125551], [-85.51231167336799, 36.21364990101432], [-85.5121786728299, 36.21299390115692], [-85.51215067305446, 36.212832901407005], [-85.51206267293115, 36.21231990074886], [-85.51199367269022, 36.2119189008444], [-85.51194467288104, 36.21169890115883], [-85.51172867305299, 36.2112329006259], [-85.51166067267243, 36.21108590103442], [-85.51169267239146, 36.21096690086225], [-85.51151667270095, 36.21054390114032], [-85.5114556728828, 36.21039690087754], [-85.51144867186377, 36.21037890091652], [-85.5112046725938, 36.20975790053896], [-85.51105167270592, 36.20937190068087], [-85.51100667198632, 36.20927090025983], [-85.5109906719343, 36.209234900292856], [-85.51095267223228, 36.20911690014995], [-85.51092967235583, 36.20905590024167], [-85.51089167210603, 36.208830900232314], [-85.51066967158404, 36.208772900060616], [-85.51042567221171, 36.2087349007625], [-85.51010267170065, 36.20868490042724], [-85.50978467198716, 36.20863590007604], [-85.50938967204704, 36.20855190092066], [-85.50922767153024, 36.208517900348006], [-85.50894567186579, 36.208433900176935], [-85.50877067122714, 36.20836890020515], [-85.50863867190743, 36.208311900428626], [-85.50850367128993, 36.208254900908415], [-85.50815267073978, 36.208074900784894], [-85.50783467141535, 36.207930900831116], [-85.50783167169948, 36.20792990084507], [-85.50754967122916, 36.20782690011441], [-85.50711667147857, 36.207710900356425], [-85.50706767060925, 36.20769890039566], [-85.5070806705337, 36.207654900775246], [-85.50712367124405, 36.207558900300036], [-85.50727067072008, 36.20731290066603], [-85.50731367072208, 36.20725490006314], [-85.50732267067765, 36.20723090066833], [-85.50734867104855, 36.20720290062158], [-85.5074346711728, 36.207046900436126], [-85.50748667117412, 36.20693690058764], [-85.50751367144584, 36.206791899979706], [-85.50750167122219, 36.20672690035238], [-85.5074736714965, 36.2066488999459], [-85.50736667048707, 36.20642089994089], [-85.50734267049802, 36.206295899829925], [-85.50734267128546, 36.20627590037573], [-85.50730167091926, 36.20615189976655], [-85.507269671148, 36.206089899848884], [-85.50724467113497, 36.20606290027467], [-85.50721967104343, 36.20601390047873], [-85.5071276710231, 36.205902900275554], [-85.50710267066496, 36.205840900036435], [-85.50709967032078, 36.20580190006288], [-85.50708167073755, 36.20556590036472], [-85.50705267124707, 36.20541789988571], [-85.50701567061687, 36.205310900281795], [-85.50695867025703, 36.205186899988924], [-85.50689267027947, 36.20506989981349], [-85.50679267013653, 36.20493790015241], [-85.50670167039117, 36.2048339000125], [-85.50653467101806, 36.20466389950838], [-85.50625067067003, 36.20439089959989], [-85.5061826701533, 36.20431490005568], [-85.50612567006057, 36.204231899548745], [-85.5060926700505, 36.20414989932242], [-85.5060606709284, 36.20394289994805], [-85.50600467033279, 36.20377089945512], [-85.50598367026802, 36.20374389973851], [-85.50575366997258, 36.203506899709225], [-85.50570367021629, 36.20344489954813], [-85.50565366994365, 36.2033688994596], [-85.50555567008276, 36.2031278997765], [-85.50554367020175, 36.203068899453285], [-85.50552367060955, 36.20300989971591], [-85.50540267028775, 36.202542899263406], [-85.50537667040588, 36.202457899292625], [-85.50514066952961, 36.201824899676176], [-85.50504266988594, 36.20154289920596], [-85.50494966946911, 36.20121489894472], [-85.5047996700816, 36.20074389888251], [-85.5047496696129, 36.2006198990303], [-85.50470966954148, 36.2004888987577], [-85.50467667024299, 36.20039889861246], [-85.5046436696225, 36.20033689918318], [-85.50460267001506, 36.20028889928731], [-85.50458566988982, 36.20025389914532], [-85.50454366959916, 36.20020589872727], [-85.50452967010241, 36.20016689945371], [-85.5044866700354, 36.200039899114536], [-85.50446166990449, 36.20000589894771], [-85.50415766935308, 36.199941899197874], [-85.5041156693151, 36.19992789894159], [-85.50398966979456, 36.19985789915185], [-85.50385666977236, 36.19974289930814], [-85.50381366929882, 36.199683899344265], [-85.50385266985911, 36.199272898704166], [-85.50377866977156, 36.199133898608345], [-85.50371266888874, 36.19904489900029], [-85.50363766905208, 36.19896089851179], [-85.50359566973691, 36.19887189835967], [-85.50353666969976, 36.19880089913268], [-85.50350566943895, 36.19871889906704], [-85.50350166920171, 36.19869589909625], [-85.50350666916367, 36.198605898905555], [-85.50351666978663, 36.198416898697374], [-85.50351866936367, 36.19824789843271], [-85.50352066934146, 36.198176898539614], [-85.50350866881347, 36.198083898488306], [-85.50348066897249, 36.198004898360054], [-85.5034556690426, 36.197949898974485], [-85.50338866949794, 36.19783289879984], [-85.5033636692503, 36.197803898482036], [-85.50333966973787, 36.19775589864079], [-85.50330666945702, 36.19771389830258], [-85.50298066926197, 36.197378898201485], [-85.50297066892632, 36.19736589894672], [-85.50293966944912, 36.19732689886923], [-85.50285566925025, 36.19724389812557], [-85.50284966935257, 36.197078898844225], [-85.50285466924397, 36.197055898044724], [-85.5029386690342, 36.197025898072326], [-85.50319166874344, 36.19693589831566], [-85.50327666941149, 36.196906898101425], [-85.5047116700023, 36.19633689779528], [-85.50894267059857, 36.19465689796246], [-85.5090166701852, 36.19462789763243], [-85.51045267134401, 36.194058897511226], [-85.51052567075457, 36.19414189709532], [-85.51054067151209, 36.194153897597054], [-85.51063967092651, 36.194231897856085], [-85.51076967070273, 36.194300897643146], [-85.51088267149643, 36.19434189795311], [-85.51100567073412, 36.194387897298306], [-85.51116867143072, 36.19444989784864], [-85.51141767098427, 36.19454489739679], [-85.51149367187448, 36.19453289751822], [-85.51167767141423, 36.19453289739775], [-85.51185267141, 36.1945178972489], [-85.51183267177544, 36.19437989712682], [-85.51177267098224, 36.19396789746315], [-85.51175367171409, 36.19383089722649], [-85.51166167137869, 36.193235897338866], [-85.51157767168485, 36.19262689725753], [-85.51157067097185, 36.19257189749426], [-85.51131867104353, 36.190794896407475], [-85.51127467145018, 36.190430897185195], [-85.51123467120752, 36.19009689674165], [-85.51121167102382, 36.18959289638915], [-85.51121967125536, 36.189203896079945], [-85.51122967064899, 36.18900289652821], [-85.51125067117701, 36.188633896063564], [-85.5112876706721, 36.187788895934446], [-85.5113006702997, 36.18756589640457], [-85.51132767102449, 36.18713289642651], [-85.51133767089807, 36.18689689594677], [-85.5113486706785, 36.186674895857195], [-85.51164167139689, 36.18670789633541], [-85.51251967101147, 36.18680889562243], [-85.51281367159734, 36.18684289586949], [-85.51282167082447, 36.18677789600798], [-85.51282467148746, 36.18664989596897], [-85.51283967083234, 36.18607189605084], [-85.51284567150152, 36.18587989614642], [-85.51285167121968, 36.18565889591059], [-85.51285667070071, 36.18544489611515], [-85.51285967160354, 36.185346895832424], [-85.51286767150982, 36.185247895506855], [-85.51287467095068, 36.18512189519283], [-85.51286767156165, 36.18478689600676], [-85.51280367081786, 36.18414689565165], [-85.51276067048501, 36.18371489494073], [-85.51274567116585, 36.18346289524073], [-85.51274267143101, 36.18343289503128], [-85.51269967141697, 36.182974895027684], [-85.51269167090857, 36.182794895338745], [-85.51267067131892, 36.182589894833185], [-85.51264367127212, 36.18230989530383], [-85.51263867088416, 36.18226789500503], [-85.51262667135236, 36.182141895407575], [-85.51262367035689, 36.18210089545166], [-85.51260767081888, 36.1819218953476], [-85.51258467118066, 36.18163989491072], [-85.51256167088044, 36.18138589531241], [-85.51254667045428, 36.18120789507722], [-85.51253967026425, 36.18112789458267], [-85.5125256704546, 36.18094989476737], [-85.51248567053835, 36.18044189442546], [-85.51246967092843, 36.18017689442266], [-85.51245567055973, 36.179918894355815], [-85.51274367080605, 36.17995589439432], [-85.51360767090574, 36.180066894882295], [-85.51364667126093, 36.18007189442071], [-85.51389667163566, 36.180101894523446], [-85.51401967142843, 36.18011689443845], [-85.51445367088998, 36.1801718946749], [-85.51575867217215, 36.18033889431291], [-85.51612367200431, 36.1803998943316], [-85.51632367202173, 36.18043389419318], [-85.51667467195408, 36.18050989449615], [-85.51668167140087, 36.18044889452278], [-85.51668967159709, 36.18034989473489], [-85.5167546719942, 36.179799894425614], [-85.51681967226628, 36.17925889386585], [-85.51691067212947, 36.17843089378663], [-85.51700267185227, 36.1776718943432], [-85.51700967212551, 36.17761889379091], [-85.51709367172104, 36.17705789348031], [-85.51717067150197, 36.177004893531986], [-85.51680767126547, 36.176436893560236], [-85.51671267211425, 36.1762878937172], [-85.51654467163272, 36.17601689408324], [-85.51647567141409, 36.1759208933601], [-85.51643067149918, 36.1758408939839], [-85.51599567157947, 36.175180893583104], [-85.51571167145826, 36.174741893389054], [-85.51534667113614, 36.17417789292994], [-85.5152756713259, 36.17406289320472], [-85.51518667105269, 36.17391889283105], [-85.51516367158631, 36.173895893394885], [-85.51507967157247, 36.173727892915004], [-85.51507567149146, 36.17371689331702], [-85.51506467058661, 36.17368589300211], [-85.51504967060697, 36.17358589317357], [-85.51504967046662, 36.173517892989125], [-85.5150696709086, 36.17337989288482], [-85.51512567079021, 36.172998892832254], [-85.51516567122718, 36.172764892594806], [-85.51520167099477, 36.17256089328961], [-85.51523167091136, 36.17236189253277], [-85.51528567083423, 36.17200689254671], [-85.51532767050979, 36.171765893006175], [-85.51536267071708, 36.171568893202064], [-85.51553167105408, 36.171580893134355], [-85.51603867125463, 36.17161689240798], [-85.51620867164999, 36.17162989308488], [-85.51621867124021, 36.171629892607115], [-85.51624967155303, 36.17163189235271], [-85.51626067100362, 36.17163289266112], [-85.5163746715262, 36.17163889306709], [-85.51664367094453, 36.171655892944734], [-85.51671967174804, 36.17166189316196], [-85.51683467174215, 36.17167189237597], [-85.51699167168059, 36.17168889283027], [-85.51704067163374, 36.171694892946526], [-85.51741467178361, 36.17171789262382], [-85.51746367185245, 36.17172589244213], [-85.51762067178235, 36.17175189286007], [-85.51791267204601, 36.17177789248162], [-85.51833767196037, 36.17181689278614], [-85.51879067215818, 36.17183689312094], [-85.51908467216889, 36.17185089232716], [-85.51910767261057, 36.171850892937385], [-85.51912167181042, 36.17173989309862], [-85.5191456717091, 36.17163989229396], [-85.51931767240383, 36.17094789287717], [-85.51937567227178, 36.1707178922976], [-85.51944367242817, 36.17049889249615], [-85.51945167243561, 36.17047389212344], [-85.51951267187953, 36.170381892007676], [-85.51955867180965, 36.17033289208821], [-85.51968067266274, 36.17025589264966], [-85.51974867174158, 36.1702298926812], [-85.51990167195252, 36.17015289198226], [-85.51998767207348, 36.1701158925199], [-85.52019967202091, 36.17002789197579], [-85.52009467220633, 36.16987289210535], [-85.5198636722796, 36.16953189203901], [-85.51979267194999, 36.16940189171859], [-85.51970367195315, 36.16923789215492], [-85.5197146724792, 36.1692338920172], [-85.51975167220377, 36.16922189218473], [-85.51976367260451, 36.16921889190265], [-85.51959167189112, 36.16899489198807], [-85.51949167180472, 36.16886489230205], [-85.51938567166394, 36.16861989159166], [-85.51948967198288, 36.1682198917166], [-85.51956167188077, 36.16794789155863], [-85.51964767205207, 36.16802289165794], [-85.51971767172508, 36.16808089172271], [-85.51994567158168, 36.16826989157729], [-85.51999167183241, 36.16830089188869], [-85.52006167187083, 36.168356891873984], [-85.52020967207253, 36.168447891936175], [-85.52026067212338, 36.168478892189725], [-85.52038967210954, 36.168547891783106], [-85.52039667208838, 36.16855089192226], [-85.5204196727579, 36.16855989217542], [-85.5204276719951, 36.16856289177689], [-85.52061167229672, 36.16863889155829], [-85.52077867253085, 36.168695891892966], [-85.52087167183639, 36.168728891772275], [-85.52102367234015, 36.168783891829406], [-85.52123267242965, 36.16883989197407], [-85.52183767322128, 36.16899789202384], [-85.5221146728481, 36.169070891711115], [-85.52219767313008, 36.169107892179056], [-85.52224367326129, 36.16911089157334], [-85.52229167320488, 36.16911589243068], [-85.5224886726225, 36.169169891684966], [-85.52265567268985, 36.16922289235885], [-85.52270167297479, 36.16923789172665], [-85.52288867322154, 36.1692928917271], [-85.52293567325319, 36.169311892001915], [-85.52327367280647, 36.169447892263015], [-85.52361867370406, 36.16959189166003], [-85.52384567348565, 36.16968789178448], [-85.52397667390535, 36.169743892156305], [-85.52437067399705, 36.16991289222663], [-85.52450267399568, 36.169969891841426], [-85.52470567369302, 36.170054892458786], [-85.525314673435, 36.17031189211665], [-85.52545567364781, 36.17037189208583], [-85.52551667391222, 36.170400891679016], [-85.52560667389233, 36.170438892445766], [-85.52587667436067, 36.17055289253859], [-85.52596667427255, 36.170591892519774], [-85.52602867430548, 36.170617891911775], [-85.52621867384744, 36.17069889233492], [-85.5262816740216, 36.17072589230352], [-85.52653567370581, 36.17083389247659], [-85.52694867484037, 36.1710098918839], [-85.52729867386846, 36.171160892131695], [-85.52755367481193, 36.17127089213047], [-85.52780467420759, 36.17137689240751], [-85.52856067428345, 36.17169489188384], [-85.5288126745348, 36.17180089214871], [-85.5298276755178, 36.1722358923729], [-85.53037667593134, 36.172464892036785], [-85.53068067512544, 36.172594892647794], [-85.53135367543797, 36.17288489236451], [-85.53159567625097, 36.17298589196437], [-85.53190267581073, 36.173113892222894], [-85.53190867620258, 36.173116892317275], [-85.53192667626928, 36.173125892594406], [-85.53193367597657, 36.17312889205642], [-85.53209067565093, 36.173193892284495], [-85.53256167632847, 36.17339189199453], [-85.53271967568351, 36.173458892434496], [-85.53274967636958, 36.17347189282188], [-85.53303167603725, 36.173574892799834], [-85.53347467669002, 36.173704892222425], [-85.53354767617513, 36.17372089211431], [-85.53363567639587, 36.17374089288238], [-85.53402367604792, 36.17381189201671], [-85.53435167620519, 36.173853892404004], [-85.53444367696437, 36.17386089218031], [-85.53480967627615, 36.17387689264959], [-85.53513767648613, 36.173872892069575], [-85.53541267710574, 36.173857892368325], [-85.53563367674815, 36.173834892115174], [-85.53579367676915, 36.17380789237228], [-85.53613467672294, 36.17374189261604], [-85.53615267752984, 36.17373889213659], [-85.53698367787837, 36.17355189208183], [-85.53710967765525, 36.17352589214033], [-85.53747767708462, 36.17342589248539], [-85.53751367727402, 36.1734118925366], [-85.53752767763406, 36.173407892361205], [-85.53761467719171, 36.17338989245505], [-85.53871867797324, 36.17313689194761], [-85.53878967825905, 36.1731178918536], [-85.53900467783967, 36.17307289187025], [-85.53912067800763, 36.173053892196], [-85.53927267780966, 36.17302989180434], [-85.53959867810623, 36.172992892090676], [-85.53966567851943, 36.17298789244448], [-85.5397686780753, 36.1729798918761], [-85.53985867801231, 36.17297989161822], [-85.54008167812252, 36.17297989162252], [-85.54015767814263, 36.17298289212999], [-85.54024167788535, 36.17299189202943], [-85.54043867841887, 36.17301489224514], [-85.54045567818187, 36.17301789233291], [-85.54063067868312, 36.17304489203363], [-85.54072167788095, 36.173059891711354], [-85.54129167896005, 36.173191892124734], [-85.54140867875643, 36.1732198923604], [-85.54185667875959, 36.17333389183413], [-85.542356678855, 36.17345289225425], [-85.54246967930678, 36.17348389187086], [-85.5427816792161, 36.173551891724344], [-85.5428736796117, 36.173567892149414], [-85.54296567944252, 36.17358689185656], [-85.54327067867517, 36.173624892019845], [-85.54327867875995, 36.17362489164748], [-85.54395467974577, 36.17368289232519], [-85.54407967892094, 36.17369389199888], [-85.5442626796197, 36.1737048915401], [-85.54426867996465, 36.17370489166323], [-85.54521367964624, 36.17377689207538], [-85.54542068012115, 36.17379289208245], [-85.54552868014507, 36.17380389202621], [-85.54609168034297, 36.17383989195322], [-85.54672768054091, 36.173880892245435], [-85.5471946800293, 36.17390489228117], [-85.54736068038322, 36.173919891582024], [-85.54778268015212, 36.1739018918649], [-85.54783268083595, 36.173899891846], [-85.54834368051041, 36.17383489177858], [-85.54846868101374, 36.17381689195594], [-85.54857268068538, 36.17380389199931], [-85.5488466806044, 36.17376789222682], [-85.54889368040047, 36.173761891628835], [-85.54897268094092, 36.17375289136827], [-85.54899268087024, 36.17375089142345], [-85.54907668056802, 36.173738891493535], [-85.54927868134592, 36.17371289147826], [-85.54937368121736, 36.17370089185956], [-85.54939068107174, 36.17369789197984], [-85.54949568121837, 36.173681892005035], [-85.55005368125853, 36.17360889209881], [-85.55097668122886, 36.173490891342276], [-85.5513116816515, 36.17346489142217], [-85.55167768111944, 36.17345689187912], [-85.55173368128283, 36.173459891923336], [-85.55215068179339, 36.17348389168602], [-85.5521556818895, 36.17344289173712], [-85.55229868187462, 36.17343789124516], [-85.55241068152414, 36.173438891506265], [-85.55245968148944, 36.17344889138575], [-85.55293568243992, 36.17354989169658], [-85.55309468203085, 36.173583891539614], [-85.55323568221753, 36.17361289202464], [-85.55328368250265, 36.17363089185101], [-85.55383568252333, 36.17383489135892], [-85.5540196827836, 36.17390289183169], [-85.55403268250869, 36.17390789131635], [-85.55407368254357, 36.17392289174612], [-85.55408768270532, 36.173927891315714], [-85.55408568184178, 36.17394589175661], [-85.55408368196811, 36.174001891511516], [-85.55408368190514, 36.17402089161702], [-85.5540316827223, 36.174947891398816], [-85.5539626824917, 36.176188892064275], [-85.55391268292811, 36.176987891827075], [-85.5531706818436, 36.17700089232194], [-85.55224268167386, 36.177018892560284], [-85.55223868161866, 36.177075892418095]]]]}}]}