{"type": "FeatureCollection", "features": [{"type": "Feature", "properties": {"name": "District 2", "slug": "district-2", "ccd": 2}, "geometry": {"type": "MultiPolygon", "coordinates": [[[[-85.46327765791456, 36.19475489960186], [-85.46337965796147, 36.19483789997578], [-85.46358665719636, 36.19500689961143], [-85.4637376573178, 36.194932899362485], [-85.46563265804407, 36.19399689979652], [-85.46852065853426, 36.194100899080425], [-85.46856465881126, 36.194101899371574], [-85.4710356598693, 36.194199898945534], [-85.47156866000317, 36.19422089947771], [-85.47180465917435, 36.192114899052676], [-85.47525566089017, 36.19224889907118], [-85.47530366050621, 36.19189589819081], [-85.47544966035096, 36.1908378980092], [-85.47549866116893, 36.19048589805071], [-85.47599366134565, 36.19051589869676], [-85.47747866089097, 36.190607898224094], [-85.47797366150641, 36.19063889834104], [-85.47802266114363, 36.1906418986527], [-85.4783446616574, 36.190660898012204], [-85.47841766133892, 36.19066489859866], [-85.47864166173902, 36.19067989850933], [-85.4797526615847, 36.190746897724566], [-85.47997766186772, 36.19076089817716], [-85.48019866167263, 36.1907638983907], [-85.48019966174017, 36.190730898129274], [-85.4801756625761, 36.19069989825223], [-85.48017566235225, 36.19031289824953], [-85.4801836622614, 36.1900998976938], [-85.48018866208812, 36.19000589840976], [-85.48020366157789, 36.189761898028046], [-85.4802136619105, 36.18851389726518], [-85.4802216623903, 36.18813989772603], [-85.48021366211248, 36.1879168973071], [-85.48022066154033, 36.187707897447545], [-85.48022166223026, 36.187689897529054], [-85.48022066224793, 36.18709689737434], [-85.48022866194087, 36.186941897342294], [-85.48023566187828, 36.186420897069866], [-85.48025866140175, 36.18485989707507], [-85.48026666164228, 36.18433989669118], [-85.48030466164703, 36.18433689689726], [-85.48034366169351, 36.18430189715684], [-85.48034366137102, 36.18412389694624], [-85.48040266201325, 36.184102896752925], [-85.48074266218592, 36.18398889706798], [-85.48078666150788, 36.183972897180034], [-85.48091466208608, 36.18392889709735], [-85.48222666247919, 36.18349089703061], [-85.48616666283115, 36.182176895951876], [-85.48747966322503, 36.18173889626423], [-85.48748066379183, 36.18175489587745], [-85.48748666369235, 36.181807895857915], [-85.48749266377378, 36.18184589635321], [-85.48754666369285, 36.18216689627106], [-85.48755266389176, 36.18219989573046], [-85.48756466397388, 36.18227489631867], [-85.4875686634248, 36.18229889642594], [-85.48757966348045, 36.182349896116875], [-85.4875916638774, 36.1823998960609], [-85.48760666407334, 36.18249889610883], [-85.48760666402677, 36.182524896232266], [-85.48761266338305, 36.18257989606324], [-85.48762166370108, 36.182657895878386], [-85.4876596631512, 36.18289789653654], [-85.48768366399015, 36.182975896011904], [-85.48778966358479, 36.18330989608089], [-85.48793466383759, 36.18373789673421], [-85.4879946637179, 36.18390089684234], [-85.48803366433843, 36.18400789621857], [-85.48811766400179, 36.18420289680841], [-85.48821366389032, 36.18443189641775], [-85.48826266449703, 36.18454589663145], [-85.4883236635457, 36.184721896767805], [-85.48839566417315, 36.18515089677299], [-85.48843766414025, 36.18539689644437], [-85.48848366450393, 36.18538889630906], [-85.48906166429668, 36.1851628964823], [-85.48925466450196, 36.18508789656364], [-85.490772664167, 36.1845688968664], [-85.49095966425074, 36.1845188965717], [-85.49098666443957, 36.184511896865196], [-85.49120766444747, 36.184469896616775], [-85.49161966493175, 36.18441689678708], [-85.49199766537393, 36.18441689637946], [-85.49258866514732, 36.1844168961846], [-85.49303866558213, 36.1844698964911], [-85.49312666546176, 36.184485896341634], [-85.49331366546208, 36.18451989592398], [-85.49349666538372, 36.18456489618902], [-85.49372466522246, 36.18460889615057], [-85.49441166602037, 36.18474189648269], [-85.49464066551096, 36.184786896575694], [-85.49485466568893, 36.18482489656852], [-85.49486066608631, 36.1848258959244], [-85.4950146663478, 36.184862896529886], [-85.49538866554167, 36.18493489647783], [-85.49551966664785, 36.18496189649035], [-85.49573966588405, 36.18500789601927], [-85.49596266613503, 36.185050896606626], [-85.49663266655048, 36.18518289670462], [-85.4966926660753, 36.18519489642321], [-85.4968536659892, 36.18524089667489], [-85.49706166674177, 36.18523389638515], [-85.49714766712032, 36.18523989643777], [-85.49792066658611, 36.18530189665939], [-85.49803066709914, 36.185312895975194], [-85.49822766681254, 36.18533389655895], [-85.4983256665294, 36.18533989607489], [-85.49860266734844, 36.18536189628651], [-85.4993586673956, 36.185424896380624], [-85.49943666691159, 36.185424896264976], [-85.4994956676683, 36.185424896645564], [-85.4997146677874, 36.18544689626615], [-85.49972666694528, 36.185446896421055], [-85.49976266737946, 36.18544889585753], [-85.49977566748136, 36.18544989603341], [-85.49980566745103, 36.185210895960594], [-85.49982066734783, 36.18509589584409], [-85.49991366756639, 36.18449689562263], [-85.49995066698641, 36.18425989637872], [-85.49997266728839, 36.18407289569125], [-85.49999666713163, 36.18387889607085], [-85.50004666753469, 36.18351489628991], [-85.50007266775738, 36.18332889537426], [-85.50009866712573, 36.18312589600305], [-85.50017666703896, 36.18252089573545], [-85.50020266736219, 36.18231889578732], [-85.50021966681415, 36.18214289562029], [-85.5002746672049, 36.181615895785605], [-85.50029366777636, 36.181440895232505], [-85.50030966721194, 36.1813688958376], [-85.50031466715072, 36.181304895453636], [-85.50032466777714, 36.18119689518964], [-85.50036666689012, 36.180893895352995], [-85.50038566718042, 36.18075789537993], [-85.5004156676553, 36.180532894861265], [-85.50050766684976, 36.179860895396445], [-85.5005386675195, 36.1796368948135], [-85.50056866681528, 36.17942289483007], [-85.50056966689694, 36.17941289510548], [-85.50060666745775, 36.17922889509758], [-85.50067266671675, 36.178743895126615], [-85.5006836672518, 36.17867189478285], [-85.50071366696685, 36.17852289459676], [-85.50088166692463, 36.17853389512038], [-85.50092266746248, 36.178537894945364], [-85.50154966750576, 36.17860089445808], [-85.50175866736339, 36.17862189477177], [-85.50185066732219, 36.17863389516134], [-85.50187966793615, 36.17863589483813], [-85.50224666799323, 36.17867089457158], [-85.50236966780339, 36.1786828944068], [-85.50259166822661, 36.17870489498188], [-85.50326066837822, 36.17877089487773], [-85.50348366797232, 36.17879389470263], [-85.50370866826599, 36.178815894744055], [-85.50438666818913, 36.17888489500463], [-85.50461266879046, 36.17890789514772], [-85.50458966836413, 36.1788318948813], [-85.50457566793531, 36.178781894721325], [-85.5045186687964, 36.17872989485083], [-85.5045036686866, 36.17868689508357], [-85.50442066852787, 36.17843689491265], [-85.50426966815078, 36.17796589414719], [-85.50419266768178, 36.17772589432891], [-85.50416466863132, 36.177643894536544], [-85.5041226684847, 36.177516894631296], [-85.50408266764471, 36.177398894682966], [-85.50406366761179, 36.177340894241915], [-85.5040626681852, 36.177316894376276], [-85.504101667666, 36.17730589442594], [-85.5041396679233, 36.177297894221994], [-85.50426266800972, 36.177264894572104], [-85.50429566807867, 36.17725689451327], [-85.50452866785301, 36.17720789394701], [-85.50458966789965, 36.17719489414213], [-85.50471166879197, 36.17718389393368], [-85.50501266796634, 36.17720689462977], [-85.50525366823521, 36.17722589407888], [-85.5052796679914, 36.17705889461914], [-85.50532966891716, 36.17674889404835], [-85.50533766865215, 36.17665289421301], [-85.50535066890939, 36.17655789452371], [-85.5053756688933, 36.17639089452289], [-85.50537666796201, 36.176346894215285], [-85.50538266842855, 36.17630589393091], [-85.50539566879965, 36.17623689437254], [-85.50541866890462, 36.176054893870415], [-85.50542966840864, 36.17597089382133], [-85.50543666788502, 36.17593689402297], [-85.50543666863685, 36.17589789425775], [-85.50545866821696, 36.17572889376209], [-85.5055556688191, 36.17500289386185], [-85.50558866787486, 36.17476189425706], [-85.50560166825694, 36.17465589384032], [-85.50564366804447, 36.1743398939036], [-85.50565766804876, 36.17423489344431], [-85.50567266821695, 36.174131893344985], [-85.50568266828475, 36.17400589359583], [-85.50568766844228, 36.17396089393426], [-85.50571966845308, 36.1737728935508], [-85.50576466886506, 36.17338189384324], [-85.50577366847178, 36.17332189391755], [-85.50579466874265, 36.17318889319816], [-85.50580266843961, 36.17309489311708], [-85.50583366803404, 36.17284289349348], [-85.50584066865719, 36.172794893628655], [-85.50586766856827, 36.17263589383949], [-85.50588566777232, 36.17246889374595], [-85.5058856685229, 36.172432893306016], [-85.50590666837593, 36.17229489329958], [-85.50592966775929, 36.172088893116054], [-85.50593566850822, 36.1720448933992], [-85.50598366817923, 36.17200489319028], [-85.50600866782077, 36.17186089367475], [-85.50600866855646, 36.17176489338168], [-85.50603666795918, 36.1716178932478], [-85.50604066780825, 36.171583892817765], [-85.50608466856748, 36.17124089289145], [-85.50614766784345, 36.17075389311344], [-85.5061836677879, 36.17047789267102], [-85.50634966821785, 36.170490892691696], [-85.50680166830647, 36.170526893328166], [-85.50684966797594, 36.170533892989134], [-85.50701566809302, 36.17055789275753], [-85.50703966884905, 36.17036389291829], [-85.50704566820067, 36.17032089261028], [-85.50712566868478, 36.16978589254398], [-85.50713966899858, 36.16969489272904], [-85.50715266830794, 36.169592892660546], [-85.50718166814876, 36.16938689227186], [-85.5072136680133, 36.16916189222312], [-85.5072516682569, 36.16885589237313], [-85.50726266815158, 36.16877189290849], [-85.50729066861373, 36.16856689236443], [-85.50711766839171, 36.168553892970515], [-85.50660066880006, 36.1685148924669], [-85.5064286680544, 36.168501892565004], [-85.50625566766512, 36.1684878924459], [-85.50619166768462, 36.168482892747896], [-85.50573766803605, 36.168462892299246], [-85.50556566794249, 36.16845589260131], [-85.50544366753202, 36.16845989272541], [-85.50538366816316, 36.16845789303376], [-85.50483866739476, 36.1684468928726], [-85.50472666803395, 36.16844489221253], [-85.50465766738097, 36.168444892953374], [-85.50457266784026, 36.16844289299977], [-85.50433666811122, 36.16843889226958], [-85.5043206674227, 36.168437892864006], [-85.50423666783941, 36.16843489278631], [-85.50404166761696, 36.16842589299981], [-85.50345666720929, 36.168398892651176], [-85.50326166756496, 36.16839089289646], [-85.50312366723982, 36.16838489303668], [-85.5027106667492, 36.16836689302705], [-85.50257366686701, 36.16836089305492], [-85.50241766749667, 36.16835389262339], [-85.5022936668139, 36.16834789274771], [-85.50191966637122, 36.16832989312157], [-85.50145566717275, 36.16830989297338], [-85.50127066637867, 36.16830289293485], [-85.50117866697408, 36.168318893005704], [-85.5011946666413, 36.168360892557644], [-85.50120166642164, 36.16840589303355], [-85.50127866724634, 36.16863889271712], [-85.5012896671573, 36.168688892731446], [-85.50129366661336, 36.16870389256129], [-85.50152966630016, 36.16945189301578], [-85.50156066726176, 36.16953889264366], [-85.50159866696285, 36.169672892569395], [-85.50163866666277, 36.16979889311921], [-85.50175866674464, 36.17016889335755], [-85.50145766726406, 36.17023189348], [-85.50138766711635, 36.17024689315823], [-85.50099566708717, 36.17032089357331], [-85.50068866670593, 36.17038789285999], [-85.50055566629266, 36.17041489294717], [-85.5002556664046, 36.17047789331062], [-85.50025366636127, 36.17047089312434], [-85.50024966701191, 36.170452893002434], [-85.50024866661867, 36.170446892837305], [-85.50017966606474, 36.17044289307615], [-85.50010966698544, 36.17043189362946], [-85.50007266630656, 36.17042689345752], [-85.49969266655116, 36.17038789362364], [-85.49955366674071, 36.17037489364985], [-85.49923466665625, 36.1703388931818], [-85.49827766587657, 36.170230893016566], [-85.49802866558231, 36.17020289320972], [-85.49805066550435, 36.170080893097804], [-85.49798266549953, 36.170072892881386], [-85.49751666569473, 36.17002489357694], [-85.49701366571874, 36.16997389303964], [-85.49642566559652, 36.16992489348209], [-85.4961206656358, 36.16989389284737], [-85.49565566563993, 36.169847893101064], [-85.49549566530261, 36.1698288929915], [-85.49542966461239, 36.16982189287], [-85.49475166470043, 36.16975889368088], [-85.4945266649773, 36.16973789338705], [-85.49445766531117, 36.16973389305785], [-85.49415666470976, 36.16970189299891], [-85.49304866409955, 36.16958489352126], [-85.49267966390323, 36.16954689292124], [-85.49235266413311, 36.16949989310261], [-85.4923016646325, 36.16949489295129], [-85.49222866406839, 36.16948789317701], [-85.49145866387641, 36.16941289379343], [-85.4911626640353, 36.169388893316146], [-85.4907826634944, 36.16935889321717], [-85.49077266317438, 36.16927989326091], [-85.49078066332484, 36.16898189295124], [-85.4907856641704, 36.168880893628945], [-85.49080866405075, 36.16844589326663], [-85.4908106635758, 36.1684058933238], [-85.49087166319033, 36.167745893380484], [-85.49088666330724, 36.167448893118696], [-85.49090266385333, 36.16714389302996], [-85.49091766322404, 36.166971892809535], [-85.49092066341198, 36.16693789310192], [-85.49092766352376, 36.16687189327496], [-85.4909296636205, 36.16683889244193], [-85.49093366328397, 36.16680589283224], [-85.49094266345551, 36.166706893069], [-85.49096366351267, 36.166490892851584], [-85.49097366373692, 36.16641289287316], [-85.49098666345328, 36.166315892719695], [-85.49101866354569, 36.16587289261119], [-85.49103766410856, 36.16561089297966], [-85.49111866319603, 36.164544892057584], [-85.49115366302073, 36.164102892130245], [-85.49117666391253, 36.163788892498914], [-85.49119266326453, 36.16357289262631], [-85.49127166306617, 36.162850891914296], [-85.49130666379155, 36.16253889214805], [-85.49111266292712, 36.162533891589725], [-85.49082566375971, 36.16252789186669], [-85.49058166303139, 36.16252789235252], [-85.49053066368882, 36.162531892242804], [-85.49033766352522, 36.16255089233772], [-85.49023066295358, 36.16256189176554], [-85.49015266337324, 36.16256989167234], [-85.48985266299951, 36.162611892249885], [-85.4897266626211, 36.162628891676505], [-85.48949866266413, 36.16266089173672], [-85.48904866306304, 36.16272589202674], [-85.48871266240187, 36.16279889188862], [-85.48854466296486, 36.16284789230889], [-85.48814066214113, 36.162985891898025], [-85.48793966201936, 36.163059891978676], [-85.48759866239656, 36.163187892659536], [-85.48746166239404, 36.163244892022405], [-85.48736566252096, 36.16328189262877], [-85.48614166201742, 36.16375589206045], [-85.48588966175778, 36.16384389245646], [-85.48554866187733, 36.163934892699565], [-85.48379166125271, 36.16440489276815], [-85.4832116611689, 36.16459489317272], [-85.48270066160664, 36.164778893099445], [-85.48018066000158, 36.165645892967454], [-85.48002966071971, 36.165697892847795], [-85.47923666023232, 36.1659728935389], [-85.47901566017003, 36.16604089286877], [-85.47876666002122, 36.16610589317641], [-85.47857366016454, 36.16615589292098], [-85.47840565955153, 36.16619389296088], [-85.47817666042954, 36.166231893126316], [-85.47808265992494, 36.16624489372561], [-85.47780365942745, 36.16628589352935], [-85.4777106593125, 36.166300893541916], [-85.47751965994229, 36.16632289291774], [-85.47694765944034, 36.16639089343762], [-85.47675765901079, 36.166414893114904], [-85.47659565990699, 36.166434893395866], [-85.47610965890019, 36.16649689370158], [-85.47594865875874, 36.16651789333585], [-85.4756736593195, 36.16655189384432], [-85.4748496588568, 36.16665489364348], [-85.47457565884937, 36.16668989368886], [-85.4741736589719, 36.166748893787634], [-85.47359865870203, 36.16683489405475], [-85.47296965886534, 36.16693489380488], [-85.47271365786584, 36.16697589396051], [-85.47256865800232, 36.16699489331807], [-85.47174065760562, 36.167116893413], [-85.4713096577449, 36.16718189368995], [-85.4711346577678, 36.16720089420084], [-85.4705316577738, 36.16725789364805], [-85.46968465788002, 36.16731189408429], [-85.46923965692436, 36.16732189407158], [-85.46840365697332, 36.16734189355669], [-85.46758265692536, 36.167345893986905], [-85.46747965739509, 36.16734489433784], [-85.46622265688566, 36.16733389381881], [-85.46470965659633, 36.16726489405691], [-85.46446665552182, 36.16725389421115], [-85.46411565586278, 36.16723889412624], [-85.46403165563427, 36.16723489450119], [-85.46378765549998, 36.16722389425858], [-85.46375665592134, 36.16722189454579], [-85.46366365582462, 36.16721889382434], [-85.46363365539784, 36.16721789440503], [-85.46326965612396, 36.16720089368986], [-85.46247665547688, 36.16716489432463], [-85.46218065499086, 36.16714689442774], [-85.46181865535982, 36.167124894483024], [-85.46172965541264, 36.16711489384651], [-85.46146465515427, 36.16708589454707], [-85.4613766555234, 36.16707689399833], [-85.46132565511851, 36.16707089386338], [-85.46123165477138, 36.16705989448415], [-85.46117465551183, 36.167054894035466], [-85.4611246551183, 36.16705189404729], [-85.46082065443294, 36.16701889427965], [-85.46059065523383, 36.16699489454981], [-85.45990965517585, 36.1669128939212], [-85.45960665405187, 36.16687689438728], [-85.45941465432527, 36.16685289400541], [-85.4588396539404, 36.16678089460019], [-85.45872865426537, 36.16676789467311], [-85.45864865470601, 36.16675889466174], [-85.45849165445354, 36.16674089441538], [-85.45834565425771, 36.166725894035636], [-85.45802265446468, 36.16669589414537], [-85.45786665416134, 36.16668189463631], [-85.45761065419806, 36.1666598939791], [-85.45751565398712, 36.16665189469169], [-85.45684665362936, 36.166584894201485], [-85.4567076540157, 36.16657089399124], [-85.45659265323785, 36.16655989469765], [-85.45643265409463, 36.166540894096805], [-85.4563946540324, 36.166536894426834], [-85.45580065370805, 36.1664798945526], [-85.45560365319812, 36.16646189403797], [-85.45554765281659, 36.16645689453183], [-85.45521565349793, 36.16643089405416], [-85.45405165240533, 36.16633989459487], [-85.45384665280602, 36.166323894564265], [-85.45366365332968, 36.166326893976205], [-85.45284665239504, 36.166326894477585], [-85.45172665246677, 36.16630089476373], [-85.45160365215675, 36.166294894187], [-85.45064765218414, 36.16625489488679], [-85.45044365182669, 36.16625089472515], [-85.45002365219536, 36.16626589458607], [-85.44960465179685, 36.16629689481126], [-85.44885665120906, 36.166372894630264], [-85.44798665072689, 36.166487894278745], [-85.44759065088016, 36.16655989434922], [-85.44709465115072, 36.1666738949763], [-85.44619365065739, 36.166910894852], [-85.44551465037598, 36.167105894810604], [-85.44536265054042, 36.16715089453939], [-85.44459965039478, 36.167387894736166], [-85.44355465041951, 36.16773889506696], [-85.443122649912, 36.167879894822185], [-85.44311165011149, 36.167883895210025], [-85.44280664957384, 36.16798689522246], [-85.44243264945331, 36.16811289480074], [-85.44187564930611, 36.16831489531797], [-85.44183564921549, 36.16832989558396], [-85.44141464904055, 36.16849989560517], [-85.44414165063715, 36.17122189605652], [-85.44457665057492, 36.17155989575699], [-85.44469865002566, 36.17165489582931], [-85.44471465022166, 36.168584894954456], [-85.44545065042843, 36.16860589553208], [-85.45205165292651, 36.168607895039536], [-85.4520566529281, 36.17126289532257], [-85.45205865240294, 36.172304895376264], [-85.45462165307949, 36.17232589572665], [-85.4546806534955, 36.173123895331564], [-85.45463965377273, 36.173544896075356], [-85.4546306534513, 36.17360389556311], [-85.45461665402827, 36.173696895645655], [-85.45449465409955, 36.17484189560088], [-85.45449165344696, 36.174908896451555], [-85.45447765410005, 36.175042896251455], [-85.4544286540886, 36.17552389656382], [-85.45494665319777, 36.1755248964723], [-85.45650265439798, 36.175529896267065], [-85.45702165490803, 36.17553189577448], [-85.45737165416234, 36.175532896431015], [-85.45842165528823, 36.17553589593166], [-85.45877265500903, 36.175536896113336], [-85.45919965490515, 36.175537896017545], [-85.46048465530879, 36.17554089553608], [-85.46091265566099, 36.17554189565468], [-85.46091665581055, 36.17561789624882], [-85.46092965541811, 36.17584789605157], [-85.46093465593948, 36.17592489608791], [-85.46092765605076, 36.17698989625916], [-85.46091865517108, 36.17859889673734], [-85.46073565542491, 36.18017389655861], [-85.46069465612574, 36.180535897161086], [-85.46084965579553, 36.18108289689044], [-85.46069665539109, 36.18123189673568], [-85.46059865598895, 36.18132689679685], [-85.46000565572194, 36.18190189755089], [-85.45999565614777, 36.18202289703183], [-85.46013465619687, 36.18189989693763], [-85.46049165535571, 36.181589897369534], [-85.4605526552637, 36.18153189692805], [-85.46068965611178, 36.18140689729174], [-85.46073565577697, 36.18136489723282], [-85.46076265530904, 36.18134089677552], [-85.46081165574385, 36.18129589721134], [-85.46087365571341, 36.181237897466865], [-85.46091965629493, 36.18119589734081], [-85.46093365621195, 36.181273897282274], [-85.460952656315, 36.18138989733383], [-85.46105365594957, 36.18197389698128], [-85.4610876559238, 36.18216889723889], [-85.4610626559025, 36.183283897697464], [-85.46106065653244, 36.183414897146776], [-85.46108565618984, 36.18350389721205], [-85.4612086556433, 36.18393689737716], [-85.46127565644436, 36.18416989723275], [-85.46144965653838, 36.18479589739056], [-85.46145765659551, 36.18482489743219], [-85.46153065572595, 36.185085897719354], [-85.46153265582979, 36.18509489750387], [-85.46157165671116, 36.18523289770901], [-85.4614506569054, 36.18858689834173], [-85.46142765624633, 36.189253898908404], [-85.46141965623943, 36.18949389898781], [-85.46076265640933, 36.189657899171266], [-85.46073965594158, 36.19052989912583], [-85.46086865639417, 36.19048889886511], [-85.4609166559481, 36.19047289884164], [-85.46112465684274, 36.19040589853023], [-85.46145065634934, 36.190301899002336], [-85.46162865696533, 36.190245898919], [-85.46162265647092, 36.190293898769546], [-85.46161665634482, 36.19035789847733], [-85.46160765663895, 36.19043989895309], [-85.46160465644714, 36.19047289919027], [-85.46160265664318, 36.190488899140774], [-85.4615446564519, 36.19102889896959], [-85.46149865622502, 36.191458899049884], [-85.46136465698942, 36.19264989938817], [-85.46132965721714, 36.19296389917446], [-85.46130265643724, 36.193189899872486], [-85.46150665686672, 36.19335189973627], [-85.46158565671816, 36.19341389916691], [-85.46327765791456, 36.19475489960186]]]]}}]}