{"type": "FeatureCollection", "features": [{"type": "Feature", "properties": {"name": "District 12", "slug": "district-12", "ccd": 12}, "geometry": {"type": "MultiPolygon", "coordinates": [[[[-85.44137064989211, 36.16851989539464], [-85.44141064905568, 36.168501895002315], [-85.44141464904055, 36.16849989560517], [-85.44414165063715, 36.17122189605652], [-85.44457665057492, 36.17155989575699], [-85.44469865002566, 36.17165489582931], [-85.44471465022166, 36.168584894954456], [-85.44545065042843, 36.16860589553208], [-85.45205165292651, 36.168607895039536], [-85.4520566529281, 36.17126289532257], [-85.45205865240294, 36.172304895376264], [-85.45462165307949, 36.17232589572665], [-85.4546806534955, 36.173123895331564], [-85.45463965377273, 36.173544896075356], [-85.4546306534513, 36.17360389556311], [-85.45461665402827, 36.173696895645655], [-85.45449465409955, 36.17484189560088], [-85.45449165344696, 36.174908896451555], [-85.45447765410005, 36.175042896251455], [-85.4544286540886, 36.17552389656382], [-85.45494665319777, 36.1755248964723], [-85.45650265439798, 36.175529896267065], [-85.45702165490803, 36.17553189577448], [-85.45737165416234, 36.175532896431015], [-85.45842165528823, 36.17553589593166], [-85.45877265500903, 36.175536896113336], [-85.45919965490515, 36.175537896017545], [-85.46048465530879, 36.17554089553608], [-85.46091265566099, 36.17554189565468], [-85.46091665581055, 36.17561789624882], [-85.46092965541811, 36.17584789605157], [-85.46093465593948, 36.17592489608791], [-85.46092765605076, 36.17698989625916], [-85.46091865517108, 36.17859889673734], [-85.46073565542491, 36.18017389655861], [-85.46069465612574, 36.180535897161086], [-85.46084965579553, 36.18108289689044], [-85.46069665539109, 36.18123189673568], [-85.46059865598895, 36.18132689679685], [-85.46000565572194, 36.18190189755089], [-85.45999565614777, 36.18202289703183], [-85.46013465619687, 36.18189989693763], [-85.46049165535571, 36.181589897369534], [-85.4605526552637, 36.18153189692805], [-85.46068965611178, 36.18140689729174], [-85.46073565577697, 36.18136489723282], [-85.46076265530904, 36.18134089677552], [-85.46081165574385, 36.18129589721134], [-85.46087365571341, 36.181237897466865], [-85.46091965629493, 36.18119589734081], [-85.46093365621195, 36.181273897282274], [-85.460952656315, 36.18138989733383], [-85.46105365594957, 36.18197389698128], [-85.4610876559238, 36.18216889723889], [-85.4610626559025, 36.183283897697464], [-85.46106065653244, 36.183414897146776], [-85.46108565618984, 36.18350389721205], [-85.4612086556433, 36.18393689737716], [-85.46127565644436, 36.18416989723275], [-85.46144965653838, 36.18479589739056], [-85.46145765659551, 36.18482489743219], [-85.46153065572595, 36.185085897719354], [-85.46153265582979, 36.18509489750387], [-85.46157165671116, 36.18523289770901], [-85.4614506569054, 36.18858689834173], [-85.46142765624633, 36.189253898908404], [-85.46141965623943, 36.18949389898781], [-85.46076265640933, 36.189657899171266], [-85.46073965594158, 36.19052989912583], [-85.46086865639417, 36.19048889886511], [-85.4609166559481, 36.19047289884164], [-85.46112465684274, 36.19040589853023], [-85.46145065634934, 36.190301899002336], [-85.46162865696533, 36.190245898919], [-85.46162265647092, 36.190293898769546], [-85.46161665634482, 36.19035789847733], [-85.46160765663895, 36.19043989895309], [-85.46160465644714, 36.19047289919027], [-85.46160265664318, 36.190488899140774], [-85.4615446564519, 36.19102889896959], [-85.46149865622502, 36.191458899049884], [-85.46136465698942, 36.19264989938817], [-85.46132965721714, 36.19296389917446], [-85.46130265643724, 36.193189899872486], [-85.4612716567651, 36.19345689937377], [-85.46122265647702, 36.19391089941819], [-85.46116165696859, 36.19448689992405], [-85.46108965684276, 36.19512490025755], [-85.46098365709004, 36.196076899826224], [-85.46091665699433, 36.1966758999381], [-85.46090365674499, 36.19679889989268], [-85.46084465663338, 36.197301900560824], [-85.46080165652374, 36.19771590061583], [-85.46075765731334, 36.19791990038299], [-85.46074565717964, 36.19801790057284], [-85.46044965716173, 36.20056290065839], [-85.46040565728757, 36.20083790116466], [-85.46040565656426, 36.20097090065838], [-85.46026265713428, 36.20167190090024], [-85.46026165719637, 36.2016739008002], [-85.46021865708326, 36.201821901248806], [-85.4600866573067, 36.202096901085554], [-85.4599986571527, 36.202256901282766], [-85.45985665647147, 36.202469900924676], [-85.45963965640708, 36.202721901439624], [-85.45951565723097, 36.2030679013309], [-85.45944565708223, 36.20326690191896], [-85.4592866563952, 36.203745901961376], [-85.45915965633652, 36.20411290138666], [-85.45904065668759, 36.20446090219964], [-85.45899765664984, 36.20458290210977], [-85.45887065694414, 36.20495190192158], [-85.45882865705372, 36.20507490211403], [-85.4588586569528, 36.20512990161558], [-85.4588896563865, 36.20526790209038], [-85.45888965701498, 36.20537490233799], [-85.4588816563779, 36.2054089019822], [-85.45888165734563, 36.205446902055485], [-85.45874465738571, 36.20613790206225], [-85.45872965633937, 36.20625190260122], [-85.45872365662609, 36.20628990190518], [-85.45868365690268, 36.20659890252615], [-85.45865965668025, 36.20680190201215], [-85.45864565702436, 36.20696890196104], [-85.45861665725714, 36.20720490238732], [-85.45848465685663, 36.208307902538884], [-85.45844665690356, 36.20855990281549], [-85.45838565743279, 36.2090199024555], [-85.458378657153, 36.20908190274896], [-85.45837865658683, 36.20917790320302], [-85.45839365742393, 36.209249903228184], [-85.4584086570437, 36.20927290263823], [-85.45841665740734, 36.20932290255297], [-85.45846965680147, 36.20945590239439], [-85.45850165739431, 36.20952690254475], [-85.45853765713814, 36.209597902591], [-85.45855965663738, 36.20964090311467], [-85.45862565705299, 36.2097729031029], [-85.45862965715096, 36.20978090334697], [-85.45864565664144, 36.20981890299307], [-85.4584846566557, 36.20999390287608], [-85.45814265710295, 36.210410903494186], [-85.45795065696795, 36.210647903361746], [-85.45782165736992, 36.210813902850965], [-85.45761565643518, 36.21105490301514], [-85.45749365658337, 36.211218903077636], [-85.45726465683933, 36.211500903195976], [-85.4570436564443, 36.211780902921866], [-85.45697465659548, 36.21185890348199], [-85.45689765614988, 36.21195490369433], [-85.45684465668323, 36.21202390332021], [-85.45666765626721, 36.21221490331312], [-85.45658565713775, 36.212304903788926], [-85.45644765616514, 36.2124449036609], [-85.45620565695636, 36.21272790396047], [-85.45617365692078, 36.212808903251485], [-85.45613765638541, 36.21280590402225], [-85.45603265647966, 36.21279690356789], [-85.45599765669796, 36.21279490377635], [-85.45579565632048, 36.21304890387356], [-85.45522165679444, 36.21305490391709], [-85.45379465618787, 36.21307190333949], [-85.45362865586563, 36.21432890405232], [-85.45357865542127, 36.214717903686875], [-85.45310865601083, 36.21490690455751], [-85.45316265587324, 36.21500890383204], [-85.45327065586295, 36.21526890458794], [-85.45330265637773, 36.21556690457105], [-85.45330965575407, 36.21567090444424], [-85.45329665576898, 36.215825904295315], [-85.45324165627805, 36.21652890433106], [-85.45323565542654, 36.21681790451869], [-85.45325065575784, 36.21692790499745], [-85.45326265620031, 36.21695890436006], [-85.4532856557839, 36.21708290488063], [-85.45332065637615, 36.21723090480465], [-85.45334065567546, 36.21728290504615], [-85.45335965613376, 36.217375904554025], [-85.45339765606403, 36.217490904635966], [-85.453450656512, 36.21768190489081], [-85.45356165563216, 36.21815990471674], [-85.45358365587435, 36.21823390514729], [-85.45360265613773, 36.21831990464675], [-85.45361465581004, 36.21835090485832], [-85.45361765613124, 36.21838890485427], [-85.45366465581873, 36.21856090488219], [-85.4536876563739, 36.21863390492527], [-85.45375265660742, 36.21883690520952], [-85.45382465651144, 36.219023904919524], [-85.45390965642376, 36.219226905408924], [-85.4539286565273, 36.219326904708915], [-85.45394865645717, 36.21954790464361], [-85.45394065617411, 36.2195949051453], [-85.45395565595635, 36.21967790516056], [-85.45401565666559, 36.219840905385894], [-85.45402165653242, 36.21990190506487], [-85.45401665676474, 36.219939904918455], [-85.45398965681784, 36.22001490490037], [-85.45396465642177, 36.220069905464925], [-85.45383865628277, 36.22021990518148], [-85.45378165642173, 36.22030090509838], [-85.45370165619775, 36.22052690523822], [-85.45368065610151, 36.22056690555431], [-85.4536046567758, 36.220717905331995], [-85.45357865649693, 36.22074490514134], [-85.45356065670298, 36.220786905342806], [-85.45353465679693, 36.2208069052071], [-85.45352665604861, 36.220833905329364], [-85.45349965635386, 36.22088890575409], [-85.45347365598316, 36.22091590553952], [-85.45343865674488, 36.220991905611626], [-85.4534316557484, 36.221110905295774], [-85.4534426564075, 36.221169905228784], [-85.45349765581686, 36.22128490546505], [-85.4535496562893, 36.22135590525337], [-85.45356565611416, 36.22139190559679], [-85.45361465618225, 36.22144590519757], [-85.45371365589402, 36.22157190572962], [-85.45375365678127, 36.22164690583015], [-85.45377865648459, 36.2216759054517], [-85.45392665668953, 36.221931905111575], [-85.4540726559857, 36.22220790576314], [-85.4541196567349, 36.22240090521757], [-85.45413365647272, 36.222524905252165], [-85.45413265610601, 36.222579905227725], [-85.45410765636151, 36.22280290598018], [-85.45406465615177, 36.22298490544634], [-85.4540386566349, 36.22305290546188], [-85.4539856565661, 36.22316190610215], [-85.4538806570726, 36.22333290585008], [-85.45372565655781, 36.22350290610757], [-85.45367365664274, 36.223550906185594], [-85.45356165663671, 36.22365890614098], [-85.45340565602262, 36.22384890627744], [-85.4533886569279, 36.22388390560981], [-85.45331965671679, 36.22395490574741], [-85.45319865648476, 36.224045905991005], [-85.45315965598691, 36.224065906388354], [-85.45303565686194, 36.224160906111756], [-85.45291565634261, 36.22426990565353], [-85.45286765590701, 36.22432490630012], [-85.45213265585012, 36.223922905789145], [-85.45062865538102, 36.223735905779925], [-85.44918365561422, 36.22355690584108], [-85.44359065338638, 36.223234906654454], [-85.44124265336552, 36.2230999062528], [-85.44121765336595, 36.22322590662997], [-85.4412046524238, 36.22329590623696], [-85.44119665292261, 36.22341790623703], [-85.44119865272101, 36.22361190664876], [-85.44119965286505, 36.22368590673955], [-85.4412046532399, 36.22374090645401], [-85.44122765328264, 36.22409290675508], [-85.44125765344077, 36.22433690680041], [-85.44127765303054, 36.22458990631142], [-85.44128065249903, 36.22462390686327], [-85.44137865253649, 36.2254329069741], [-85.44151065315448, 36.22639790733592], [-85.44154065336265, 36.22653190720836], [-85.44158565312752, 36.2268089067433], [-85.44159965312005, 36.22685390728219], [-85.44164965320685, 36.22711890734338], [-85.44180765388926, 36.22795790760909], [-85.4418526535822, 36.2281789075079], [-85.44194465290309, 36.22855290712542], [-85.441982653624, 36.2288309077261], [-85.44198265312573, 36.22886290712577], [-85.44198265353853, 36.22901790766281], [-85.44196765371906, 36.22913290769181], [-85.44191365295515, 36.22929690725233], [-85.44178465332264, 36.22950990756904], [-85.44160865362242, 36.229753907601726], [-85.44151765394429, 36.229944907378766], [-85.44147865326721, 36.23008190735046], [-85.44146365367583, 36.23025390794709], [-85.44147865289374, 36.23041390755413], [-85.44153265307158, 36.23065090816612], [-85.44185465412848, 36.23143590812489], [-85.44209665356053, 36.2320239080648], [-85.44215065353305, 36.2322419083682], [-85.44215765420266, 36.2323059078939], [-85.44216565362409, 36.23246290811135], [-85.44216565360726, 36.23253690788885], [-85.44216565395936, 36.23257290785478], [-85.44213565403508, 36.23294290786866], [-85.44211065386236, 36.23315390835919], [-85.44204365397835, 36.233747908654514], [-85.44198265401693, 36.23434690866004], [-85.44194465418965, 36.23457590888927], [-85.4418756536099, 36.2348199084655], [-85.4417916533837, 36.23498790850112], [-85.44140665349163, 36.23554990889828], [-85.44137965334458, 36.23559090841892], [-85.44107465318675, 36.236009908738104], [-85.4408836535922, 36.23621990904781], [-85.44084565317638, 36.23626590896659], [-85.44062465337737, 36.23644090923278], [-85.44012165303829, 36.2368099087184], [-85.44006565393323, 36.23685090872117], [-85.43947265356148, 36.23729990930667], [-85.43921365349806, 36.2375129097552], [-85.43908365372432, 36.23761590974703], [-85.43865665342777, 36.23797890941144], [-85.43846765337855, 36.238146909367], [-85.43835365307156, 36.238267909435834], [-85.43830565281493, 36.238325909785644], [-85.43824565263382, 36.23842290942211], [-85.43820565302651, 36.238478909235994], [-85.43811465331996, 36.238695909440956], [-85.4380896528243, 36.238809909580056], [-85.43807465242392, 36.23885690960901], [-85.4380306526592, 36.23906990964434], [-85.4380296532107, 36.239070909874236], [-85.43783965331104, 36.240087909671374], [-85.4377966534616, 36.24026091011744], [-85.43779365271816, 36.24027490947996], [-85.43773465313583, 36.24057391030874], [-85.43768165277872, 36.24078290999949], [-85.43766465321785, 36.24085490995798], [-85.43764965324266, 36.2409579100348], [-85.43738565270905, 36.240931910410566], [-85.4373436528399, 36.24092790979292], [-85.43680265286304, 36.24089291023774], [-85.436593652609, 36.24088891029809], [-85.43653565281367, 36.24088891017387], [-85.43638765264882, 36.240923909679395], [-85.43633665242555, 36.240942910436985], [-85.43630465312346, 36.240910910539746], [-85.43628465206194, 36.24089790970728], [-85.43625065264823, 36.24088590971411], [-85.43607665224069, 36.240867910165775], [-85.43606265253895, 36.24086691023545], [-85.43574665230223, 36.240849910070416], [-85.43524165269616, 36.24080791042761], [-85.4352116518889, 36.240805910027426], [-85.43496465168869, 36.24078091014978], [-85.43490265178723, 36.24077490992704], [-85.43454065187413, 36.240731909757784], [-85.43383065158402, 36.24066390997991], [-85.433148651884, 36.24059991001905], [-85.43289665165089, 36.240568909949815], [-85.43209665183143, 36.240479910339104], [-85.43169065111614, 36.240440909853355], [-85.43154865134723, 36.240433910600444], [-85.43122165088158, 36.24042791040879], [-85.43110465132142, 36.24041990989672], [-85.43082765088803, 36.240394909878475], [-85.43052465085827, 36.24035891054439], [-85.4304286505267, 36.24035290996995], [-85.43031765059084, 36.240347910160565], [-85.43011065029542, 36.24034790991937], [-85.42988465077309, 36.2403749099473], [-85.42977265080236, 36.24040191054476], [-85.42959865090458, 36.240466910081146], [-85.42940965024235, 36.240557910402046], [-85.42933265074684, 36.24058791028338], [-85.42909265001803, 36.24070191028977], [-85.42906965033534, 36.240710910401674], [-85.4289516504581, 36.24076391050667], [-85.42866165026814, 36.240858910461085], [-85.42844264986155, 36.24095691059481], [-85.42826964997599, 36.241046910554566], [-85.42825965060386, 36.241052910532474], [-85.42815865074743, 36.24112591035067], [-85.42806665005754, 36.24116791048612], [-85.42801565036197, 36.24118191038424], [-85.42796264972857, 36.241194910327366], [-85.42785665042753, 36.24120691034071], [-85.42718564945005, 36.241182910385604], [-85.42711265012014, 36.241178910634446], [-85.42684064970258, 36.241182910777], [-85.42644664980615, 36.24117991076964], [-85.42618964919734, 36.241178910297876], [-85.42586964960213, 36.24115291061054], [-85.42520564894751, 36.24107991103584], [-85.4243896489142, 36.240972910928505], [-85.42427764909024, 36.24097791084905], [-85.42419064889081, 36.240988910392126], [-85.42408964920725, 36.24101191070247], [-85.42378264860454, 36.24109491078471], [-85.42340064850093, 36.24121191092447], [-85.42291664929839, 36.24136591054073], [-85.42267264832515, 36.24142691121245], [-85.42251264901182, 36.24145791061968], [-85.42226964829278, 36.24146691117917], [-85.42181464809265, 36.241415910886076], [-85.4213986477625, 36.241369910971514], [-85.42102264856108, 36.241342911048065], [-85.42065564787546, 36.24132291065564], [-85.42024964801095, 36.24129291113828], [-85.42009364774265, 36.24128191085821], [-85.41978064772954, 36.24124691085444], [-85.41962764726519, 36.24122691110499], [-85.41954364751642, 36.241215910801586], [-85.41947264764654, 36.241206910567314], [-85.41944364767258, 36.23896091064432], [-85.41941164752711, 36.23684590965436], [-85.41940964698875, 36.23671590991526], [-85.41940464729429, 36.23643990954037], [-85.41940364699352, 36.236326910149565], [-85.41940264707708, 36.236221910150384], [-85.41943664725815, 36.23615190942576], [-85.4126736455935, 36.2354419103043], [-85.41248164482464, 36.23542090968625], [-85.41210464508447, 36.23464890984399], [-85.4118986450706, 36.23464591000509], [-85.40713664324282, 36.2344309099043], [-85.40713564370576, 36.234421909725185], [-85.4070836440749, 36.2342869101599], [-85.40703464318467, 36.234196909768585], [-85.40698564322938, 36.23413490997874], [-85.40695264359609, 36.234072910310616], [-85.40692064314229, 36.23399691027052], [-85.40690664380213, 36.23381791027732], [-85.40691164368242, 36.233779909711245], [-85.40690064345056, 36.23373490996833], [-85.40674364394307, 36.233664910296824], [-85.40635564331723, 36.23349891002065], [-85.40628064319966, 36.233465910230905], [-85.40618364352405, 36.23342491009418], [-85.40615664374202, 36.23341391021653], [-85.40612964344993, 36.23340491018196], [-85.40599164355977, 36.23336190944513], [-85.40600164302008, 36.233334909696765], [-85.40607164284638, 36.23313991008979], [-85.4061706429166, 36.23286890991814], [-85.40533064344656, 36.23273390951526], [-85.40495564323696, 36.23267390945715], [-85.40486964240466, 36.23265990951176], [-85.40461264237844, 36.2326179097417], [-85.4045276431238, 36.232604909457834], [-85.40440964282439, 36.23258790982942], [-85.40415364222537, 36.232545909500985], [-85.40236564253706, 36.23225691005181], [-85.40220064238486, 36.23218090943184], [-85.4007496412839, 36.23148690975946], [-85.39923964119093, 36.230763909777686], [-85.39916864099258, 36.23072990971296], [-85.399096640809, 36.23069591003895], [-85.39614264052643, 36.229281909830156], [-85.39615064019179, 36.23040390990759], [-85.3957416401413, 36.23117791002365], [-85.39536363977719, 36.231145909906694], [-85.3951576403934, 36.23112890952854], [-85.39495664052804, 36.231113910262174], [-85.39483163983063, 36.22946990989822], [-85.3948106402786, 36.22918790979302], [-85.39407763954885, 36.2289209094146], [-85.39322763924261, 36.22861090984091], [-85.39228463918047, 36.22826790964174], [-85.39110763824506, 36.22783890945997], [-85.39035263804958, 36.22756390930617], [-85.3895656385034, 36.22728790902663], [-85.38791063723623, 36.22671790916056], [-85.38759863804242, 36.22660990898199], [-85.38735963723303, 36.226527909605004], [-85.38583463750672, 36.22598390940032], [-85.38563863687776, 36.22603190963579], [-85.38033963549064, 36.22734890962468], [-85.37857363555293, 36.227787909939465], [-85.37832063526196, 36.22722090946676], [-85.37756163479645, 36.225521909473336], [-85.37730863442123, 36.22495590952199], [-85.37724063499212, 36.224975909033695], [-85.37714563443973, 36.22497390960513], [-85.37701263489147, 36.224972909168706], [-85.37680163407173, 36.224942909696026], [-85.37673563482343, 36.224927909522776], [-85.37665863428003, 36.22491990927971], [-85.3766516344807, 36.22491990920567], [-85.37654063420781, 36.22493590928799], [-85.37649063432077, 36.22495290911631], [-85.37634063401649, 36.2248409094938], [-85.37625763403575, 36.224759909699266], [-85.37620263389276, 36.22468590931405], [-85.37614163461144, 36.22460490949759], [-85.37606763391832, 36.22452090893927], [-85.37594263400487, 36.22442390936943], [-85.37575063383379, 36.224296909776534], [-85.3756926338786, 36.2242439097541], [-85.37559763422075, 36.2241159097633], [-85.37552663372463, 36.22403990938972], [-85.37549363420071, 36.22401190925408], [-85.37546863423442, 36.223997908942444], [-85.37539363367596, 36.22397590928602], [-85.37530363423943, 36.22396090948141], [-85.3753006343627, 36.22396090928731], [-85.37525863402414, 36.223946909327026], [-85.3752246342987, 36.22394690920743], [-85.37515763398521, 36.22393190929244], [-85.37508263369703, 36.22389690899434], [-85.37497663348204, 36.22382890960019], [-85.37495163360916, 36.223803909493654], [-85.37491263348468, 36.22376490909859], [-85.37489463368078, 36.223747909502315], [-85.37485163313862, 36.22372690966494], [-85.37477563339345, 36.22367890895722], [-85.37474163362822, 36.22365790970716], [-85.3747326340073, 36.22364690939516], [-85.37466063347759, 36.22356190889996], [-85.37463063368715, 36.223506909251384], [-85.37459663370164, 36.22338990940087], [-85.37459263358512, 36.22335990879224], [-85.37452063350287, 36.22319790948262], [-85.37443563396161, 36.22311590935957], [-85.37438563298056, 36.22307490872437], [-85.37433363301994, 36.22304690898051], [-85.37425363313343, 36.223021909501355], [-85.37419363389601, 36.223012908848226], [-85.37229463295596, 36.22434390927219], [-85.36952563275159, 36.22621090969609], [-85.36859563211077, 36.226175909746395], [-85.36518663118157, 36.22620091023662], [-85.3653966313705, 36.22364390934768], [-85.36562963135552, 36.220594909130305], [-85.34870462551515, 36.21940390949182], [-85.3406856229968, 36.2188449098151], [-85.33980862366488, 36.2187839101424], [-85.33894262282676, 36.218723909701446], [-85.32671061903656, 36.217873910196], [-85.32671161911206, 36.21783891036684], [-85.3267826189346, 36.21674490965661], [-85.32684661878454, 36.216060910050714], [-85.32659061906446, 36.21504690939594], [-85.32649061857305, 36.21459390915018], [-85.3264626193698, 36.214422909412036], [-85.32573961839853, 36.21056290843079], [-85.3256576187462, 36.210097908974234], [-85.32551461831439, 36.20996290871657], [-85.32539561810633, 36.20964990830161], [-85.32482761837075, 36.208644908664006], [-85.32469961778872, 36.20841790857719], [-85.32459961783373, 36.208245907892554], [-85.32437961829488, 36.20778390795315], [-85.3243726175739, 36.207709908481405], [-85.3243116183664, 36.20711590825012], [-85.32417861792638, 36.20624790831532], [-85.3240716181749, 36.20558590763942], [-85.32398661814305, 36.20505090728529], [-85.32373061789967, 36.20442690770317], [-85.32368361745212, 36.20416990739875], [-85.32369461798191, 36.203854907357155], [-85.32428561741179, 36.20319990767843], [-85.32522261837346, 36.202406906924985], [-85.32690661874618, 36.200983906551436], [-85.32675061830906, 36.20090690710934], [-85.32289261709361, 36.199686906521045], [-85.32289361750468, 36.19968590633192], [-85.32291661752993, 36.19967390623369], [-85.32321761691838, 36.199460906961384], [-85.32364061714524, 36.199170906816775], [-85.32405061683382, 36.19893790610367], [-85.32412061782823, 36.19887590686151], [-85.32414361726553, 36.198827906845224], [-85.32417761698679, 36.19873190633132], [-85.32421961792338, 36.198649906502006], [-85.32434661699662, 36.19846990590571], [-85.3244566174566, 36.19836690602873], [-85.32452461767811, 36.1983119062072], [-85.32453761735553, 36.198302906006646], [-85.3246006175852, 36.198263906070544], [-85.32483761753349, 36.19817390656037], [-85.32494161808842, 36.19815190623083], [-85.3251166179581, 36.19812590635445], [-85.32517261760012, 36.19812290633233], [-85.32531961715955, 36.19809890636973], [-85.32536261780552, 36.19807790588278], [-85.32543861754, 36.19805690588408], [-85.32548961743893, 36.198035905879465], [-85.32552361827248, 36.198029905999796], [-85.32586161818736, 36.197857906556436], [-85.32599661739872, 36.19778190581676], [-85.32606061768882, 36.197732905882084], [-85.32610761788463, 36.19770990594093], [-85.32622561793443, 36.197629905836536], [-85.32625961788301, 36.1976029056271], [-85.32629361784944, 36.197553905798955], [-85.32642061815788, 36.197271906290474], [-85.32644061747112, 36.19718690612959], [-85.32652761771708, 36.19696890580712], [-85.32656361845407, 36.19688090627241], [-85.32661061808314, 36.196797906038555], [-85.32663961744275, 36.1967359055643], [-85.32672461759994, 36.196632905673724], [-85.32679261793015, 36.19656390538503], [-85.327071617966, 36.196350905367545], [-85.32733761787318, 36.19617190599647], [-85.32753661825436, 36.19600090555848], [-85.32764661848503, 36.195896905958406], [-85.32767161778985, 36.19586290565261], [-85.32773161816773, 36.19581390598026], [-85.32784061859307, 36.19574490535201], [-85.32804461792585, 36.195672905845676], [-85.32816261867762, 36.19565590601843], [-85.32820561799983, 36.19564190545258], [-85.32849261808575, 36.195620905708736], [-85.32862261816075, 36.19563690580132], [-85.32864361846288, 36.19564390545001], [-85.32880261837109, 36.195672905860725], [-85.32884061886315, 36.19568290562104], [-85.32900161837759, 36.19570990528416], [-85.32907761848203, 36.195709905830256], [-85.32926561846651, 36.195680905229274], [-85.32945061909682, 36.195630905578966], [-85.32954361824761, 36.19559890567221], [-85.32962861848732, 36.19556490556144], [-85.32974161933139, 36.19550990569021], [-85.3298566189732, 36.19544190539933], [-85.32992161875657, 36.19537990566089], [-85.3299576189947, 36.195347905434126], [-85.33005961843702, 36.19522190558593], [-85.33007661932304, 36.195159905296045], [-85.33007661922404, 36.195055905051646], [-85.33006361855368, 36.194990905652126], [-85.33004261893238, 36.194836905353675], [-85.33004661831527, 36.194722905342566], [-85.33005861839825, 36.194691905686895], [-85.33009261855278, 36.19464390516292], [-85.3301266190217, 36.19458190544513], [-85.33025761939325, 36.19449190559192], [-85.33033861898943, 36.19444390523172], [-85.33037161897374, 36.19443690525808], [-85.33044861866493, 36.19440290525889], [-85.33051961900064, 36.19439190530618], [-85.33066861890931, 36.19434790479988], [-85.33075261883542, 36.1943139055609], [-85.33086261899759, 36.194257905635666], [-85.33097261951349, 36.19417890559717], [-85.33105761914648, 36.194092904793585], [-85.33113361889315, 36.193989905079036], [-85.33117661926312, 36.19395490513259], [-85.33123261956187, 36.193921904961165], [-85.33126861927124, 36.193900905047435], [-85.33131161953342, 36.19386590505215], [-85.33142061952046, 36.19374890487166], [-85.33147961946077, 36.19363990487598], [-85.33148961883998, 36.193611905086684], [-85.33159061951572, 36.19347390538476], [-85.33174261871953, 36.193336905270606], [-85.33181961869595, 36.19325990463542], [-85.33189561872594, 36.19319890470047], [-85.33212261947963, 36.193038904506565], [-85.3322676193267, 36.19293790528219], [-85.33244561988172, 36.192840905162264], [-85.33247961966795, 36.19282690468877], [-85.33252561913842, 36.19279990505447], [-85.33269961997765, 36.192675905188835], [-85.33278361949132, 36.19257990451293], [-85.33281761993089, 36.19253090461889], [-85.33288461967054, 36.192358904444845], [-85.3329856200648, 36.19221490479641], [-85.33308361910298, 36.192104904544614], [-85.3333596197405, 36.191766904435006], [-85.33355262005054, 36.19159190436731], [-85.33359562014265, 36.191540904469015], [-85.33366261947484, 36.191388904479666], [-85.33368361979673, 36.19108990463594], [-85.33371361988931, 36.190908904399045], [-85.33373461958188, 36.190828904110646], [-85.33379761956188, 36.19065390444937], [-85.33386562006507, 36.19054990438606], [-85.33387361962758, 36.19052290455675], [-85.33389861961909, 36.19048790434825], [-85.33391662016504, 36.19044090405899], [-85.33397061948031, 36.19035790434407], [-85.33403462012005, 36.19027590428726], [-85.33407661970985, 36.190233904028894], [-85.33409361927743, 36.190199904205095], [-85.3341196198879, 36.19017190411019], [-85.33416961918091, 36.1900549040136], [-85.33418761992881, 36.19001990389574], [-85.33421262026295, 36.189972904307076], [-85.33425462024714, 36.18987690437029], [-85.33427961944219, 36.18980790421489], [-85.33455861945015, 36.1890649043514], [-85.33456261985052, 36.18905190415904], [-85.33454762031651, 36.1890189040264], [-85.33453761939651, 36.18896590374223], [-85.33454961998633, 36.18883790417155], [-85.33454661980369, 36.18882590363906], [-85.33494361936226, 36.18861990385783], [-85.33556762005463, 36.18831990397114], [-85.335935619865, 36.188143903649525], [-85.33750361997988, 36.18734090313092], [-85.33796162045829, 36.18712690325226], [-85.33809162109628, 36.18705490365019], [-85.33818262061494, 36.186977903544445], [-85.33822862037091, 36.186928902970564], [-85.33828162049241, 36.18684890329899], [-85.33839962056845, 36.18655790359992], [-85.33840262127102, 36.18655390314639], [-85.33844162090833, 36.18642890357019], [-85.33848762127565, 36.18623790370554], [-85.33854862036168, 36.186054903526845], [-85.33875562117473, 36.18566690305231], [-85.3388336209922, 36.185510902825996], [-85.33889762127903, 36.18537490316676], [-85.33893562127483, 36.18526390344567], [-85.33906162078587, 36.185060903106056], [-85.33920462040983, 36.18489490302673], [-85.33933462131833, 36.184776902848746], [-85.33956262092205, 36.18451290251163], [-85.33978162129942, 36.18429690300394], [-85.3398766204465, 36.184215902957746], [-85.34008562112425, 36.18407690293392], [-85.34018862073148, 36.18401290261243], [-85.34029562098635, 36.18395790238181], [-85.34102962160787, 36.183601902479076], [-85.34122862171756, 36.18350590251292], [-85.3412786210457, 36.18347590213794], [-85.34150962131805, 36.1833809027657], [-85.34163062118303, 36.18334490229805], [-85.34179262161321, 36.18330690276312], [-85.34229062158002, 36.18320690255483], [-85.3425886221354, 36.1831419021485], [-85.34262162226781, 36.18313190215942], [-85.34278262198154, 36.18310790227701], [-85.34294262143737, 36.1831009025452], [-85.34319162196627, 36.18310890249762], [-85.34337362168466, 36.18309690275231], [-85.34344662179383, 36.1830869019942], [-85.34352462144172, 36.18306990218366], [-85.34370462231179, 36.18304390266867], [-85.34382862220521, 36.18303090195744], [-85.3440366221684, 36.18303390244947], [-85.34424262263394, 36.18305890220672], [-85.34433962225155, 36.183058902733364], [-85.34443362200538, 36.183045902490306], [-85.34456462207008, 36.18301490219231], [-85.34461162209247, 36.18299290263579], [-85.34468362187715, 36.18296790239803], [-85.34486862234627, 36.18292390225945], [-85.34498262246589, 36.18290490231125], [-85.34511462268932, 36.18288790245554], [-85.34523962256779, 36.1828609019994], [-85.34532862265921, 36.18284990267211], [-85.34542862251728, 36.18284290231415], [-85.34557362217815, 36.18284690231942], [-85.34568662268786, 36.18286590227118], [-85.34575062299896, 36.182881902158556], [-85.34581962296079, 36.182911902183555], [-85.34587762230781, 36.182922902660316], [-85.34602262287488, 36.18296390230874], [-85.34620862287933, 36.183002902232175], [-85.34642462244906, 36.183040902566546], [-85.3466956225161, 36.18306990190802], [-85.34681162284389, 36.18308690182732], [-85.34689762291553, 36.183106901846045], [-85.34698862263967, 36.18314390220654], [-85.34716262273074, 36.18323690210346], [-85.34727662293696, 36.18328490208175], [-85.34775162342, 36.183446902505636], [-85.34785462297192, 36.18349390248603], [-85.34790462355588, 36.183523902315045], [-85.3479996231712, 36.18358890210366], [-85.3480566228406, 36.183632901927865], [-85.34810262282099, 36.183656902036795], [-85.34815262348924, 36.18367690232531], [-85.34822462341656, 36.18368890195201], [-85.34830162328029, 36.183681902110735], [-85.3483326234967, 36.18366790261178], [-85.34843162346861, 36.1835939022022], [-85.3485096234981, 36.1835099025067], [-85.34859662307552, 36.18337090259881], [-85.34864862380063, 36.18325290232602], [-85.34878662358932, 36.182998902264266], [-85.3489536230857, 36.18274990178097], [-85.34899562397013, 36.18266090211339], [-85.34905662372584, 36.182493902006705], [-85.34908662397469, 36.182413902428756], [-85.34910862369271, 36.18232990228912], [-85.34910762356611, 36.18196790186998], [-85.34910262402391, 36.18183390224448], [-85.34907962375875, 36.18168390198345], [-85.34905262391278, 36.18158590157197], [-85.34898862328924, 36.18144290196045], [-85.34895162334965, 36.181374901792985], [-85.34877662323849, 36.18114190142419], [-85.34859962380962, 36.18085790139473], [-85.34822962369338, 36.18023090162001], [-85.34818862345134, 36.18015390127009], [-85.34817862340797, 36.180118901938854], [-85.34818462300527, 36.18002190140746], [-85.34821362285666, 36.17995690161826], [-85.3482786227015, 36.179880901669094], [-85.34833962339195, 36.179815901567245], [-85.34825562269782, 36.17976090130312], [-85.34776762269954, 36.17935690159643], [-85.34697362245721, 36.178646901101516], [-85.34679862219858, 36.17847490103821], [-85.34674462248186, 36.178421901490765], [-85.3466076223633, 36.17826890159297], [-85.34623362255891, 36.17781890118553], [-85.34599762215689, 36.177548901127295], [-85.34576062238477, 36.17730390146062], [-85.34564662243024, 36.17720890113136], [-85.34544062216737, 36.177055900706], [-85.34537962170023, 36.177017900944364], [-85.34528762201974, 36.17694190092165], [-85.34503562221873, 36.17678190076687], [-85.34496462151124, 36.17674690089353], [-85.34490662248537, 36.17672390148904], [-85.34477262151269, 36.17668490138177], [-85.34459362189719, 36.176658900798316], [-85.34434162135112, 36.176645900659075], [-85.34419162227357, 36.17664090128953], [-85.3435106219201, 36.176636901282556], [-85.34331462136515, 36.17662890089725], [-85.34318762103537, 36.17660390120137], [-85.34307362137159, 36.176558901104954], [-85.34300462167515, 36.1765259009385], [-85.34289662105824, 36.17638890134765], [-85.34284862093577, 36.17629490108343], [-85.342815621126, 36.17617690084437], [-85.34278462083209, 36.17611290135345], [-85.34272162122045, 36.17600890101651], [-85.34265762074384, 36.17592590081961], [-85.34246562100098, 36.175738901186094], [-85.34233162104307, 36.17554790112225], [-85.34214262123649, 36.175196900865664], [-85.34194762095998, 36.174833900647165], [-85.34180762100867, 36.1746019005177], [-85.34172062068942, 36.17449390052774], [-85.34161162046524, 36.174392900420855], [-85.34117562091944, 36.17406190094011], [-85.34113262119952, 36.174026901080815], [-85.34081662048905, 36.173803900536704], [-85.34075162032964, 36.17375190071241], [-85.34062562102015, 36.173651900968366], [-85.34039162049314, 36.17346790033829], [-85.3400396203754, 36.17320190018113], [-85.33994462056067, 36.173155900494365], [-85.3398836204268, 36.1731339006437], [-85.33978162034883, 36.17310990013266], [-85.3396876206011, 36.17309590041151], [-85.33932961974703, 36.17309490040961], [-85.33924961965404, 36.17309890031289], [-85.339183620061, 36.17310490099935], [-85.33912562059463, 36.17311090038823], [-85.33902962031233, 36.17312890102657], [-85.33882161944163, 36.17318290090236], [-85.3387606197526, 36.17320490086062], [-85.33818361997477, 36.17338690053241], [-85.33797661983702, 36.1734579003878], [-85.3378706192605, 36.173506900847656], [-85.33775061949177, 36.17357290056738], [-85.33766961955608, 36.173625900808986], [-85.33746561980034, 36.17381590048462], [-85.33740961922787, 36.173878901143446], [-85.33735861962035, 36.17394590107813], [-85.33717961964254, 36.17422490074117], [-85.33706561985873, 36.17434890080207], [-85.33702761959061, 36.1743739012131], [-85.33691461922221, 36.174442900978605], [-85.33684362003049, 36.174472901392605], [-85.33679461934226, 36.17448790130921], [-85.33673161913242, 36.17449690120804], [-85.3366576197002, 36.174497900537425], [-85.33657061952336, 36.174493901185265], [-85.33611761892357, 36.174383901192925], [-85.33588261923553, 36.17434390121535], [-85.33556261884787, 36.17432190062308], [-85.33493461902485, 36.174300900959615], [-85.33435961824543, 36.17430090123654], [-85.33435261905443, 36.17429990099598], [-85.33418361876673, 36.17429290074355], [-85.33376361853466, 36.174245900692945], [-85.33298461825953, 36.1741779011574], [-85.33277861804292, 36.17415390130804], [-85.33269261877908, 36.17413590092224], [-85.33259161852999, 36.17410890137463], [-85.33254261823271, 36.17409590104864], [-85.33246761791217, 36.1740699013575], [-85.33237061863137, 36.174033901241806], [-85.33230161854009, 36.17399790091238], [-85.33227761834219, 36.1739849008715], [-85.33209061800461, 36.17385490147216], [-85.3319926183399, 36.17377590092951], [-85.33192961834523, 36.173714901105384], [-85.33178161754428, 36.173563901403945], [-85.3316246178172, 36.17336790136094], [-85.33145061788504, 36.17314990092478], [-85.33143061801685, 36.17312590046087], [-85.33191561754144, 36.17314590080864], [-85.33211461795689, 36.1728789007555], [-85.33251261820499, 36.17255790065631], [-85.33290961839951, 36.17255790080341], [-85.33350661883503, 36.17239690086918], [-85.33390461867785, 36.17228990030777], [-85.33436861901777, 36.17196990088913], [-85.3345006182673, 36.17143490006499], [-85.33483261918343, 36.17084590012684], [-85.33509761895439, 36.17041789986638], [-85.33595961887559, 36.17020489988762], [-85.33688761954089, 36.169990899984334], [-85.3374186198592, 36.16929489961156], [-85.33755061932952, 36.16854689943869], [-85.33774961879548, 36.16795789929374], [-85.33821361928267, 36.16747689907376], [-85.33827761980434, 36.16740989966742], [-85.33894262006694, 36.1667278997213], [-85.33920861982662, 36.16624689879336], [-85.33953961929237, 36.165497898877064], [-85.3398716197682, 36.16501689882097], [-85.34026861979625, 36.16469589893082], [-85.34093162007572, 36.16442789910475], [-85.3416616205375, 36.16421389878433], [-85.34239062087174, 36.16389289898836], [-85.34285462002128, 36.163625898690874], [-85.34351762107832, 36.16351889861373], [-85.34418062133815, 36.163572898002684], [-85.34490962059658, 36.163465898305724], [-85.34537362148924, 36.16335889827477], [-85.3511416230355, 36.1586518967712], [-85.3515396222573, 36.158330897498054], [-85.35187062231694, 36.15806389672151], [-85.35193762288803, 36.15790289727449], [-85.35200362242763, 36.1566728971507], [-85.35240162267127, 36.156351896746074], [-85.35279962288236, 36.156137896503445], [-85.35332962312458, 36.1556028966988], [-85.35366062258382, 36.155121896015196], [-85.35452262366802, 36.154800896143655], [-85.35564962390626, 36.15437289608069], [-85.35657862434107, 36.154212895654126], [-85.35790362437976, 36.15378489546049], [-85.35843462434984, 36.15367789627976], [-85.35896462491775, 36.15357089576712], [-85.35922962507898, 36.153891895403646], [-85.35962762432764, 36.154319896051], [-85.35992562535601, 36.15442189568396], [-85.36110362487634, 36.154954896129766], [-85.36181962572905, 36.15496989637039], [-85.36275662563534, 36.15499089572542], [-85.36505862664434, 36.153694895292254], [-85.3685666278264, 36.153002895361034], [-85.3696676280473, 36.15263589557672], [-85.37017562757535, 36.15277289554933], [-85.37090962760384, 36.15277289473614], [-85.37120062760297, 36.15260689469997], [-85.37129662762425, 36.15255089476266], [-85.3715846286799, 36.152385894798726], [-85.37168162819256, 36.15233089475303], [-85.37165462774581, 36.1522848952396], [-85.3716406283834, 36.152222894813164], [-85.37163962830894, 36.15218189479052], [-85.37164862837152, 36.15214389486768], [-85.37173162825684, 36.15189589497027], [-85.37175462841243, 36.15184889491771], [-85.37179962814734, 36.1517818950145], [-85.37186362839786, 36.15172489526631], [-85.37191462837232, 36.15168689492666], [-85.37195962866609, 36.15166389459415], [-85.3720526283226, 36.15162789457085], [-85.37217362803571, 36.15159089465082], [-85.37231262808524, 36.151563894916904], [-85.3723876286709, 36.151556894661965], [-85.37253262834004, 36.15155689525352], [-85.37282962881916, 36.151583894465126], [-85.37313562885376, 36.15159089471995], [-85.3735466282095, 36.15159489466563], [-85.37368162822577, 36.15160789494591], [-85.3739686286969, 36.15164589433108], [-85.37409062883802, 36.15167089461251], [-85.3742666285706, 36.15170889520415], [-85.37467562869026, 36.15180889509867], [-85.37498262862991, 36.15186389436395], [-85.37511862901778, 36.15188189481071], [-85.37525062927884, 36.15189489492128], [-85.37550762923294, 36.15194089443794], [-85.37565262874817, 36.15197589449283], [-85.37575362920246, 36.15200789449079], [-85.37593962935134, 36.15207889450302], [-85.3761176296641, 36.15216289502925], [-85.37627862910684, 36.15225489444258], [-85.37682862949694, 36.152690895027185], [-85.37716262945763, 36.15296689495146], [-85.37728562966088, 36.153088894532125], [-85.37739262985144, 36.15322389504865], [-85.3774376301211, 36.153292895280046], [-85.3777796298243, 36.15365589472309], [-85.37800263035692, 36.153898895155294], [-85.37803662984251, 36.15394189473252], [-85.37808662965271, 36.153993894741035], [-85.37816263051123, 36.1541168948978], [-85.37822363061773, 36.15424589491818], [-85.37824763030015, 36.15431589516858], [-85.37828463009214, 36.15445189506301], [-85.37831662988158, 36.15450989475814], [-85.37835962975325, 36.154565895331174], [-85.3784386303517, 36.154659895537534], [-85.37850963047573, 36.15473589505381], [-85.37871963090633, 36.154943895131254], [-85.37887162989898, 36.155119895349635], [-85.37909263004711, 36.15537989554302], [-85.37916263062846, 36.15546989510787], [-85.37935463038214, 36.155745895286245], [-85.37975263068765, 36.156379895717144], [-85.37993263097533, 36.156653895504284], [-85.3800106304305, 36.15679489561719], [-85.38004263108346, 36.156859895804445], [-85.38007263127766, 36.15692689551692], [-85.38017763116761, 36.15712689553324], [-85.38022963088541, 36.15719989522256], [-85.38025563044248, 36.15722889521683], [-85.3802886313632, 36.15726689599659], [-85.3803426312159, 36.15731889571896], [-85.38039463089585, 36.15736289547242], [-85.38042363147493, 36.157383895926735], [-85.38058663146575, 36.157515895793104], [-85.38063663071833, 36.157568895973185], [-85.3807426314461, 36.15769689528987], [-85.38094663099623, 36.15800189556181], [-85.38113363094722, 36.158265895574175], [-85.38127363089879, 36.158442895408356], [-85.38136063171184, 36.15854689621188], [-85.38153763118738, 36.15877489572077], [-85.38166363091266, 36.158917896288926], [-85.38173263196467, 36.15898389578151], [-85.38181363173311, 36.15904789551312], [-85.38185263132723, 36.159074896044814], [-85.38191563136468, 36.15911489578543], [-85.38193963177117, 36.159128896302136], [-85.38196463133772, 36.159142895621876], [-85.38198263137504, 36.15915389574972], [-85.38216063134462, 36.15929689618311], [-85.38218063136091, 36.15942789576006], [-85.3822516319915, 36.15966289591157], [-85.3819996319335, 36.159669896435815], [-85.3818856310854, 36.15967789621164], [-85.38181763208878, 36.15969689616966], [-85.38176263187505, 36.15972889575821], [-85.38172563197894, 36.15975089613211], [-85.38169563133046, 36.15980389603744], [-85.38150463164598, 36.160024895841424], [-85.38124463168138, 36.16035689584173], [-85.38080163087687, 36.160877896071355], [-85.38074163158622, 36.16094889678863], [-85.38046663089405, 36.161249896777626], [-85.38014963098311, 36.16161189667805], [-85.3797786305931, 36.16206089619288], [-85.37971163150131, 36.16214289633433], [-85.37955863116407, 36.16235189693525], [-85.37938363118965, 36.162645896435365], [-85.37897163101995, 36.1634698965789], [-85.37864363042931, 36.164198896952016], [-85.37859763038068, 36.1643738973094], [-85.37857463147479, 36.16451489711459], [-85.37852663147096, 36.16495289699234], [-85.37846563140265, 36.165512897234315], [-85.37843563144958, 36.16589489712612], [-85.37844063072248, 36.16598389782084], [-85.37844363134424, 36.16601289774844], [-85.3784646314413, 36.16619189759834], [-85.37852363087059, 36.166424897332185], [-85.37861163080115, 36.16665689722482], [-85.37867363161193, 36.16678589808003], [-85.37881663066464, 36.166994897802844], [-85.37892363163277, 36.167117897904724], [-85.37904563084648, 36.16723289799259], [-85.37915763103669, 36.16732789807069], [-85.37929963092424, 36.16742789748523], [-85.37945063189656, 36.16753489801516], [-85.37963163106676, 36.167633897957515], [-85.37978463197904, 36.16772389799421], [-85.38016363163614, 36.167896897376025], [-85.38041063140906, 36.16802389736399], [-85.38101463149155, 36.16828589804967], [-85.38123063216514, 36.16835789762031], [-85.38133863162514, 36.16838789803239], [-85.38138463186257, 36.16839589814055], [-85.38155063167552, 36.16843689805138], [-85.38186463220165, 36.1684728976412], [-85.38224063170453, 36.16848289792516], [-85.38274463210715, 36.16846689790555], [-85.38297763301108, 36.16846989806996], [-85.38304363196644, 36.168473898153984], [-85.38312563267418, 36.16851389780726], [-85.38315063216506, 36.16854189786738], [-85.3831736321264, 36.168580897467066], [-85.38318363288973, 36.16862989767999], [-85.3831266329998, 36.168828897868956], [-85.38302963237784, 36.16906889815449], [-85.38299063237731, 36.169129897787684], [-85.38295663202545, 36.169197897798696], [-85.38292963206551, 36.16926789832961], [-85.38289563295827, 36.16939589774171], [-85.38288263268808, 36.16946489823896], [-85.38288063214007, 36.16952189795149], [-85.38288063215776, 36.16952689812784], [-85.38288663254204, 36.169603897993206], [-85.38290763214131, 36.16969989824356], [-85.38293763301496, 36.16978489779349], [-85.38309163236718, 36.17007689835333], [-85.38311063235741, 36.17012589768124], [-85.383125633143, 36.170193898502404], [-85.38313763216388, 36.170331898147786], [-85.38309163288021, 36.17067189845775], [-85.38307563290766, 36.17080789839671], [-85.38308263291442, 36.170891897989776], [-85.38309163317855, 36.17106189854243], [-85.38311363250999, 36.17112889867049], [-85.3831446331677, 36.17117589813488], [-85.38312163292055, 36.17120289851234], [-85.38297063229697, 36.171324898634076], [-85.3828386321722, 36.1714058983985], [-85.38273963297402, 36.17144889855125], [-85.38265663242011, 36.171476898815115], [-85.38242763201525, 36.171526898037364], [-85.38197863202554, 36.1715958983712], [-85.38176163262, 36.17162789839084], [-85.3810166326423, 36.17170989884921], [-85.38090463178554, 36.17172289827799], [-85.38079063205781, 36.17174589851187], [-85.38070863204473, 36.171772898571525], [-85.38061163212124, 36.17181289884455], [-85.38048663199861, 36.17188089888513], [-85.38037363244842, 36.17197989875046], [-85.38028063182588, 36.17208689890317], [-85.3801706324415, 36.17227689857062], [-85.38008363139011, 36.17245789913262], [-85.38001763169578, 36.172653898963254], [-85.37998963170155, 36.17283489875205], [-85.37998663235574, 36.172911898442365], [-85.37996363195516, 36.17309789883108], [-85.37995163187256, 36.173313899065924], [-85.37993263215121, 36.17352589870278], [-85.37991863149337, 36.173827899153004], [-85.37991763141243, 36.17398289932595], [-85.37993263202712, 36.17416289872569], [-85.38001663223297, 36.17448289950792], [-85.3802086318598, 36.17498789958359], [-85.38039063162297, 36.17540989903183], [-85.3804976321783, 36.175649899354006], [-85.38057363234093, 36.17575689895332], [-85.38063763253034, 36.17582489906441], [-85.38070363177243, 36.17588289914518], [-85.38084863252745, 36.17598189970296], [-85.38094763189576, 36.17603989947009], [-85.3810556324744, 36.17608789900825], [-85.38121463234363, 36.176149899536526], [-85.38153463308092, 36.17624189940383], [-85.38180163208764, 36.17630989962861], [-85.38240563335911, 36.176447899461415], [-85.38258363285446, 36.176488899683626], [-85.3833736332453, 36.1766798996792], [-85.38457863361077, 36.1769818997534], [-85.38540263367305, 36.17718389912752], [-85.38622163444079, 36.17738789975594], [-85.3862746340834, 36.177402899343356], [-85.38639463366967, 36.17743589959553], [-85.38665463466472, 36.17751589962826], [-85.38686663419259, 36.177599899305804], [-85.38697063442417, 36.17765489936939], [-85.38713063378017, 36.17775889921191], [-85.38717763469424, 36.177800899289636], [-85.387253633882, 36.17787389921533], [-85.38732263439663, 36.17794989989837], [-85.38777363445669, 36.178494899527784], [-85.38799363418345, 36.17874489934426], [-85.38886563501426, 36.17980090018929], [-85.38896263543181, 36.17993289958056], [-85.38910363547514, 36.1801448997044], [-85.3891326349437, 36.18019890001406], [-85.38917163494231, 36.18028989964718], [-85.38920963545478, 36.18041890010671], [-85.38921763554013, 36.180502899641404], [-85.38922563478108, 36.18053690028045], [-85.38923263499743, 36.180654899980595], [-85.3892276355156, 36.18071889979445], [-85.38920963452568, 36.18097990028697], [-85.38920963501526, 36.18107890036622], [-85.38919463482392, 36.181211900065186], [-85.3891846350428, 36.18137190049778], [-85.38918363556367, 36.181397900228575], [-85.38917063547309, 36.18153390039482], [-85.38917163510253, 36.18158990037207], [-85.38915663561599, 36.18171989977723], [-85.38914863553426, 36.18186489991751], [-85.38911963558324, 36.18209590049773], [-85.38903463553137, 36.18279890083143], [-85.38901963469117, 36.18295890020735], [-85.38895863531113, 36.18360790061418], [-85.38895663482903, 36.18361590083104], [-85.38894263499472, 36.183729900739536], [-85.3889046349108, 36.18412290098684], [-85.38909563538593, 36.18413390042192], [-85.39036663565616, 36.18415190023867], [-85.39039263608053, 36.18415290034173], [-85.39076663601968, 36.18414990081822], [-85.39082163591823, 36.18413690019689], [-85.39089663573958, 36.18409990094448], [-85.39096463524088, 36.18403490043644], [-85.39113263586204, 36.18377590027232], [-85.39126263589434, 36.18363490044031], [-85.39136163584803, 36.18357390076524], [-85.39149163593025, 36.18353890071485], [-85.39168963606826, 36.18353190085731], [-85.39239163562988, 36.18357390072113], [-85.39255163572068, 36.183576900461496], [-85.3929416364223, 36.18360090057162], [-85.39319263684365, 36.18362290031422], [-85.39324563692254, 36.18364190015764], [-85.39330663684655, 36.1836839005121], [-85.39334563644164, 36.18375690064597], [-85.3933376369834, 36.18423690039601], [-85.39334563687243, 36.18425990092412], [-85.39332963663718, 36.18442390087621], [-85.39327663619, 36.18449690099966], [-85.39323863682776, 36.18452290043762], [-85.39316963700414, 36.184553901011924], [-85.3930626365642, 36.184568900723], [-85.39296663683403, 36.18456690033938], [-85.39248263605884, 36.184557900959405], [-85.39238363673265, 36.18457290067771], [-85.39233063633269, 36.18459990042484], [-85.3922996358112, 36.18462290027746], [-85.39226163588397, 36.18468390047493], [-85.3922466366499, 36.18475190112522], [-85.39225463610823, 36.1850379009038], [-85.39228463639037, 36.18538890072615], [-85.3922986358291, 36.18570790118973], [-85.39230863582097, 36.18593190115618], [-85.39236063657636, 36.18666290135514], [-85.39237663640499, 36.18688090117223], [-85.39239963583483, 36.18697990146245], [-85.39255963658768, 36.1869689011003], [-85.39302463644826, 36.186937900704464], [-85.39309563663937, 36.18693490138133], [-85.39357363710009, 36.18691890068519], [-85.39409263712092, 36.186914901267855], [-85.3941996371647, 36.186914901083604], [-85.3951456374215, 36.186922901432325], [-85.3951876371836, 36.18692290095318], [-85.39581563745647, 36.1869269007071], [-85.3958856369811, 36.18693090107222], [-85.39641963785384, 36.18693790070787], [-85.39674763811323, 36.18694590113994], [-85.39674163730287, 36.18688690131072], [-85.3967306374393, 36.18660690112141], [-85.39669463708384, 36.186319901223364], [-85.39668663762795, 36.18620590056749], [-85.39666363726698, 36.18606790119077], [-85.39675563763454, 36.18612590050076], [-85.39683163790829, 36.18614890077103], [-85.3968836381696, 36.1861519003683], [-85.39708363785559, 36.18615190075532], [-85.39711463789479, 36.186154900821485], [-85.39715263763695, 36.186163900322086], [-85.39724363824698, 36.1862059006368], [-85.39728963814497, 36.18623190070742], [-85.39735863806654, 36.18628590032556], [-85.39744263726277, 36.186376900882784], [-85.39744463780383, 36.18650990058112], [-85.39746463790955, 36.18675490042106], [-85.39745763783921, 36.1868659006769], [-85.3974646383611, 36.18695290105881], [-85.39757163767796, 36.18694890082811], [-85.3978396381599, 36.1869259013263], [-85.3979686383, 36.18690390071251], [-85.39803863812351, 36.18689190079947], [-85.39817263768414, 36.18685790128851], [-85.39833363777616, 36.18680690068326], [-85.39840363851116, 36.18677790114227], [-85.39860963822194, 36.1866699011839], [-85.39875363818892, 36.18656790088523], [-85.39907763853952, 36.18631090057069], [-85.39934963859861, 36.18610290042804], [-85.39940963844408, 36.18604990066313], [-85.39942563869364, 36.18603790077355], [-85.39983063896882, 36.185739900508125], [-85.40004363829418, 36.18555690091659], [-85.40014263900372, 36.185453900236254], [-85.40020263849752, 36.18539390004248], [-85.40034063894254, 36.18522990060559], [-85.40048563829734, 36.18502590031859], [-85.40059963898764, 36.18485590071741], [-85.4010196389316, 36.184291900350445], [-85.4010396387154, 36.18426590019965], [-85.40171463902435, 36.18342089975222], [-85.40276763852883, 36.182138899906754], [-85.4028896386661, 36.18199389963975], [-85.40313363959145, 36.181715899817405], [-85.4032706393239, 36.18154789942788], [-85.40349963975692, 36.1812958997582], [-85.40365263958869, 36.18114389952521], [-85.40388863979848, 36.1809068989938], [-85.40393263943425, 36.18086489974223], [-85.40434663936345, 36.18047589924684], [-85.4044086395855, 36.18042389910398], [-85.40457563935342, 36.18026989927758], [-85.40489763947382, 36.17998889900776], [-85.40504063941134, 36.17986989936503], [-85.40509963943657, 36.17982589892539], [-85.40519363956528, 36.17974689949279], [-85.40529564001316, 36.17967089911668], [-85.40540064018634, 36.179600898654954], [-85.40544563913203, 36.17956389941598], [-85.40578263923467, 36.17934189911407], [-85.40582963964202, 36.17931889884353], [-85.40602563979996, 36.17919789853868], [-85.4062506393643, 36.17908389909488], [-85.40629063937554, 36.179064899125635], [-85.40639163971606, 36.17901889924359], [-85.40677264029358, 36.17887389845297], [-85.40692864032559, 36.17882589903496], [-85.40745963990582, 36.17867589914954], [-85.40803163983429, 36.17851489901877], [-85.40811564091435, 36.178488898774], [-85.40896264052034, 36.1782408986895], [-85.40953464119053, 36.17805789815439], [-85.4097716409593, 36.17795489838128], [-85.41033864045825, 36.17766289808036], [-85.41043464129562, 36.17761489845309], [-85.41095364115817, 36.17733689882939], [-85.41115964073221, 36.1772178983059], [-85.41135864157634, 36.177091898411085], [-85.41157964173169, 36.17692489832955], [-85.41175464137946, 36.17676089837025], [-85.41213864185494, 36.176422898023326], [-85.41222064195999, 36.17634389774734], [-85.41229664171352, 36.17627189798342], [-85.41256364143491, 36.17603189763764], [-85.41289964143998, 36.17573389772895], [-85.41335764224205, 36.175360898047636], [-85.41363964152552, 36.17514689817745], [-85.41386064232826, 36.17500189800961], [-85.41413164240291, 36.17483689794631], [-85.41426764245823, 36.17476189764729], [-85.41433364249173, 36.17472689773002], [-85.4144326422335, 36.17467389758862], [-85.41502764254771, 36.174349897533396], [-85.41511664260223, 36.17429989731347], [-85.41538764203341, 36.17415089799586], [-85.41547764249393, 36.17410189733939], [-85.41548764218295, 36.17409589744307], [-85.41552064227928, 36.17407989774398], [-85.41553164170709, 36.17407489766979], [-85.4159586424047, 36.17383889717533], [-85.41647464205194, 36.17357589756045], [-85.41682564240729, 36.17338389713259], [-85.41718964299578, 36.173147897015404], [-85.4174986426946, 36.17291489743492], [-85.41798464258474, 36.17253389670847], [-85.41815364307146, 36.17239889688954], [-85.4191606432274, 36.17160089732581], [-85.41947564345632, 36.1713318965567], [-85.41986064363162, 36.17100989695099], [-85.42011664363261, 36.17078589626149], [-85.42026464316584, 36.170667896581996], [-85.42052164310986, 36.17047789697087], [-85.42060364366992, 36.17042089689107], [-85.42078864299647, 36.17030989666651], [-85.42103964329615, 36.17018089654806], [-85.42132864361838, 36.1700688964157], [-85.42144464344328, 36.17003089679327], [-85.42181364347223, 36.169929896620694], [-85.42247464434064, 36.16976089617579], [-85.42289564455119, 36.1696588959622], [-85.42338964420124, 36.16954689662642], [-85.42355764445642, 36.1695198962556], [-85.42405364427702, 36.169454896103716], [-85.42457964414156, 36.16940989609671], [-85.42581764522153, 36.169328896288604], [-85.42607564547201, 36.16930289642251], [-85.42620964462468, 36.16929389638485], [-85.42645264506315, 36.16926889599868], [-85.4265256449157, 36.169264896105105], [-85.42665564521539, 36.169252896122856], [-85.42714364507803, 36.169210895786314], [-85.42754364516449, 36.169173896295014], [-85.42771564543273, 36.16916189608545], [-85.42778464520754, 36.16915289612997], [-85.42821164589152, 36.16911189558159], [-85.42857764575687, 36.169061895921445], [-85.42885264594612, 36.16900889600521], [-85.42910464568105, 36.16894389551829], [-85.42933964615828, 36.168870895709745], [-85.42972264581731, 36.1687418959405], [-85.42996764610776, 36.16865689598255], [-85.43012164586551, 36.16860389576668], [-85.4305276463166, 36.16844989577959], [-85.43069964644404, 36.16838789600365], [-85.43082864583381, 36.16834189597891], [-85.43088964631191, 36.16831689530276], [-85.43094264625594, 36.16829589540007], [-85.43108064636507, 36.16823889536439], [-85.43127864690031, 36.16815089533826], [-85.4317136466095, 36.16800589545154], [-85.43195064668377, 36.16793589575212], [-85.43220364641611, 36.167879895246564], [-85.4323286471551, 36.16786589550164], [-85.43233964715934, 36.167864895471794], [-85.43256564719069, 36.16786089581642], [-85.43281264646305, 36.16787889581864], [-85.43318264720658, 36.16790089597577], [-85.43337964663782, 36.16792089511228], [-85.43348364666089, 36.167936895697075], [-85.43366164681888, 36.16799089516499], [-85.4338446466678, 36.168061895661225], [-85.43397764672248, 36.16812989546028], [-85.43432064689492, 36.168330895313396], [-85.434833647861, 36.16864289574131], [-85.4349506473032, 36.168717895277496], [-85.43515364720541, 36.168833896009865], [-85.43524564817595, 36.1688908955692], [-85.43535964728164, 36.16894589533985], [-85.43546764740418, 36.16900889531969], [-85.43577964811216, 36.169153896106295], [-85.43633664804987, 36.16937089527825], [-85.43634464799081, 36.16937289556937], [-85.43658264849546, 36.16944189555767], [-85.43671964767606, 36.169471896042666], [-85.43691664860751, 36.16949689585093], [-85.43706364842262, 36.169500895443306], [-85.43735964777062, 36.169500895766774], [-85.43771764863251, 36.16948189556548], [-85.43778664820543, 36.16947389569616], [-85.43849464874191, 36.169407895766504], [-85.4388496485351, 36.16937589568017], [-85.43916764903656, 36.16933689563888], [-85.43938364861046, 36.16930589553744], [-85.43964364940682, 36.16925989517374], [-85.43979264898589, 36.16922289545753], [-85.44000664885272, 36.169141895086], [-85.44035364873345, 36.168986895332445], [-85.4405476489344, 36.16889389569827], [-85.44058664921285, 36.16887589545544], [-85.44070764920365, 36.16882189515742], [-85.44083864902635, 36.16876889549262], [-85.44094564904991, 36.16871489498845], [-85.4411966489918, 36.16860089501131], [-85.44123964934107, 36.168579895676665], [-85.44137064989211, 36.16851989539464]]]]}}]}