{"type": "FeatureCollection", "features": [{"type": "Feature", "properties": {"name": "District 6", "slug": "district-6", "ccd": 6}, "geometry": {"type": "MultiPolygon", "coordinates": [[[[-85.53159567625097, 36.17298589196437], [-85.53190267581073, 36.173113892222894], [-85.53190867620258, 36.173116892317275], [-85.53192667626928, 36.173125892594406], [-85.53193367597657, 36.17312889205642], [-85.53209067565093, 36.173193892284495], [-85.53256167632847, 36.17339189199453], [-85.53271967568351, 36.173458892434496], [-85.53274967636958, 36.17347189282188], [-85.53303167603725, 36.173574892799834], [-85.53347467669002, 36.173704892222425], [-85.53354767617513, 36.17372089211431], [-85.53363567639587, 36.17374089288238], [-85.53402367604792, 36.17381189201671], [-85.53435167620519, 36.173853892404004], [-85.53444367696437, 36.17386089218031], [-85.53480967627615, 36.17387689264959], [-85.53513767648613, 36.173872892069575], [-85.53541267710574, 36.173857892368325], [-85.53563367674815, 36.173834892115174], [-85.53579367676915, 36.17380789237228], [-85.53613467672294, 36.17374189261604], [-85.53615267752984, 36.17373889213659], [-85.53698367787837, 36.17355189208183], [-85.53710967765525, 36.17352589214033], [-85.53747767708462, 36.17342589248539], [-85.53751367727402, 36.1734118925366], [-85.53752767763406, 36.173407892361205], [-85.53761467719171, 36.17338989245505], [-85.53871867797324, 36.17313689194761], [-85.53878967825905, 36.1731178918536], [-85.53900467783967, 36.17307289187025], [-85.53912067800763, 36.173053892196], [-85.53927267780966, 36.17302989180434], [-85.53959867810623, 36.172992892090676], [-85.53966567851943, 36.17298789244448], [-85.5397686780753, 36.1729798918761], [-85.53985867801231, 36.17297989161822], [-85.54008167812252, 36.17297989162252], [-85.54015767814263, 36.17298289212999], [-85.54024167788535, 36.17299189202943], [-85.54043867841887, 36.17301489224514], [-85.54045567818187, 36.17301789233291], [-85.54063067868312, 36.17304489203363], [-85.54072167788095, 36.173059891711354], [-85.54129167896005, 36.173191892124734], [-85.54140867875643, 36.1732198923604], [-85.54185667875959, 36.17333389183413], [-85.542356678855, 36.17345289225425], [-85.54246967930678, 36.17348389187086], [-85.5427816792161, 36.173551891724344], [-85.5428736796117, 36.173567892149414], [-85.54296567944252, 36.17358689185656], [-85.54327067867517, 36.173624892019845], [-85.54327867875995, 36.17362489164748], [-85.54395467974577, 36.17368289232519], [-85.54407967892094, 36.17369389199888], [-85.5442626796197, 36.1737048915401], [-85.54426867996465, 36.17370489166323], [-85.54521367964624, 36.17377689207538], [-85.54542068012115, 36.17379289208245], [-85.54552868014507, 36.17380389202621], [-85.54609168034297, 36.17383989195322], [-85.54672768054091, 36.173880892245435], [-85.5471946800293, 36.17390489228117], [-85.54736068038322, 36.173919891582024], [-85.54778268015212, 36.1739018918649], [-85.54783268083595, 36.173899891846], [-85.54834368051041, 36.17383489177858], [-85.54846868101374, 36.17381689195594], [-85.54857268068538, 36.17380389199931], [-85.5488466806044, 36.17376789222682], [-85.54889368040047, 36.173761891628835], [-85.54897268094092, 36.17375289136827], [-85.54899268087024, 36.17375089142345], [-85.54907668056802, 36.173738891493535], [-85.54927868134592, 36.17371289147826], [-85.54937368121736, 36.17370089185956], [-85.54939068107174, 36.17369789197984], [-85.54949568121837, 36.173681892005035], [-85.55005368125853, 36.17360889209881], [-85.55097668122886, 36.173490891342276], [-85.5513116816515, 36.17346489142217], [-85.55167768111944, 36.17345689187912], [-85.55173368128283, 36.173459891923336], [-85.55215068179339, 36.17348389168602], [-85.5521556818895, 36.17344289173712], [-85.55148168184706, 36.173438891338314], [-85.55082868191033, 36.173466892034526], [-85.55005068151691, 36.17354589178904], [-85.54949168105962, 36.17360389208053], [-85.54938668063255, 36.17361389154105], [-85.54907368089256, 36.17364589221549], [-85.54896968065536, 36.17365689183036], [-85.54922568085468, 36.17314389153581], [-85.54929168128065, 36.17301289191906], [-85.54942268059858, 36.1728008918843], [-85.54949268103522, 36.17268789148892], [-85.54986268124107, 36.17209789161104], [-85.55024268071801, 36.17196489141543], [-85.55030268150257, 36.171895890975655], [-85.55051568144684, 36.17165289121484], [-85.55053468114647, 36.171403891116725], [-85.55053668143553, 36.17136689149629], [-85.55054468087124, 36.17125589106204], [-85.55054868072857, 36.17121989116026], [-85.55144768138338, 36.17098689097165], [-85.55199068176448, 36.17084689065741], [-85.55317668217074, 36.17077989082823], [-85.55349868179893, 36.17080489066759], [-85.55350568231012, 36.17080489132839], [-85.55421268196811, 36.17086189126079], [-85.55513968246338, 36.17093789067417], [-85.55520868259623, 36.17094389131821], [-85.55681868334044, 36.170831890448326], [-85.55769468341481, 36.170648890384], [-85.55998268362858, 36.17017289039585], [-85.56128268434433, 36.170014890377125], [-85.56343768528382, 36.17004689072145], [-85.56537268584873, 36.17007589039937], [-85.56795168571288, 36.17011589001075], [-85.56795168646903, 36.170043890198635], [-85.5679516865712, 36.16991688990893], [-85.5679596856779, 36.16943989053873], [-85.56797468600992, 36.169157890446044], [-85.56796668555565, 36.16913089014912], [-85.56795768568013, 36.16907288963762], [-85.56792068587949, 36.16895888986219], [-85.56784468625136, 36.16883389039925], [-85.56774568549486, 36.16871188988231], [-85.56768168597245, 36.16864488987043], [-85.5676006861134, 36.16855889008489], [-85.56711968572053, 36.16808588955409], [-85.56660168518682, 36.16754788949281], [-85.56590668473231, 36.16678489011346], [-85.56583068550826, 36.16669388981468], [-85.56576968528299, 36.16655588921199], [-85.565761684816, 36.16649088937963], [-85.56575468505228, 36.16636488939353], [-85.56581568537128, 36.165769889609685], [-85.56583868545238, 36.16556788971749], [-85.5658996851273, 36.1647628896173], [-85.56590268472273, 36.16472188904539], [-85.56592968565414, 36.1644578893868], [-85.56596768565844, 36.164045889083596], [-85.56602868502257, 36.16356588921139], [-85.56607968506978, 36.16317188932104], [-85.56614968536852, 36.16262688924097], [-85.56620868546023, 36.16217288839111], [-85.56623468542865, 36.16190988888606], [-85.56629568473782, 36.16151288836293], [-85.56635668557115, 36.16115088873483], [-85.56637268510168, 36.161051888888416], [-85.56637668558957, 36.160997888620514], [-85.56641068464988, 36.16059388825696], [-85.56643368521785, 36.16045288822737], [-85.56618968511147, 36.16045288833555], [-85.56615568488873, 36.16044988842428], [-85.56593768485597, 36.16043688811609], [-85.56579268453197, 36.160444888749794], [-85.56572368532387, 36.16042988881666], [-85.56544168432987, 36.16040288799037], [-85.56532768458709, 36.16038688852723], [-85.56505268492027, 36.1603498882971], [-85.5650146845556, 36.16034288831751], [-85.56458968394789, 36.16036488832572], [-85.56440468438203, 36.16035688817657], [-85.56437268478072, 36.160353888674635], [-85.56374168376614, 36.16029988842201], [-85.56331268366016, 36.16025088877225], [-85.5625206836763, 36.16016688805474], [-85.56234268374068, 36.16014488845489], [-85.56171068351992, 36.16006688805613], [-85.56166768347944, 36.16006188856671], [-85.5614286837947, 36.160032888644984], [-85.56065268303738, 36.159946888850094], [-85.56019268324953, 36.15989588883196], [-85.56000968332529, 36.159876888557214], [-85.5599256830396, 36.15986488855507], [-85.55862468243208, 36.159720888857805], [-85.55787368262551, 36.15964788833939], [-85.55760668186893, 36.159618888205436], [-85.55659168260563, 36.159509888160414], [-85.55660268239423, 36.1594598884038], [-85.55662668188394, 36.15926588851958], [-85.55671968226444, 36.158533888639255], [-85.55675168224289, 36.158289888700246], [-85.55681068166092, 36.15783988788335], [-85.55694968200685, 36.15680588838733], [-85.55699968164296, 36.15649388820793], [-85.5570736824256, 36.15604688831748], [-85.55708768184134, 36.155958888278], [-85.5571486825306, 36.15564988805745], [-85.55718668160083, 36.15558488769628], [-85.55723968196648, 36.1555428873387], [-85.5573086817914, 36.155515887508415], [-85.55738468247176, 36.15551288752317], [-85.55780468184503, 36.15554788800125], [-85.55901768275172, 36.155649888011], [-85.55950568253596, 36.155657887981285], [-85.55991068228842, 36.15564988802391], [-85.55998668288996, 36.15563888778847], [-85.56007868331382, 36.15562688776147], [-85.56017268267001, 36.15559288727772], [-85.56028368258602, 36.15552788791774], [-85.56038768268807, 36.155435887582804], [-85.56071368259384, 36.15503288748855], [-85.56084268294615, 36.15489188745381], [-85.56084468330495, 36.15489088713332], [-85.56107068362938, 36.1546208875837], [-85.56159568338491, 36.15406488749072], [-85.56167268333701, 36.15398288736788], [-85.56204468316152, 36.15357988751556], [-85.5625656838805, 36.152994887009584], [-85.56268368331526, 36.152871887251685], [-85.56285568295779, 36.1526938866909], [-85.56297768365026, 36.15257888713255], [-85.56303868348203, 36.15251388708038], [-85.56319868303504, 36.15231588703118], [-85.563244683034, 36.152242887133326], [-85.56329768387697, 36.152166887046675], [-85.56347268322789, 36.151869886919826], [-85.56354968389162, 36.15173588689046], [-85.56398468317309, 36.150915886325514], [-85.56409868326143, 36.150617886110616], [-85.5641826842726, 36.15033988618548], [-85.56429068328588, 36.150060885924475], [-85.5643146839659, 36.15002488640626], [-85.564525683525, 36.14956588634672], [-85.56456368389615, 36.14948888611225], [-85.56473168425754, 36.14916488602326], [-85.56483368418574, 36.14901588648482], [-85.5648466842914, 36.14899688627756], [-85.56499168419644, 36.1488178857191], [-85.56500668354387, 36.148786886203226], [-85.5650146837553, 36.148733886193405], [-85.56500268424756, 36.148684885950644], [-85.56499868339425, 36.148664886233355], [-85.56496068422521, 36.148569886010904], [-85.56485368413972, 36.1483978862216], [-85.5646706832757, 36.14813488567679], [-85.56460968326724, 36.14798988551543], [-85.56455668378278, 36.14782188625613], [-85.56451068326086, 36.14757788606808], [-85.56451068331411, 36.1474828858155], [-85.56453368388236, 36.14736388616593], [-85.56455668323986, 36.14729188598716], [-85.56460568316528, 36.14720988557916], [-85.56473968371559, 36.146983885729846], [-85.56482368337693, 36.14684588588768], [-85.56509868377078, 36.14637588565882], [-85.56514568356941, 36.14630888548837], [-85.56521268397687, 36.14621588589174], [-85.56528868343464, 36.1460898859145], [-85.56541868390819, 36.14587288519091], [-85.5654276840816, 36.14585288543094], [-85.56546468434989, 36.14578088590931], [-85.56548068409533, 36.14573588532773], [-85.56552568406713, 36.14561388507515], [-85.56556368410934, 36.145513885350475], [-85.56566268395619, 36.145189885772936], [-85.56569568399442, 36.14507188527302], [-85.56574668348894, 36.14489588533178], [-85.56575468401473, 36.144804885637924], [-85.5660696834406, 36.14483788540095], [-85.56701768365694, 36.144938884996314], [-85.56733368428803, 36.144972885439444], [-85.56786668471814, 36.14502488535819], [-85.5680586845773, 36.14503988563228], [-85.56826468455755, 36.1450568851066], [-85.56849368410685, 36.145056885010206], [-85.56864568515304, 36.14503788479026], [-85.5687506844077, 36.1450118848985], [-85.56895468459275, 36.14492488483887], [-85.56946268472564, 36.14460288508147], [-85.56972468537535, 36.144441884986996], [-85.57002268544267, 36.144245885322725], [-85.57012568510466, 36.144178885360866], [-85.57036268487684, 36.144016884534764], [-85.57051468484075, 36.14390788450671], [-85.57058368514409, 36.14386288441615], [-85.57062168474953, 36.14383188491236], [-85.57078168469106, 36.143724884957635], [-85.57106968516287, 36.14355488435794], [-85.57161368563688, 36.143236884262734], [-85.57182768514384, 36.143087885093976], [-85.57208668554536, 36.14287788421075], [-85.57223968532095, 36.142774884289246], [-85.57238768533732, 36.14268988433437], [-85.57239168514404, 36.14268788420551], [-85.57268968562246, 36.14255788489587], [-85.57287268579354, 36.142484884122005], [-85.5730586853161, 36.142415884438556], [-85.57361768585402, 36.14221188478084], [-85.57374568556976, 36.14216588456967], [-85.57380468633616, 36.142142884780455], [-85.57410868581479, 36.142023884039254], [-85.57423068565201, 36.14197088462204], [-85.57427268607044, 36.14194988398038], [-85.57452068641726, 36.14183288456486], [-85.57563568653234, 36.14128188440359], [-85.57608968668143, 36.14105888401898], [-85.576220686785, 36.14099388425807], [-85.57662068656086, 36.14080188372283], [-85.5767716869054, 36.1407308835892], [-85.5771376869801, 36.14056288415651], [-85.57741968687678, 36.14045588378738], [-85.57759468707198, 36.140417884108196], [-85.57782368689776, 36.14038688391471], [-85.57806068680506, 36.140379883741666], [-85.57830968668489, 36.1403908834473], [-85.57889968742613, 36.14041788355881], [-85.57891768699969, 36.14019888377186], [-85.57892268729412, 36.140146883495284], [-85.5789456876901, 36.13994488348792], [-85.5789696870558, 36.13960688397001], [-85.57897368698768, 36.139544883472205], [-85.57897568684643, 36.13951788344284], [-85.57899168752022, 36.139326884022275], [-85.5787826870396, 36.13931488346772], [-85.57815868752759, 36.13928088370223], [-85.57795068751442, 36.139269883793986], [-85.57759468655664, 36.13924988376327], [-85.57652668627964, 36.13919188356741], [-85.5762056863602, 36.13917488358975], [-85.57617168621752, 36.13917288324132], [-85.57468068577714, 36.13908988343871], [-85.57412768576657, 36.13904488342971], [-85.57402468639455, 36.13903688349398], [-85.57324668604373, 36.13894788408589], [-85.57275068595682, 36.138876883462636], [-85.57194968484524, 36.13874288376495], [-85.57120968492076, 36.13859088387147], [-85.57056068495606, 36.13843788391346], [-85.56986668479587, 36.13825088418872], [-85.56892168401252, 36.13796188374857], [-85.56814768362582, 36.137714883629414], [-85.56630868397171, 36.13713088407605], [-85.56619668346457, 36.13709588401036], [-85.56616768355232, 36.13708588394539], [-85.56615968364531, 36.137083884132366], [-85.56612068391112, 36.13707188335982], [-85.56607968304984, 36.137058883995834], [-85.56605168322291, 36.137049883387604], [-85.5659446829385, 36.13701688383416], [-85.5658176828572, 36.13697688335726], [-85.5636996826582, 36.13630088375001], [-85.5628706820936, 36.13604188384312], [-85.56245068220649, 36.13591988323133], [-85.561863682178, 36.13577188370447], [-85.56121468188682, 36.135618883683016], [-85.56036768115128, 36.13544388375795], [-85.55962768178289, 36.13532088344842], [-85.55922368102576, 36.13526788330159], [-85.55845268107306, 36.13517688330065], [-85.5579266810455, 36.13513488362025], [-85.55705668105783, 36.1350808834139], [-85.55662168046152, 36.135069883672834], [-85.55556868066789, 36.13506988384183], [-85.55483668045588, 36.13509588388355], [-85.55415667974486, 36.13514488337302], [-85.55391367947611, 36.13516188411157], [-85.55230767970656, 36.13528888432818], [-85.55188967920022, 36.13532188401766], [-85.55067167843687, 36.135416884332066], [-85.54716967754884, 36.13569188430529], [-85.54702067823895, 36.13570088461231], [-85.54599167741895, 36.13576788448485], [-85.54580267743363, 36.13577788456447], [-85.54560567780092, 36.13578788396133], [-85.54501567742305, 36.13581788398852], [-85.5448196773508, 36.13582888446514], [-85.54454467683802, 36.13583888434085], [-85.54372267674194, 36.13586988474492], [-85.54344867680217, 36.13588088450057], [-85.54331267685161, 36.13588588457815], [-85.54294567633372, 36.13589388413353], [-85.54256167696595, 36.13589988402512], [-85.53990067581427, 36.13594288479968], [-85.53901367529, 36.135957884598554], [-85.53893267553467, 36.135958884608975], [-85.5384556752354, 36.135969884782746], [-85.53799467536516, 36.135975884683084], [-85.53493867439072, 36.136019884570146], [-85.53490367459338, 36.13602088523799], [-85.5339206744027, 36.13603888514561], [-85.53360167447096, 36.13604288510386], [-85.53264767365171, 36.13605688511781], [-85.53232967318235, 36.136061885079805], [-85.5319346736141, 36.13606788512097], [-85.53188467367139, 36.136067884904264], [-85.53055067319299, 36.13608988540719], [-85.53010667257978, 36.136097885156566], [-85.52999067300055, 36.13609888524483], [-85.52964467230252, 36.13610388531105], [-85.52952967303176, 36.136106885142034], [-85.52933667318455, 36.136108884831785], [-85.52885967305951, 36.13611588514614], [-85.52876067267336, 36.13611688464124], [-85.52856867195962, 36.13612088509383], [-85.52795867238902, 36.136129884707366], [-85.52613167218024, 36.136157885331286], [-85.52580667179642, 36.13616388516832], [-85.52552267166453, 36.136164884774374], [-85.525359671324, 36.1361668852232], [-85.52489367171587, 36.136174885593725], [-85.52487267153012, 36.13617488490983], [-85.52474367163194, 36.13617488513996], [-85.52471067153547, 36.13617588532115], [-85.5244066715745, 36.13618088530918], [-85.52424467135839, 36.13618488538223], [-85.523496671349, 36.136195884970824], [-85.52319367117322, 36.13620088495044], [-85.52100467087382, 36.136232885278325], [-85.51964766981126, 36.136253885333204], [-85.5172386694688, 36.136288886050174], [-85.51675166883224, 36.13628888583502], [-85.51615466917859, 36.13627088605811], [-85.51553966863491, 36.13622388605615], [-85.5144446688298, 36.13611488593328], [-85.51404266863294, 36.13607588590904], [-85.5125386676405, 36.135931885524926], [-85.51238666733936, 36.135917885806094], [-85.51226566780237, 36.13590588584055], [-85.51109266729077, 36.135792886198075], [-85.50757766628385, 36.13545388554216], [-85.50640566656736, 36.13534088580608], [-85.5062066663109, 36.13533888543943], [-85.50568866573096, 36.1352998856168], [-85.5052966658002, 36.13527188553267], [-85.50501766582012, 36.135254886253946], [-85.50353666469871, 36.13519688584068], [-85.50330766473871, 36.13518788603816], [-85.5030106650639, 36.13518388618517], [-85.50289466520866, 36.13518488635342], [-85.50281966450427, 36.13518388603969], [-85.50280466479785, 36.13523488597419], [-85.50274766529283, 36.13538288568681], [-85.50270366546962, 36.135501885957986], [-85.5025826651956, 36.1358018859037], [-85.5025176645137, 36.13597588627349], [-85.50244566533436, 36.136175886103395], [-85.50240266441006, 36.136288886175464], [-85.50238666449769, 36.13633488624118], [-85.5023106652119, 36.13653588609659], [-85.50227466498967, 36.13662988671068], [-85.50223166508643, 36.1367438862109], [-85.5021036652963, 36.137053886827374], [-85.50205666439005, 36.137171886654414], [-85.50180266484104, 36.1380148867991], [-85.50172066513424, 36.138290886707914], [-85.5017096647335, 36.13833788697855], [-85.50170766482127, 36.13834088712032], [-85.50170466543189, 36.1383508868151], [-85.50170466476939, 36.13835488659821], [-85.50170266491227, 36.138360887030075], [-85.50169866537526, 36.13838188696193], [-85.50169766478614, 36.13838888651026], [-85.50168966476478, 36.13843988633772], [-85.50168266466142, 36.13848788639889], [-85.50156966435584, 36.138932886506254], [-85.50140766446344, 36.139574886530625], [-85.50129366458299, 36.14011288748107], [-85.50121566448117, 36.14057188678897], [-85.50120166503638, 36.1406578873504], [-85.50114066468942, 36.14112688688572], [-85.50113166516981, 36.14121288737047], [-85.50110566468915, 36.14147188702414], [-85.50109766438838, 36.14155888752051], [-85.50108166478643, 36.141726887034], [-85.50107666495992, 36.14185288744341], [-85.50106666472118, 36.14215588772086], [-85.50105766461135, 36.1422058874344], [-85.50104366534094, 36.14248588727225], [-85.50103566477748, 36.14273588739822], [-85.50102666459944, 36.14303088767073], [-85.50102266544008, 36.143091888072114], [-85.50101166531422, 36.14326788791962], [-85.50101166468167, 36.143277887369095], [-85.50101166495956, 36.14333988757764], [-85.50100066527072, 36.14356388748522], [-85.5009676650985, 36.14423688751586], [-85.50096566553997, 36.144293888275364], [-85.50095766559731, 36.14446188829512], [-85.50095066475076, 36.144609888134525], [-85.50094266519443, 36.14470888789244], [-85.50093666483706, 36.14482888799763], [-85.50088866556598, 36.14593188843982], [-85.50087366498644, 36.1462998879714], [-85.50084966479571, 36.146782888446715], [-85.50077966493744, 36.14823488903087], [-85.50075666519945, 36.148718888372876], [-85.50075566494307, 36.148750888744615], [-85.50075266528611, 36.1488468889615], [-85.5007516650322, 36.148878888430886], [-85.50074066515855, 36.14913288900944], [-85.50070866563348, 36.14989588886213], [-85.50070566535841, 36.14996988938931], [-85.50069566559557, 36.1501508886979], [-85.50067866490193, 36.15046188951776], [-85.50067566536951, 36.15060288939268], [-85.5006716656541, 36.15067888926151], [-85.50065266555904, 36.151048889676176], [-85.50062966532157, 36.15152988926128], [-85.50060666560466, 36.151953889783414], [-85.5005996656974, 36.15217888988061], [-85.50059366555814, 36.15226388948511], [-85.50058766516678, 36.15237488940278], [-85.50058366511895, 36.152565889414475], [-85.50057666593571, 36.15266288959576], [-85.50056866562, 36.152792889599326], [-85.5005366660498, 36.15350188998304], [-85.50049166557194, 36.15454888991922], [-85.50048366583854, 36.15482088976222], [-85.50048466568718, 36.155410890394506], [-85.50047766570809, 36.15559289052262], [-85.50047566582701, 36.15563288983801], [-85.50046966563757, 36.155813890095935], [-85.50045466512991, 36.156343890022114], [-85.50052266515466, 36.15627889001713], [-85.50060066564274, 36.15620689075755], [-85.50063266627004, 36.156178890519705], [-85.50102666609416, 36.1558248906018], [-85.5010486659965, 36.15580989005503], [-85.50121766622502, 36.155702890551765], [-85.50141566588424, 36.155568890071685], [-85.50165966611814, 36.15540589029774], [-85.50200566553275, 36.15516388971748], [-85.50205166569258, 36.15513288981325], [-85.50215766619169, 36.15506189009891], [-85.50220166576958, 36.15502788971852], [-85.50233166621523, 36.15510789042162], [-85.50259066677506, 36.15521289001682], [-85.50289566593496, 36.15533689042372], [-85.50310166609547, 36.155416889683934], [-85.50346066683109, 36.15557389051558], [-85.50379066630097, 36.15570389020908], [-85.50419266644109, 36.15586389016748], [-85.50423066665165, 36.15587489017554], [-85.5043126664472, 36.15588188998627], [-85.5046796666105, 36.15591388989931], [-85.50480266663943, 36.155924889784444], [-85.50512366701757, 36.155957890138936], [-85.50609066700586, 36.156058889702976], [-85.50641266687359, 36.15609289020482], [-85.50665166791485, 36.156122889677015], [-85.50693966744228, 36.15616089013216], [-85.5073706677111, 36.15620489026166], [-85.50761066732814, 36.15622988994677], [-85.50752766814978, 36.15657888997702], [-85.50747366781087, 36.15680988992726], [-85.50728566744037, 36.15762988994103], [-85.507206667208, 36.157980890519696], [-85.5071446672568, 36.15827189008596], [-85.50696166808193, 36.159145890304565], [-85.5069016672693, 36.15943789101146], [-85.50682466738735, 36.159788890346], [-85.5068096682142, 36.15985789119166], [-85.50679466770605, 36.159928891008605], [-85.50671066754954, 36.16034189127282], [-85.50664966830156, 36.16064689096794], [-85.50660366784169, 36.16083789114363], [-85.50656566830692, 36.16104389111413], [-85.50651966724206, 36.16120489122882], [-85.50648366783756, 36.16140589107059], [-85.50641266788101, 36.16181089144246], [-85.50636566774256, 36.16184489094593], [-85.50635966796217, 36.16187889140433], [-85.5063486677636, 36.1620018908534], [-85.5063416672495, 36.16203989148245], [-85.50633666773008, 36.16207389152312], [-85.50629066798454, 36.16244389112158], [-85.50627466780038, 36.16252089178609], [-85.5062446672808, 36.16268089101097], [-85.50623166744792, 36.16276189108147], [-85.5062226682736, 36.162821891207116], [-85.50616866781263, 36.16300089155371], [-85.50616866737494, 36.16300489131084], [-85.50614566777641, 36.16308089175777], [-85.50608866784732, 36.16324889171352], [-85.50601866732413, 36.163429891265885], [-85.50597666769829, 36.16353689179471], [-85.50604466821474, 36.16356189147313], [-85.50610566731683, 36.16358089166477], [-85.50649566746009, 36.16370689135971], [-85.50662666845312, 36.16374889176304], [-85.50687466830054, 36.16382689117185], [-85.50761866832912, 36.16406289160723], [-85.50771866849128, 36.16409489202409], [-85.50786966888676, 36.164133891258885], [-85.5078626685755, 36.16415689151136], [-85.50786066846996, 36.16416989203014], [-85.50785166845611, 36.16428289128311], [-85.50784966779797, 36.16432089163321], [-85.50784666835843, 36.16434789173247], [-85.50784166883386, 36.16441889181846], [-85.50784066809925, 36.16442989202644], [-85.50783966863766, 36.16445789165753], [-85.50790766812524, 36.16446589175385], [-85.50808566877743, 36.16447389137292], [-85.50821366886314, 36.16448089209977], [-85.50846666863711, 36.16450289125527], [-85.5087326688363, 36.16453789198684], [-85.50882366828102, 36.16455589174499], [-85.50885466868712, 36.164561891360215], [-85.50906766878703, 36.1646028915993], [-85.50940366882955, 36.164670891908024], [-85.50964766927177, 36.16472089175442], [-85.50981566853885, 36.16475589205298], [-85.51041066900704, 36.16487989140105], [-85.5107466690245, 36.164949891439335], [-85.51083666957275, 36.164968891421964], [-85.5111066692477, 36.165025891858704], [-85.51119666936376, 36.165045891959565], [-85.511275669603, 36.16505989197997], [-85.51151366910004, 36.16510289165557], [-85.5115936691767, 36.16511789139708], [-85.51179766949151, 36.165152891304515], [-85.51212366911899, 36.16520889206112], [-85.51241066984845, 36.16524989167623], [-85.51255467016203, 36.16527189157739], [-85.51261566959847, 36.16528189126389], [-85.51271966940473, 36.165299891903096], [-85.51272166947258, 36.16530089135481], [-85.51275266992684, 36.16530589137856], [-85.51287766988146, 36.16532589181716], [-85.51289867028036, 36.16535989157499], [-85.51314967028708, 36.165398892058164], [-85.51328866944633, 36.16542089163625], [-85.51358367015648, 36.16546689201847], [-85.51381266981176, 36.16550289141027], [-85.51446967023598, 36.16559889140765], [-85.51464867040747, 36.16562589184698], [-85.51476567094015, 36.165641891748365], [-85.51477467000247, 36.16564289136505], [-85.51480267084494, 36.16564589154187], [-85.51481267078607, 36.16564789196341], [-85.51510567087618, 36.165692891900584], [-85.51569767016092, 36.16578589144243], [-85.51598667058217, 36.165837891231064], [-85.51603367123406, 36.16584689123872], [-85.51627767117343, 36.16590389117099], [-85.51632767127514, 36.16591589163446], [-85.51645167075367, 36.16594789172386], [-85.51647767118497, 36.165954891361785], [-85.51652867060932, 36.16596889201675], [-85.51653867121433, 36.165971891785205], [-85.51657167069412, 36.16598089137602], [-85.51658267052058, 36.16598389153805], [-85.51671567111352, 36.1660218918876], [-85.51703267123577, 36.16611389155853], [-85.517115670825, 36.16614189206901], [-85.51713267112297, 36.16614789121778], [-85.51724567129222, 36.16619189170501], [-85.51745267099342, 36.16627389156987], [-85.51758167091398, 36.166337891383364], [-85.51767367185225, 36.16638489161261], [-85.51790467126345, 36.166527891351755], [-85.51811267136227, 36.166668891769234], [-85.51825367132595, 36.1667668915961], [-85.51846467148057, 36.16694489161184], [-85.51848467139891, 36.16696289187785], [-85.51875767183616, 36.16720889204282], [-85.51883867214549, 36.167285891606475], [-85.51886167186173, 36.16730889219028], [-85.5189786714645, 36.167425892076004], [-85.51914667217032, 36.16757489207054], [-85.51917867233367, 36.16760589190073], [-85.51928367165017, 36.167707891921125], [-85.51933867157283, 36.16775589167471], [-85.51950567244774, 36.16789989153618], [-85.51956167188077, 36.16794789155863], [-85.51964767205207, 36.16802289165794], [-85.51971767172508, 36.16808089172271], [-85.51994567158168, 36.16826989157729], [-85.51999167183241, 36.16830089188869], [-85.52006167187083, 36.168356891873984], [-85.52020967207253, 36.168447891936175], [-85.52026067212338, 36.168478892189725], [-85.52038967210954, 36.168547891783106], [-85.52039667208838, 36.16855089192226], [-85.5204196727579, 36.16855989217542], [-85.5204276719951, 36.16856289177689], [-85.52061167229672, 36.16863889155829], [-85.52077867253085, 36.168695891892966], [-85.52087167183639, 36.168728891772275], [-85.52102367234015, 36.168783891829406], [-85.52123267242965, 36.16883989197407], [-85.52183767322128, 36.16899789202384], [-85.5221146728481, 36.169070891711115], [-85.52219767313008, 36.169107892179056], [-85.52224367326129, 36.16911089157334], [-85.52229167320488, 36.16911589243068], [-85.5224886726225, 36.169169891684966], [-85.52265567268985, 36.16922289235885], [-85.52270167297479, 36.16923789172665], [-85.52288867322154, 36.1692928917271], [-85.52293567325319, 36.169311892001915], [-85.52327367280647, 36.169447892263015], [-85.52361867370406, 36.16959189166003], [-85.52384567348565, 36.16968789178448], [-85.52397667390535, 36.169743892156305], [-85.52437067399705, 36.16991289222663], [-85.52450267399568, 36.169969891841426], [-85.52470567369302, 36.170054892458786], [-85.525314673435, 36.17031189211665], [-85.52545567364781, 36.17037189208583], [-85.52551667391222, 36.170400891679016], [-85.52560667389233, 36.170438892445766], [-85.52587667436067, 36.17055289253859], [-85.52596667427255, 36.170591892519774], [-85.52602867430548, 36.170617891911775], [-85.52621867384744, 36.17069889233492], [-85.5262816740216, 36.17072589230352], [-85.52653567370581, 36.17083389247659], [-85.52694867484037, 36.1710098918839], [-85.52729867386846, 36.171160892131695], [-85.52755367481193, 36.17127089213047], [-85.52780467420759, 36.17137689240751], [-85.52856067428345, 36.17169489188384], [-85.5288126745348, 36.17180089214871], [-85.5298276755178, 36.1722358923729], [-85.53037667593134, 36.172464892036785], [-85.53068067512544, 36.172594892647794], [-85.53135367543797, 36.17288489236451], [-85.53159567625097, 36.17298589196437]]]]}}]}