{"type": "FeatureCollection", "features": [{"type": "Feature", "properties": {"name": "District 8", "slug": "district-8", "ccd": 8}, "geometry": {"type": "MultiPolygon", "coordinates": [[[[-85.625047702792, 36.178779889876104], [-85.62511770313125, 36.17862988975185], [-85.62533270272002, 36.17817188985486], [-85.62535570282381, 36.178126889123995], [-85.62538870373486, 36.17805988941457], [-85.62555670359903, 36.17772388971306], [-85.6256137030724, 36.17761288902987], [-85.62561870287179, 36.177601889530315], [-85.62563470358401, 36.17756988910917], [-85.62564070357998, 36.17755988948645], [-85.62566070277703, 36.177519889401], [-85.62568370280317, 36.177477888842375], [-85.62572770366668, 36.17737888931534], [-85.62584770325984, 36.17713588932324], [-85.62613570281513, 36.17657288929245], [-85.62621070319022, 36.17642888910659], [-85.62632470359654, 36.176190889040264], [-85.62640870349941, 36.17603188922639], [-85.62675170334468, 36.175350888396046], [-85.62688570383821, 36.17507388873343], [-85.62694070389138, 36.17497288859687], [-85.62701570357635, 36.17481988892639], [-85.62715870398725, 36.17448988838979], [-85.62717470404702, 36.17443788821464], [-85.6272947037674, 36.17412788897148], [-85.62736170306543, 36.1739078883325], [-85.62740070305422, 36.17380088854459], [-85.62747370374349, 36.17355188806196], [-85.62749870352943, 36.17346988882375], [-85.62759070364933, 36.17309088819107], [-85.6277047039436, 36.17247288827854], [-85.62772470370341, 36.17231688851629], [-85.6277507036543, 36.1721288878021], [-85.6277697040339, 36.1718498883638], [-85.62777070319194, 36.17184588811263], [-85.62778870398093, 36.171694887667364], [-85.62778870383846, 36.17159088843983], [-85.62780170312064, 36.17128288819516], [-85.62780470350937, 36.171217887896844], [-85.62748370346945, 36.17125588824925], [-85.6271407037972, 36.17127888795568], [-85.62699770341354, 36.17129488756404], [-85.62656970341271, 36.171342887569445], [-85.62642770292408, 36.17135988817658], [-85.62628870271692, 36.171375887609535], [-85.6262437027719, 36.171379887699175], [-85.62613270324262, 36.171392887786915], [-85.62582070271081, 36.17142788791494], [-85.62569070329803, 36.17144088817854], [-85.62560670315105, 36.17144988796163], [-85.6255077028874, 36.17146188826028], [-85.62550570254967, 36.1714398880553], [-85.6254997029449, 36.171376887690556], [-85.62549970265026, 36.171373888344114], [-85.62549670305049, 36.1713558883714], [-85.62568070340103, 36.17134388764164], [-85.62586270263124, 36.17133288802152], [-85.62623370305228, 36.17128388759179], [-85.62641770265931, 36.17126088783615], [-85.6263677033677, 36.17072988762633], [-85.62666870263972, 36.170529888027644], [-85.62657870273348, 36.16888988709844], [-85.62656670248964, 36.168655887343334], [-85.62712170344555, 36.16859588763103], [-85.62730170340828, 36.16476988688712], [-85.62736370268193, 36.16347988594862], [-85.62704770289604, 36.163456886105266], [-85.62705970325618, 36.16311888595164], [-85.62706870297868, 36.162862886429], [-85.62709470275176, 36.16207688584412], [-85.62711070232228, 36.16163488579335], [-85.62585970241722, 36.16218188664109], [-85.62547870251375, 36.16156088607135], [-85.62546070248695, 36.16152688650747], [-85.62540970220425, 36.161424886293425], [-85.62539270223742, 36.1613918857011], [-85.62532670224594, 36.161278886020874], [-85.62459670183803, 36.1616198858426], [-85.6243757020732, 36.16172288591174], [-85.62392570188145, 36.16193288577758], [-85.62372870190748, 36.16202688657683], [-85.623754701653, 36.16210488592792], [-85.62181470143062, 36.16294988625214], [-85.62092070135581, 36.16334088635166], [-85.62065670106773, 36.16345188639904], [-85.62064370077478, 36.16345788660139], [-85.6200567010603, 36.16361588634221], [-85.61982370088536, 36.16364088685625], [-85.61954070023134, 36.1636718866395], [-85.61875269992133, 36.1637578863671], [-85.6163886997021, 36.16401588714868], [-85.6156016990353, 36.1641028870033], [-85.61350169877055, 36.164332886851255], [-85.61057469858362, 36.16465488778995], [-85.6072436968223, 36.165281887508094], [-85.60516869659872, 36.165672887622634], [-85.60517569644604, 36.16558088771332], [-85.60518269607813, 36.16527088766039], [-85.60521369600193, 36.16506488808669], [-85.60532569610584, 36.16440288756489], [-85.60537369668724, 36.164121887550905], [-85.60542769677352, 36.163717887628884], [-85.60548069700783, 36.16330988733616], [-85.60548069699098, 36.163290887218444], [-85.60557969702687, 36.1627188874035], [-85.60559469700756, 36.16254688718194], [-85.60561069679756, 36.162466886966676], [-85.60561769668335, 36.16231388684715], [-85.60563369631446, 36.162161886773504], [-85.60566369602952, 36.16179188703433], [-85.60567169687687, 36.161630887066266], [-85.60569469679176, 36.16147088691281], [-85.6057326965713, 36.1608718869564], [-85.60573269623838, 36.160761886818946], [-85.60573869689864, 36.16058488670415], [-85.60574769630588, 36.16036488697023], [-85.6057626968095, 36.16021588650062], [-85.60578569631119, 36.16004488652455], [-85.60587769660472, 36.15931188648687], [-85.60599169577712, 36.15839288609596], [-85.60608869596614, 36.15747888590859], [-85.60608969646502, 36.15745688606342], [-85.60615169655206, 36.156687886115876], [-85.60624369613238, 36.15567288580768], [-85.60646469577689, 36.15382688520943], [-85.60657969637093, 36.152941885024596], [-85.60667869638662, 36.152117884925595], [-85.60669669664395, 36.15189188460558], [-85.60682369599579, 36.15033988422707], [-85.60682369644175, 36.15003088476643], [-85.60593869626895, 36.150385884940526], [-85.6059056956918, 36.15039788458247], [-85.60570969528389, 36.15047688430301], [-85.6045726954635, 36.15091588468405], [-85.60445869592189, 36.150953884550646], [-85.60413769483984, 36.1510458852485], [-85.60380969528687, 36.15112988514026], [-85.60340569532444, 36.15120588452885], [-85.60307869502212, 36.15125888537743], [-85.60289469482387, 36.151289885102194], [-85.60210069436489, 36.15139988460091], [-85.60135669482422, 36.15149588540831], [-85.60048369392781, 36.15160988520531], [-85.6000556945706, 36.15168988561134], [-85.59968969427625, 36.151792885534284], [-85.59916869399609, 36.15197688507746], [-85.59877469375185, 36.152117885109966], [-85.59851669431187, 36.1521918849569], [-85.59845669410531, 36.15220788531402], [-85.59821669415302, 36.152271885545964], [-85.5979576931693, 36.152342885104346], [-85.59749269385077, 36.152443885690765], [-85.59745469333254, 36.152452885005886], [-85.5972486932369, 36.15248788540808], [-85.5964096927681, 36.15262488534476], [-85.59513469309165, 36.15280788547347], [-85.59510969261726, 36.15281088567659], [-85.59456269251999, 36.15289988536246], [-85.593860692721, 36.15299488607345], [-85.59231969188778, 36.15326188586276], [-85.59133569139082, 36.153448885658904], [-85.59072569210012, 36.153574886197916], [-85.59005169156354, 36.15369988577303], [-85.5896416911162, 36.15377688581581], [-85.58872269116746, 36.153959886407364], [-85.58814669133183, 36.154074886372946], [-85.58659769064607, 36.15436088606966], [-85.58659769048124, 36.15431888596004], [-85.58658269036867, 36.15426888632969], [-85.58642269091902, 36.153852886491514], [-85.58634569047291, 36.15361688586111], [-85.58633769020697, 36.15358788590896], [-85.58626969084345, 36.15334588579235], [-85.58624669070112, 36.15328888569558], [-85.58603368965468, 36.15255988625815], [-85.58586569017784, 36.15205988569639], [-85.58574369020874, 36.151785885652714], [-85.58546769046018, 36.151307885401664], [-85.58545368977342, 36.1512818857555], [-85.58532368963238, 36.15107988580252], [-85.58504868997301, 36.15060688536702], [-85.58475168925563, 36.150125885618955], [-85.58472068941725, 36.15008388512854], [-85.58464868912091, 36.14998788557564], [-85.58453768956423, 36.149839885539556], [-85.5844616897319, 36.14975588579161], [-85.58430068956595, 36.149556885401786], [-85.58399668985481, 36.14919588563345], [-85.58359968971868, 36.14872588571825], [-85.58344368952156, 36.14853288568802], [-85.58333768966996, 36.14834288533213], [-85.58330568894972, 36.14824288538077], [-85.58327668873461, 36.14814688562633], [-85.58325468933039, 36.147981884887706], [-85.58325468949333, 36.14766988465554], [-85.58327368887112, 36.147512885315166], [-85.58329968934919, 36.14729588488971], [-85.58330568880682, 36.147237884740356], [-85.58332268880122, 36.14710588463827], [-85.58335268925053, 36.14673288476606], [-85.58339368879658, 36.14644888463089], [-85.58339768947405, 36.14641388475591], [-85.58343168899779, 36.14613988505742], [-85.58351568896273, 36.14613988481407], [-85.58359368889215, 36.1461448846887], [-85.58408068969202, 36.146176885166796], [-85.58424368946719, 36.14618788431052], [-85.58429168979154, 36.14619088503004], [-85.58433768885227, 36.14619388514531], [-85.58443568985736, 36.14620388502991], [-85.58448468981594, 36.146208884489816], [-85.58449168886348, 36.146269884680095], [-85.5845306890352, 36.146353885086185], [-85.58459068959691, 36.146436884383554], [-85.58466768957449, 36.1465098850781], [-85.5847226893167, 36.14654288449516], [-85.5847816893033, 36.146578884404654], [-85.5849646896206, 36.1466548848754], [-85.58509768960704, 36.14668788470609], [-85.58518668909763, 36.14669688507986], [-85.58536968971374, 36.14668488478057], [-85.58549168926719, 36.146658884597535], [-85.585705689632, 36.14658588441386], [-85.58580468921068, 36.14653688517696], [-85.58593269000605, 36.14647488476505], [-85.58613268967879, 36.146379884858284], [-85.58632369024654, 36.146303884629354], [-85.58638668983006, 36.146419884581135], [-85.58642968957419, 36.146498884401566], [-85.5865416900665, 36.14678388483224], [-85.58659069043658, 36.14690688449041], [-85.58666469032374, 36.14714588440689], [-85.58679368975882, 36.14761488487311], [-85.58687369060324, 36.147901885153736], [-85.5869256897099, 36.14805488498705], [-85.58699468999305, 36.148126885217614], [-85.58708568966743, 36.14818088516501], [-85.5872006898608, 36.14820388474781], [-85.58732268978407, 36.14819588524087], [-85.58803969047874, 36.14800188465067], [-85.588138691037, 36.14797888465887], [-85.58814669030055, 36.14800188489177], [-85.58818469034709, 36.148054884768065], [-85.588215690383, 36.14814288522365], [-85.58821569026314, 36.14819988494506], [-85.58823069060949, 36.14825688538383], [-85.58824369102594, 36.14837788505218], [-85.58836369052115, 36.148377885295574], [-85.5887566906738, 36.14837588524889], [-85.59059769083362, 36.148367884865905], [-85.5967426929684, 36.14833888463596], [-85.59684569278235, 36.14833888452331], [-85.60011069381987, 36.14832488405337], [-85.600025693689, 36.148195884605684], [-85.59988869443588, 36.14797488409867], [-85.59920069334527, 36.146923884686764], [-85.59889669325624, 36.14645988399254], [-85.59837769336585, 36.145643883950335], [-85.59763669295269, 36.144531883669835], [-85.59705769255355, 36.14362588368516], [-85.59645569290284, 36.14273288363868], [-85.59634069279683, 36.142561883550144], [-85.59609669279952, 36.14217288353816], [-85.5954196921651, 36.141283883444125], [-85.59507569182969, 36.14083188346015], [-85.59483769148797, 36.140519883250775], [-85.59483369246277, 36.14050488286651], [-85.59479069209947, 36.14019688264323], [-85.59473769220972, 36.140098883402075], [-85.59457869222832, 36.139804882816584], [-85.59452669219988, 36.1397078827168], [-85.59447869137269, 36.139685883101635], [-85.59399869131467, 36.13897988262228], [-85.59387769112982, 36.13880688244003], [-85.5936476920006, 36.138475882930614], [-85.5933346913613, 36.13800688247158], [-85.59298369076629, 36.13754488277308], [-85.59255669073868, 36.13699988293069], [-85.59228969068916, 36.13667988257788], [-85.59202269099846, 36.13632888202592], [-85.59187269128853, 36.13612288219683], [-85.59183969048632, 36.136076882243586], [-85.59163369112687, 36.13581388200643], [-85.5915566912327, 36.135698882531905], [-85.59146569063489, 36.135568881966066], [-85.59128969078041, 36.135340881994814], [-85.59122169028508, 36.135217882588314], [-85.59151169085362, 36.13511188217324], [-85.59199969073313, 36.13489388214052], [-85.5925456906802, 36.13463888210518], [-85.59268569046166, 36.13457388221783], [-85.59299169120317, 36.134423881586095], [-85.59309769153452, 36.134371881588855], [-85.59325869113621, 36.13428888168226], [-85.59412369102888, 36.133771881990484], [-85.59543269176461, 36.13300188175917], [-85.59630969176, 36.13249088188485], [-85.59631169174556, 36.1324888814799], [-85.59663069147106, 36.13229588100945], [-85.5968206923773, 36.132179880973794], [-85.59678969221602, 36.13209388136006], [-85.59675869181667, 36.13197688122983], [-85.59669869187458, 36.13174688108873], [-85.59669169171501, 36.131681881625134], [-85.59670669198148, 36.13143788150789], [-85.5967526921488, 36.13102588086902], [-85.59676069144011, 36.130911881557644], [-85.59675369241315, 36.13086088130225], [-85.59672969147596, 36.13066388106543], [-85.59669169202391, 36.130449881382944], [-85.59668369216209, 36.130342880904664], [-85.59668369226621, 36.130258881097184], [-85.59670669177969, 36.130167880608], [-85.59678269148962, 36.13001888115729], [-85.59680569131264, 36.129984880616206], [-85.59685969234735, 36.12983588058873], [-85.59688969201149, 36.12970588083935], [-85.59696669194531, 36.129087880528246], [-85.59697369213943, 36.128971880624746], [-85.59697369147021, 36.12856188086729], [-85.5969816919412, 36.1284468810797], [-85.59703469189495, 36.12824488096353], [-85.59710369144425, 36.12801288093418], [-85.59725469172895, 36.12762488026969], [-85.59727869204569, 36.127584880588486], [-85.5972856919373, 36.12756388033188], [-85.59737869180205, 36.12731788078663], [-85.59737869223412, 36.12722687995179], [-85.5973556916532, 36.127054880265746], [-85.59728369144992, 36.126707880302284], [-85.59728169130986, 36.12645588027622], [-85.59735969132025, 36.12646488013239], [-85.5975966920558, 36.1264918803949], [-85.59767569134402, 36.126501880170345], [-85.5984676922368, 36.12660088046139], [-85.59864469179949, 36.12662388013436], [-85.59964369199383, 36.126768880021196], [-85.60000269291257, 36.1268148805179], [-85.60084769290806, 36.12688788008544], [-85.60113969317533, 36.1269138801036], [-85.60123069260341, 36.126917879701544], [-85.60131469269348, 36.12694388011847], [-85.60139869311953, 36.126982880209724], [-85.60149069255728, 36.12706587989899], [-85.60152869329956, 36.12713888016768], [-85.60153669315005, 36.12716588031319], [-85.60154369343151, 36.12720788038195], [-85.60153669281127, 36.127382880466016], [-85.60147569298812, 36.12774087993142], [-85.60141369312443, 36.12810788048766], [-85.60136869257083, 36.12844388074651], [-85.60134569334097, 36.12876388065571], [-85.60137569269494, 36.12885588092641], [-85.60139869352992, 36.128900880963585], [-85.60145969283931, 36.12895488030533], [-85.60152869358275, 36.12899688057744], [-85.60158969308007, 36.12901988023057], [-85.60171169319732, 36.12903888050383], [-85.60192569370375, 36.129046880703406], [-85.60216969288386, 36.129057880598104], [-85.60242169365287, 36.12908788052351], [-85.60250469330087, 36.129103880955185], [-85.60272669369685, 36.1290728807824], [-85.60325369310273, 36.12901588019051], [-85.6039396940088, 36.12894288027762], [-85.60422769397695, 36.12889588040001], [-85.60454269404961, 36.128836880692994], [-85.60499969362911, 36.12872988011885], [-85.6054426938316, 36.12859988063027], [-85.60547169376953, 36.128587880610475], [-85.60554169405987, 36.12856188024546], [-85.60564869414861, 36.12852388069497], [-85.60575569484757, 36.12847387991915], [-85.60594569449417, 36.12839388058259], [-85.60616369420443, 36.12828788007959], [-85.60622369420206, 36.12825788024061], [-85.60625769410932, 36.12824188035261], [-85.60640469480296, 36.128165880315414], [-85.60646469402123, 36.12813487995885], [-85.60705269453292, 36.127806879950924], [-85.60753269510329, 36.12751188036748], [-85.60759369510642, 36.12747488033338], [-85.60818969516978, 36.127118879805224], [-85.60850969534323, 36.12694387981458], [-85.60896769472492, 36.12672687987254], [-85.60942469495211, 36.12653587981885], [-85.60965469496428, 36.126448879693385], [-85.60988269562675, 36.12636487925643], [-85.61007369551653, 36.12629987986352], [-85.61062269579418, 36.126127879993355], [-85.61077569539165, 36.126077879918924], [-85.61092069542148, 36.12603687993814], [-85.61117969530984, 36.12596387953163], [-85.61175969641715, 36.12579187977145], [-85.61198669602663, 36.12571887918679], [-85.61210269620044, 36.12567387935899], [-85.61218669606424, 36.12563987913403], [-85.61236269622296, 36.12558987978752], [-85.61249969590205, 36.125566879143406], [-85.61252969601453, 36.12556687907172], [-85.61254569568828, 36.125555879247756], [-85.61262969627491, 36.125562879600814], [-85.61270269655158, 36.12555987938069], [-85.61322469587721, 36.125578879004664], [-85.61360069674434, 36.12559687977522], [-85.6136826964514, 36.12560187940521], [-85.61389569662846, 36.1256048793612], [-85.61413269663791, 36.12559787965857], [-85.61447569622477, 36.125547879551725], [-85.61493369652776, 36.12544887926323], [-85.61577269668807, 36.125242879237476], [-85.61710769721618, 36.12490687872151], [-85.61804569788924, 36.124673878912866], [-85.61825969813626, 36.12462087924121], [-85.61857269748732, 36.124540878761614], [-85.61903069735986, 36.12443087930698], [-85.61951869783448, 36.124304878995495], [-85.62082869847562, 36.123974878902295], [-85.62089969866254, 36.1239578790287], [-85.6210976986255, 36.12390387862199], [-85.6247576996051, 36.1229798783403], [-85.62495069942375, 36.122931878257965], [-85.6260647001789, 36.12263787853262], [-85.62614769938943, 36.12247587795255], [-85.62634669961587, 36.12209587827145], [-85.62639370010201, 36.12198987827032], [-85.6264686994674, 36.12182487761911], [-85.62652970038059, 36.12166087813344], [-85.62661170027768, 36.121330877917025], [-85.62663470019602, 36.12114287830313], [-85.62663369949814, 36.12110787757438], [-85.6266286995688, 36.12073887824495], [-85.62648469935262, 36.11974887760903], [-85.62631569931638, 36.1189198773397], [-85.62630870011733, 36.1188858773276], [-85.62614869977453, 36.11820087690575], [-85.62582869945531, 36.117037876995305], [-85.62578069896264, 36.116806877030974], [-85.62572869951015, 36.116556876909186], [-85.62572869906192, 36.11627487669297], [-85.62578269924241, 36.11599587666051], [-85.62597269953622, 36.11549687662324], [-85.62619469932348, 36.1150618764644], [-85.62640769967221, 36.11466887639315], [-85.6266366995473, 36.11421087616528], [-85.6268966995657, 36.11371487603111], [-85.6269876996373, 36.11356987630965], [-85.6271026992138, 36.113428876600565], [-85.62749169959794, 36.11305887606225], [-85.62753870008282, 36.11300587665222], [-85.62768269989853, 36.11284787624619], [-85.6277886999795, 36.11273087656032], [-85.62797970016969, 36.11246787629599], [-85.62802570003505, 36.11238387568669], [-85.6281096997446, 36.112207876301945], [-85.62823169984388, 36.1118608763449], [-85.62824670011999, 36.11177687561865], [-85.62833569962898, 36.1111588758703], [-85.6283686998459, 36.1109338762194], [-85.62847569975712, 36.1105368755641], [-85.62852869987405, 36.11039587538055], [-85.62859769970723, 36.11026287535419], [-85.62889569957225, 36.109850875885606], [-85.6289256998605, 36.10980487595129], [-85.62915369959461, 36.10951687568843], [-85.6293607001933, 36.10925887558483], [-85.62947469990681, 36.10912687491082], [-85.62954769992979, 36.109033875509304], [-85.62958170041232, 36.108991875767394], [-85.62960369957135, 36.108966875680174], [-85.62978170001635, 36.108773875675745], [-85.62984170037684, 36.10870987569113], [-85.62986969966734, 36.10868287514618], [-85.62990070018958, 36.10865487529408], [-85.62994069973985, 36.10861487482677], [-85.62995670002313, 36.10860487486768], [-85.62999069956828, 36.10858587516571], [-85.6301006995578, 36.10852287561746], [-85.63021469996433, 36.10848087498028], [-85.6303366996992, 36.10845787478845], [-85.63033870022544, 36.10845687511361], [-85.63045169988658, 36.108450874729954], [-85.63103870065173, 36.108511874792164], [-85.63126770086127, 36.108522874732536], [-85.63142070089172, 36.10850787497402], [-85.63145670060162, 36.10849887504656], [-85.6316417001795, 36.108454874698424], [-85.63180970048869, 36.10837787480251], [-85.63188470103299, 36.10831787522407], [-85.6319537002706, 36.10824187523688], [-85.63212170072681, 36.10792587509658], [-85.63219370077367, 36.1077478749677], [-85.63228970045178, 36.10751187524912], [-85.63238870117043, 36.10721887445761], [-85.63240770100222, 36.10711787493256], [-85.6324187004304, 36.106994874682336], [-85.63241170106754, 36.10684587498338], [-85.63235870095723, 36.10651887488676], [-85.63231370039153, 36.10631487434553], [-85.63229070059354, 36.10613487473631], [-85.63229070029236, 36.105875874929325], [-85.63231370080344, 36.10577287416688], [-85.63232570023358, 36.10568887448823], [-85.6323677003947, 36.105560874778675], [-85.63243370037603, 36.10536487416228], [-85.63259570037981, 36.10498587475508], [-85.63264170001412, 36.10486487459057], [-85.63277070077413, 36.10444187395813], [-85.63284370113051, 36.10418487449983], [-85.6328697006345, 36.104097873798274], [-85.63293070055103, 36.1038578742755], [-85.63309870026647, 36.10325887371375], [-85.63319870018576, 36.10294587421842], [-85.6333817005476, 36.10240087368459], [-85.63341370109059, 36.10230387355174], [-85.6334667002841, 36.102149873855765], [-85.63370170062709, 36.10148087386353], [-85.63373270098852, 36.10138987389263], [-85.63380570066761, 36.10118087397388], [-85.6338997001707, 36.100908873759906], [-85.63404470045637, 36.10050887329675], [-85.63409270079303, 36.10036187351772], [-85.63418270097591, 36.100092872916605], [-85.63432770068543, 36.099554873489666], [-85.6344037008446, 36.09918887333719], [-85.63445670019388, 36.09881487318046], [-85.63462170051264, 36.09685987244686], [-85.63463970025319, 36.09665187228423], [-85.63471670095646, 36.095678872348344], [-85.63476670098053, 36.09500987203905], [-85.63477770104255, 36.094862872386834], [-85.63480070001407, 36.09434387211614], [-85.63482370085751, 36.093653872373174], [-85.63486170015503, 36.09299987203489], [-85.63486870020098, 36.09288687207573], [-85.63490570087183, 36.09233087199527], [-85.6349087007795, 36.09228387206429], [-85.63493770042793, 36.09184887207817], [-85.6349987000804, 36.09142887130726], [-85.63501369990166, 36.09133387122143], [-85.63509070083042, 36.09102487159552], [-85.63531170092847, 36.090460871238896], [-85.63562470100928, 36.089773870832154], [-85.63572370034237, 36.089605871473935], [-85.6359147008305, 36.08936587116711], [-85.63599070080633, 36.089289870787034], [-85.63624070114054, 36.08906287123921], [-85.63691370102416, 36.08845387123617], [-85.63725570082016, 36.08816187066627], [-85.63727270133153, 36.08814887059801], [-85.63754670115945, 36.08794687037593], [-85.63820270091404, 36.08751187050959], [-85.63837370149902, 36.08740787104028], [-85.63875970124634, 36.087175870933855], [-85.63948470084077, 36.08674887029994], [-85.6398397015116, 36.08654287014943], [-85.6400767018762, 36.086404870491585], [-85.64029370162035, 36.08627987002721], [-85.64061370220462, 36.08609686979469], [-85.64139970214488, 36.085626869709344], [-85.64213970158212, 36.08520387042173], [-85.64278870206313, 36.084860869984645], [-85.64356670232621, 36.08449086973301], [-85.64411070286414, 36.08425386945248], [-85.6441997028256, 36.0842158698115], [-85.64526770262198, 36.083795870028304], [-85.64553470301041, 36.083704869534465], [-85.64555570268573, 36.08369786985717], [-85.64561970316817, 36.08367886914807], [-85.64564170319008, 36.08367386959979], [-85.64578670313415, 36.08363186951446], [-85.64583870305063, 36.08361886920609], [-85.64604670359229, 36.08357086936869], [-85.64644070284446, 36.08348486943164], [-85.64664170318106, 36.083441869890535], [-85.64686070332901, 36.08351186929853], [-85.64789270335227, 36.08386486954992], [-85.64819170393885, 36.08395986959975], [-85.64934170424867, 36.084326869312044], [-85.64999070376982, 36.084509869673354], [-85.6501657046041, 36.08453986965657], [-85.65034170415507, 36.08455186951513], [-85.650468704117, 36.08454986922857], [-85.65060070467196, 36.0845398692521], [-85.6514017051534, 36.0844328697788], [-85.65217270467751, 36.084345869439744], [-85.65275970539358, 36.08427686891112], [-85.65299270529077, 36.084251868996176], [-85.65398070572004, 36.08414686942805], [-85.65427870581686, 36.08413586904305], [-85.65462170504551, 36.08414686962929], [-85.65478970609952, 36.08415286920474], [-85.6551987060322, 36.08416786945163], [-85.65543070583234, 36.08417786889589], [-85.6558197062344, 36.08417786961165], [-85.65604070575745, 36.084154869114684], [-85.6561857059216, 36.0841168689731], [-85.65636870584147, 36.084040868784854], [-85.65684870640187, 36.08379086949722], [-85.65736170614755, 36.08352486908924], [-85.65739070688234, 36.08350986883339], [-85.65749670690356, 36.08345886909797], [-85.65790170681551, 36.08326986914086], [-85.65790670629966, 36.08326786899906], [-85.6580477069745, 36.08321486903571], [-85.65811570701923, 36.08318986881731], [-85.65837570651055, 36.08309786923545], [-85.65844370621186, 36.08307186842682], [-85.65861170665549, 36.08302586870659], [-85.65890170629073, 36.082975868963096], [-85.65942770681579, 36.08292686886165], [-85.6595887072407, 36.08290386901847], [-85.65977170710988, 36.08286586910228], [-85.65993970745534, 36.08281986843367], [-85.66002070743122, 36.08277586909035], [-85.66005370750709, 36.08275886874863], [-85.6601527073844, 36.08268586869103], [-85.66023670675463, 36.08259886838905], [-85.6603207076602, 36.08241486848085], [-85.6603517075403, 36.08230886880578], [-85.66038170670272, 36.08214786840132], [-85.66037370671309, 36.08202586864545], [-85.66034370658286, 36.08186586815212], [-85.66030570743622, 36.08176286815682], [-85.66023670715855, 36.081533868627325], [-85.66018370673768, 36.081312868709034], [-85.66018370716766, 36.081240868428004], [-85.66019870738769, 36.081194868665875], [-85.6602597067116, 36.081114868514284], [-85.66030570739808, 36.08108386842623], [-85.66048070660392, 36.08102686874584], [-85.66064870740658, 36.08099586864389], [-85.66105270755783, 36.080950868423535], [-85.66161770761762, 36.080877868584324], [-85.66305170766725, 36.08072886796117], [-85.66379170773355, 36.08062986772032], [-85.66394470767466, 36.08061486822497], [-85.66419670790341, 36.080610868474224], [-85.66447870816452, 36.08063386797675], [-85.66452470789886, 36.080637867817515], [-85.66471570850547, 36.08066486839374], [-85.66481470879197, 36.08067986854083], [-85.66505870800846, 36.08073286779745], [-85.66552370803771, 36.080877868166816], [-85.66591270824924, 36.080950867684855], [-85.66613470895781, 36.08097686768352], [-85.66646970911275, 36.081030867693954], [-85.66709570867364, 36.081110868201], [-85.66750770924695, 36.081163868413256], [-85.66817870898018, 36.08123686828823], [-85.66831670902172, 36.08126686809058], [-85.6684387097933, 36.08130886824254], [-85.66851470961737, 36.08133586822641], [-85.66893070996774, 36.0815128678971], [-85.66923970955587, 36.081644868078655], [-85.66946070916063, 36.081724868395256], [-85.66952170981459, 36.08172086816802], [-85.66957470991147, 36.08170586857716], [-85.67093371044635, 36.080854868090434], [-85.67134871010713, 36.08057986777016], [-85.67162770995763, 36.080396868140205], [-85.67184871069968, 36.08024086783462], [-85.67194770992124, 36.08016086787148], [-85.6720247107211, 36.08006886802334], [-85.67210771003539, 36.07991286757036], [-85.67219171076735, 36.07963786761349], [-85.67223071084486, 36.07957386754927], [-85.67229871045842, 36.07950486766881], [-85.67235971053735, 36.07946286776031], [-85.67258071068956, 36.07935586788322], [-85.6736647103052, 36.07892886728164], [-85.67402271135805, 36.07879886750236], [-85.67416071038954, 36.07873386726227], [-85.67429771134157, 36.07864686698214], [-85.67438171080964, 36.07856286702147], [-85.67441971135965, 36.07852086703402], [-85.67446571095437, 36.07843286731467], [-85.67461871107666, 36.078050867078666], [-85.67469471135594, 36.077921866741434], [-85.67489271092187, 36.07769686723386], [-85.67535071149169, 36.077207866987905], [-85.6754877116729, 36.0770518671312], [-85.67567071113834, 36.07687986722683], [-85.675792711727, 36.07679986645633], [-85.6760147111485, 36.076704866894595], [-85.67615671083864, 36.076661866889324], [-85.6763347112212, 36.076608866493224], [-85.67747971150146, 36.076303867090324], [-85.67779171144612, 36.07624286641235], [-85.6782157116626, 36.076195866769226], [-85.67825671228731, 36.07619386633517], [-85.67832571178076, 36.07618986678489], [-85.67900771169039, 36.07611386658843], [-85.67956171202268, 36.07605286643484], [-85.67996671214658, 36.07601386654879], [-85.68015671291684, 36.07600286612018], [-85.68023371234189, 36.07600686650991], [-85.68027171232625, 36.07602986665715], [-85.68028571294973, 36.07600786693662], [-85.68037771263052, 36.07601486677069], [-85.68053671214598, 36.07604186653539], [-85.68072871272823, 36.076086866148664], [-85.68083371210184, 36.07610186634879], [-85.6809787124998, 36.076108866331076], [-85.68116271314508, 36.076093866647], [-85.68123771248734, 36.07607286630162], [-85.6812617127519, 36.076066866942774], [-85.6814137125259, 36.076010866601294], [-85.68153571232867, 36.07593786645956], [-85.68187271248074, 36.07567486647959], [-85.6819167129662, 36.07564086606342], [-85.68216971295476, 36.07543186644053], [-85.6822517124759, 36.07536586658786], [-85.68244171339735, 36.07523186590129], [-85.68257171339528, 36.07516386617183], [-85.68271671362481, 36.07512186584504], [-85.68290771299648, 36.07510286587926], [-85.68314271368963, 36.075102866394346], [-85.68322971292503, 36.07511386605247], [-85.68339171286084, 36.07513686652044], [-85.68360871361898, 36.0751748657937], [-85.68367471286797, 36.07518686629888], [-85.68425771320275, 36.075288865933366], [-85.68439671362201, 36.075299866641714], [-85.68446471313536, 36.07529886578236], [-85.68454271377198, 36.07527986663914], [-85.6846107139321, 36.07523786621417], [-85.68464971350983, 36.07518686646099], [-85.68467971338, 36.07510686655642], [-85.68466371414449, 36.07494186600993], [-85.68464871382668, 36.07485386592154], [-85.68466371382155, 36.074745865901725], [-85.68470171372267, 36.07462386628377], [-85.68475471393903, 36.07450786594881], [-85.68510171362992, 36.073935865938374], [-85.68522171353052, 36.07373886603362], [-85.68532971372429, 36.073582865725584], [-85.68557371383595, 36.07320686591705], [-85.68565771423538, 36.073094865609434], [-85.68572571402902, 36.073022865890046], [-85.68592471430054, 36.07285386532709], [-85.68604671446188, 36.072781865501405], [-85.68639771394169, 36.0726418652001], [-85.68686271376127, 36.072463865239975], [-85.68746571406825, 36.0722498651485], [-85.68776971391718, 36.072123865439615], [-85.6878387139299, 36.07207886544713], [-85.68807571445407, 36.07194186544151], [-85.68868571454455, 36.07154886509161], [-85.68961571520077, 36.07092186546522], [-85.68973171484987, 36.07084886496395], [-85.68991371436049, 36.07074286482127], [-85.69021871478925, 36.07061486518412], [-85.69032471503047, 36.070583865380506], [-85.69063771494693, 36.070522864669144], [-85.69091171569367, 36.07049686479162], [-85.69136271526185, 36.07049686489215], [-85.6913687155488, 36.07049686493281], [-85.69203871596781, 36.070535864722714], [-85.69224471569703, 36.07057786529477], [-85.69244971558736, 36.07063186513071], [-85.69341071599011, 36.07081186527073], [-85.69363071631801, 36.07082586517847], [-85.69379871616101, 36.07082586482347], [-85.69405071562879, 36.07072186490164], [-85.69480971639689, 36.07041186497528], [-85.69506271627372, 36.07030886497171], [-85.69508871648436, 36.07028086439474], [-85.69512171683107, 36.07022286483093], [-85.69516371688869, 36.07015186471272], [-85.69526071622045, 36.06993986436359], [-85.69527371663898, 36.069911864228025], [-85.6953077165161, 36.06984586478846], [-85.69616271615556, 36.07003086459552], [-85.69702671689319, 36.07021686422472], [-85.69830571729321, 36.070503864546296], [-85.69975671784573, 36.0708298647825], [-85.70194171820252, 36.07192886447443], [-85.70311371891975, 36.072518864601754], [-85.7035647188085, 36.07274586502333], [-85.70358971941758, 36.072757864664126], [-85.70503871999985, 36.073446864653654], [-85.70552271961971, 36.07367686481919], [-85.70732471990209, 36.07453486505462], [-85.70786972015905, 36.07479386500102], [-85.71271272206116, 36.0771458656416], [-85.7145087227603, 36.07801786592022], [-85.71476572213544, 36.078142865839666], [-85.71658872295856, 36.07901786565325], [-85.72106972463988, 36.081167865853274], [-85.72265272481096, 36.08199286615497], [-85.72282472567514, 36.08198986573706], [-85.72513372587754, 36.08196386542508], [-85.7251597257945, 36.081962865712235], [-85.72601272571028, 36.08111686527302], [-85.72695672630996, 36.08097286517347], [-85.72739072636868, 36.08090786577488], [-85.72842272669219, 36.080400865589894], [-85.72943472713096, 36.07993386561442], [-85.72979172660538, 36.079731864817006], [-85.72982872718549, 36.080748865005134], [-85.73078972687303, 36.080797865036885], [-85.7309767269577, 36.08169386506184], [-85.73149972778779, 36.08155286566228], [-85.73361072822287, 36.0809908656186], [-85.73726372927405, 36.08002186534252], [-85.7418827303009, 36.07880186423989], [-85.74158872978647, 36.07789886404162], [-85.74053873040367, 36.077719864742505], [-85.74010873019141, 36.07562186385408], [-85.74167773025871, 36.07508686400009], [-85.74173472960184, 36.075066863593186], [-85.7423677303307, 36.075343863380176], [-85.74583273155261, 36.076860863579], [-85.74607373190551, 36.076965863956566], [-85.74679973149931, 36.07728386427311], [-85.74704173154234, 36.07738986430058], [-85.74714873145133, 36.07743686434739], [-85.74739373184511, 36.077047863465836], [-85.74825173206882, 36.07568886321863], [-85.74831773154436, 36.07558586396586], [-85.74862573245191, 36.07509886319762], [-85.7497757326026, 36.0733068626198], [-85.7499867318935, 36.07297886335858], [-85.7530587327768, 36.06799186224231], [-85.75319373322581, 36.067957861786674], [-85.75526173333516, 36.06745286123481], [-85.75526673329657, 36.067448861655], [-85.75537873304265, 36.067423861661425], [-85.75694773425766, 36.06710586130184], [-85.75725173384484, 36.06719486190117], [-85.75812473490177, 36.06745086110185], [-85.75905673427035, 36.067721861700726], [-85.7593447342036, 36.0678068612525], [-85.76054173485102, 36.06815786168206], [-85.76167273504878, 36.06848986163066], [-85.7628027355755, 36.06882186157349], [-85.76310373616042, 36.06890986177589], [-85.76392873652799, 36.06915286156875], [-85.76505473646658, 36.06948286141071], [-85.76529773624577, 36.069553861459845], [-85.76602873678759, 36.06976786204283], [-85.76627273669544, 36.06983986156224], [-85.76649373654378, 36.06990386147189], [-85.76714073713732, 36.07009386129638], [-85.76714373683829, 36.07011086134059], [-85.76718973666887, 36.07033686212643], [-85.76736873720917, 36.071245861845476], [-85.7674447373225, 36.07163286186855], [-85.76769973740856, 36.07292886245469], [-85.76789273726189, 36.073906862419825], [-85.76790573797778, 36.07397586208469], [-85.76808473755075, 36.07488586211971], [-85.7685617383502, 36.07731286300439], [-85.76922673778682, 36.0774038630314], [-85.77598074039416, 36.078334863032374], [-85.77521174052349, 36.08083786382353], [-85.7743257402284, 36.083731864460425], [-85.77432474032295, 36.083732863890624], [-85.77428974018683, 36.083844863959484], [-85.77424974042269, 36.083868864475754], [-85.77413674018794, 36.08394486443506], [-85.77409874050562, 36.08396986454173], [-85.77346873995741, 36.084378863817285], [-85.7724707398582, 36.085028864391674], [-85.77211273961201, 36.08602586479978], [-85.77186073921541, 36.08673286476736], [-85.77182073987235, 36.08684486450142], [-85.77147273992895, 36.08781486532653], [-85.77116773947736, 36.088669865468965], [-85.7703957394253, 36.089509865285244], [-85.7702987391828, 36.09073986584355], [-85.77028473912844, 36.090906866130474], [-85.77021173988221, 36.09184586623193], [-85.77017573994435, 36.09205186621673], [-85.77015673972413, 36.09215686554244], [-85.77010173997093, 36.09247486579256], [-85.7700837393854, 36.092580865598094], [-85.76990673992488, 36.09431986633154], [-85.76983973981969, 36.09498786640451], [-85.77351874023987, 36.09502386634061], [-85.77302474062806, 36.095769866879], [-85.77206074081106, 36.09722886674376], [-85.7721757399667, 36.097421866915276], [-85.77229074055354, 36.0976358671985], [-85.77254374051148, 36.09806686690843], [-85.77264174109229, 36.09823386746634], [-85.77284774030998, 36.09848986700873], [-85.77295774049846, 36.09860586694723], [-85.77307274047581, 36.09870286684697], [-85.77322674080227, 36.09884286691841], [-85.77335974125067, 36.0989358672545], [-85.77354274110316, 36.099041867363276], [-85.77481374162299, 36.099717867675054], [-85.7748587412368, 36.09973886719321], [-85.77495674115626, 36.09978586686924], [-85.77546874150806, 36.09997286704993], [-85.77548574123738, 36.09998286751592], [-85.77566374109313, 36.10008886767768], [-85.7757407410427, 36.10013286701108], [-85.77587874136364, 36.100211867376245], [-85.77617674124049, 36.10038186725134], [-85.77628474179907, 36.100464867123435], [-85.77629274197848, 36.10047086721846], [-85.77639274228821, 36.10058386764554], [-85.77645774205317, 36.10149686771719], [-85.77659774245117, 36.102012867348584], [-85.77678674148595, 36.102343867992396], [-85.77735174223257, 36.102390867540784], [-85.77794774271747, 36.10217986805871], [-85.7780847420714, 36.102131867803635], [-85.77900574263109, 36.10140586740953], [-85.77946074266865, 36.100977867483365], [-85.7797877423987, 36.10064586755298], [-85.78027374318442, 36.10055686707658], [-85.7807197425863, 36.1006208669573], [-85.78106774361919, 36.10097586748952], [-85.78241574343095, 36.10136086759586], [-85.78346774421752, 36.10181086722869], [-85.78465874439165, 36.10217286738338], [-85.78579974428844, 36.10222086710128], [-85.78608174480871, 36.10234186755972], [-85.78732674542002, 36.102879866974476], [-85.78796274527299, 36.10296786715777], [-85.78820174516999, 36.103168867316654], [-85.7884987458527, 36.1038248673917], [-85.78857074600093, 36.104499867422895], [-85.78842274536159, 36.10479286781694], [-85.78839274577467, 36.10485486761245], [-85.78787674523423, 36.105275868245755], [-85.78884274546326, 36.107024868060776], [-85.78903574534776, 36.10723686853971], [-85.78931974641976, 36.10754886794919], [-85.78985474603105, 36.10778686862415], [-85.791531746197, 36.107650868378485], [-85.79187974657417, 36.10781886778841], [-85.79219374698421, 36.10828686815253], [-85.79248674684584, 36.108721868076444], [-85.79295274701042, 36.1090598683864], [-85.79351974689268, 36.10965686870172], [-85.79394874703263, 36.111091868317224], [-85.79433674715142, 36.11176086891739], [-85.79405174806836, 36.112882869516305], [-85.79418074737733, 36.11305186950124], [-85.79508374763029, 36.11309086947238], [-85.79571874812648, 36.11317886903562], [-85.79637374864228, 36.11353286918153], [-85.79640574838238, 36.113566868955466], [-85.79679074831117, 36.113967869002614], [-85.79686174915068, 36.11447586892343], [-85.79675374854892, 36.114992869089086], [-85.79694274922532, 36.11550886976258], [-85.79706174824459, 36.11598186974429], [-85.79709274841883, 36.11610586956318], [-85.79781774873267, 36.11665286925566], [-85.79796974874156, 36.11680787013084], [-85.79797674884695, 36.11681486927641], [-85.79758574864955, 36.1198158701483], [-85.79755474889677, 36.12054087082873], [-85.79750274900613, 36.121793871109254], [-85.79762974900704, 36.1217978703982], [-85.79783274976394, 36.12177887080615], [-85.79790174911297, 36.12177887106555], [-85.79800074955696, 36.12180187102683], [-85.79829574992654, 36.12189387064955], [-85.79854974984264, 36.121973870300984], [-85.79874074935765, 36.12199687094494], [-85.79905374929479, 36.12198487074953], [-85.79930575004563, 36.12195087053544], [-85.79944275027607, 36.12195487103337], [-85.79962574965339, 36.12198887028173], [-85.8001297498763, 36.12212587036273], [-85.80035074996101, 36.12216787060001], [-85.80057975066491, 36.12218687107509], [-85.80068875030987, 36.12218987033877], [-85.80080074980776, 36.12219487073219], [-85.8009687501902, 36.122221871080086], [-85.80147875032652, 36.12236387105242], [-85.80169775090545, 36.122434870535606], [-85.80174675094959, 36.12245087080066], [-85.80237175093946, 36.122598870811174], [-85.80259675055811, 36.12265287094917], [-85.80251375058933, 36.122747870400204], [-85.80038575079887, 36.12510587113891], [-85.80123475022688, 36.12547287122251], [-85.80174075033705, 36.1256508710548], [-85.80229475089999, 36.12615887132933], [-85.80291875085358, 36.126602871932285], [-85.80355275112734, 36.12682887191051], [-85.80373675162073, 36.12685187122149], [-85.80550975229767, 36.12708287104228], [-85.80556675211683, 36.12715887171941], [-85.8056027518843, 36.12720687180016], [-85.80563575147663, 36.12726787119094], [-85.80578075238193, 36.127646871787064], [-85.80583975191173, 36.1277008714945], [-85.8058897522857, 36.127762871519394], [-85.80590675243549, 36.12780487194214], [-85.80592175204326, 36.12782087165238], [-85.80596575261315, 36.12786687199308], [-85.80600075223293, 36.12794887183881], [-85.80604775222895, 36.12799587195257], [-85.80606775158313, 36.12802487121677], [-85.80614375202791, 36.12816087139212], [-85.80616875201454, 36.12818887197628], [-85.80621275192144, 36.12826487126411], [-85.80626275170668, 36.12840887144949], [-85.80630475241662, 36.12860087201108], [-85.80627475257363, 36.1286868716786], [-85.80628375276352, 36.12894487191571], [-85.8062587523889, 36.12900387181421], [-85.80623275226085, 36.129102872121095], [-85.8061527518281, 36.12924787202629], [-85.80610175202298, 36.12930987183028], [-85.80607675274578, 36.12937787157826], [-85.80602175227986, 36.129484871577745], [-85.80600975199157, 36.12956387214758], [-85.8060087523753, 36.12959787202785], [-85.8060257526659, 36.12977687153787], [-85.8060507522307, 36.12980387174513], [-85.8060687523124, 36.12983787242597], [-85.80607675173422, 36.1298658718229], [-85.80611675233827, 36.129939872017644], [-85.80616875232003, 36.13000987189937], [-85.80618675276467, 36.13005787168764], [-85.80621175209923, 36.13010687228842], [-85.80624575205023, 36.13014787161588], [-85.80624675283086, 36.130153871947385], [-85.80630075235756, 36.13037387191809], [-85.80636375270005, 36.130565871827315], [-85.80638975228715, 36.13059387214892], [-85.80643975200927, 36.13068987247167], [-85.80646575237778, 36.13072487188848], [-85.80649075212817, 36.13077887256079], [-85.80655875295075, 36.13083487176102], [-85.80663775203051, 36.13088287192737], [-85.80669475237649, 36.13091687191916], [-85.80676275262516, 36.130934872480324], [-85.80679675199524, 36.13094487223198], [-85.80685875296933, 36.13097887204247], [-85.80709775278635, 36.131168872105725], [-85.80712575273051, 36.1311908722334], [-85.80716875251888, 36.13124287191758], [-85.80719375244118, 36.131266872515816], [-85.80723875294716, 36.13133087191458], [-85.80737375246889, 36.13152387219027], [-85.80741975294785, 36.13158887260001], [-85.80740275239573, 36.13160087264619], [-85.80611375218184, 36.132505872137045], [-85.80589775187872, 36.13265887251354], [-85.8052677524301, 36.133361872312484], [-85.80457575248124, 36.13413387252502], [-85.80391375145082, 36.135120873522915], [-85.80376675203463, 36.135553873251645], [-85.80372375177927, 36.135680873162585], [-85.80368075224561, 36.13580887344215], [-85.80347875153538, 36.13640187304249], [-85.80333575196275, 36.13682487385862], [-85.80306075185412, 36.137530873866005], [-85.80298975165789, 36.13771287332801], [-85.80291875198355, 36.13789587402855], [-85.80284275232873, 36.13809087384727], [-85.8027657521261, 36.13829087390405], [-85.80237475160654, 36.13842787371445], [-85.8021777521382, 36.13849787351776], [-85.80214975176904, 36.138505873954664], [-85.80206675144744, 36.13853087364913], [-85.80203975187061, 36.13853987428587], [-85.8019367514821, 36.13858287416078], [-85.8016887518607, 36.138670873889915], [-85.80162175198038, 36.138695874340435], [-85.80162075148114, 36.13929187383729], [-85.80179775140445, 36.13971187436512], [-85.80194375127677, 36.14005787446943], [-85.80202275185081, 36.14021387412752], [-85.80206375199239, 36.14029487439769], [-85.80209975159622, 36.140365874310284], [-85.8022527522742, 36.14061087445736], [-85.80259275156439, 36.14087687404436], [-85.80280275174941, 36.14104187457992], [-85.80310275220687, 36.1412728740385], [-85.80325675241313, 36.14139987407124], [-85.80370675222915, 36.1417728746892], [-85.804411752499, 36.142096874490555], [-85.80475875218993, 36.142245874698226], [-85.805010752423, 36.142354874449175], [-85.80512575269293, 36.14240387452111], [-85.80513175299726, 36.14243187426427], [-85.80514675261321, 36.1425068741913], [-85.80516175248843, 36.142580874631626], [-85.80517075247111, 36.142629874682505], [-85.80517475331376, 36.14264587468478], [-85.8051417528237, 36.14277787491488], [-85.80513075309331, 36.142827874595135], [-85.80506575261873, 36.14309287430333], [-85.80487475233522, 36.14323187503096], [-85.80485675269182, 36.143288875066986], [-85.80480475311154, 36.14339187475436], [-85.80476375223338, 36.143496874958174], [-85.80472175285207, 36.143538874525255], [-85.80469175278975, 36.143552874616226], [-85.80463075295458, 36.14362587514914], [-85.80460075248756, 36.143673874778614], [-85.80448775271687, 36.14379687514288], [-85.80435075307794, 36.14393187534889], [-85.8042767527439, 36.14402487492649], [-85.80427175236939, 36.14405287488147], [-85.80425275305412, 36.1440738746694], [-85.80420175236334, 36.14423087483641], [-85.80419975272208, 36.144310875320194], [-85.80422975212616, 36.14440587491038], [-85.8042507527473, 36.14442587521428], [-85.80425775267193, 36.144445875334306], [-85.80435075218168, 36.144526875257455], [-85.80436775241758, 36.14454787484579], [-85.80438975262669, 36.14458387478597], [-85.80440475248577, 36.144619875090626], [-85.80439175270762, 36.14465287481626], [-85.80434275308906, 36.14471387470268], [-85.80432375300835, 36.144732874629575], [-85.80422375303135, 36.14481987474679], [-85.80418175257716, 36.14482587469185], [-85.80414675302839, 36.14484787501302], [-85.80406275296147, 36.14488787478504], [-85.80397975262109, 36.144910874994906], [-85.80424775224058, 36.145083875470064], [-85.80505475338676, 36.14560487527964], [-85.80532375307979, 36.145778875325796], [-85.80574075286975, 36.146047875627055], [-85.80597975293475, 36.14622387532133], [-85.80614675363077, 36.14634687552397], [-85.8062247529638, 36.14646787512894], [-85.80652175348054, 36.146926875411836], [-85.8065867529796, 36.14700587565058], [-85.80665275359125, 36.147085875136625], [-85.80698375407063, 36.147486875778576], [-85.80725375406784, 36.147813875833485], [-85.80707175394411, 36.14941487612526], [-85.8066747540782, 36.152925876975566], [-85.80556875454486, 36.162687878792106], [-85.80528875467395, 36.16516087885749], [-85.80451475397749, 36.16520087939227], [-85.80431275405884, 36.166372879830114], [-85.80405175384382, 36.16790487945414], [-85.80363575378041, 36.17035088010355], [-85.80145375337622, 36.17030388073204], [-85.79990075290219, 36.17027188076261], [-85.79978875280585, 36.17026888046359], [-85.79945275276356, 36.17026288007665], [-85.799340752388, 36.17026088064048], [-85.79921675306689, 36.17025888006746], [-85.79714075186092, 36.17058188084647], [-85.7905507501889, 36.17160888068266], [-85.78835575033915, 36.171952881436745], [-85.7881257493045, 36.1719868810119], [-85.78743574959718, 36.17209588155919], [-85.78720674945525, 36.172131880999665], [-85.7857397494725, 36.17236088142347], [-85.78535074944632, 36.17291688141845], [-85.78531874885344, 36.172920881895365], [-85.78460474882263, 36.17301088128582], [-85.78396074887831, 36.173092881577695], [-85.78373674870276, 36.17482588164707], [-85.78416974842519, 36.17601888214929], [-85.78602574919361, 36.17626488218878], [-85.78717674941771, 36.176416882382696], [-85.78700975041316, 36.17845388259507], [-85.78686775000159, 36.1802048831528], [-85.78781075046331, 36.180325882823475], [-85.78801774984255, 36.180338882762435], [-85.79066875067696, 36.18048988261169], [-85.79083775116327, 36.18021888279938], [-85.79125775066996, 36.17954788297291], [-85.79289575131946, 36.179717882288934], [-85.79362175138776, 36.1790658822862], [-85.79291975178026, 36.17828388242368], [-85.79300675146041, 36.17382488114734], [-85.79301375092642, 36.17351088112312], [-85.79375775182366, 36.17344688136345], [-85.79425375197802, 36.1735448815391], [-85.79554975257854, 36.17409588134395], [-85.79579075207371, 36.174198881087676], [-85.7963977526533, 36.173747881220145], [-85.79778075258187, 36.172724880889575], [-85.79871675321412, 36.17177188085197], [-85.79878675273105, 36.17170188101843], [-85.79968775320663, 36.17188288063992], [-85.80040375292519, 36.17202588056517], [-85.80018975313779, 36.172881880905095], [-85.7998107534106, 36.1744108814125], [-85.80305675439755, 36.174735880988145], [-85.80305675388023, 36.17473788083903], [-85.8032307542627, 36.176341881304545], [-85.80336075497115, 36.17754188178605], [-85.80360775479474, 36.17981488174512], [-85.80493975564994, 36.17991388218779], [-85.80524575473493, 36.17993688197534], [-85.80491575564893, 36.18075088233887], [-85.80491475528454, 36.18077388213288], [-85.80490975559829, 36.180860882326655], [-85.80489575564087, 36.181122882180006], [-85.80489175507786, 36.18121088255175], [-85.80487775543799, 36.18145688269362], [-85.80483975564405, 36.18219588264059], [-85.80482675484991, 36.182442882897476], [-85.80479475503141, 36.183050882971465], [-85.80438775519208, 36.18302888286649], [-85.80134575436459, 36.18286488301285], [-85.80049175455564, 36.18281888324579], [-85.80042475423282, 36.18296388265461], [-85.80032975400339, 36.183173882571026], [-85.80004675361073, 36.183803883315036], [-85.79995275384915, 36.184014883118486], [-85.79985575419863, 36.1842368828789], [-85.79956875422681, 36.184902883749835], [-85.79947375435034, 36.18512588324163], [-85.79938975394674, 36.185270883493445], [-85.79895475402941, 36.1857138832633], [-85.7986567539139, 36.18606788387386], [-85.79848875356679, 36.186251884083894], [-85.79824475324193, 36.18647288353909], [-85.79824275398573, 36.18647388327515], [-85.798023753515, 36.18666388363573], [-85.79777175345923, 36.18679688364681], [-85.79760375378778, 36.186838883664876], [-85.79743575353254, 36.186861883565435], [-85.79726075337877, 36.18686188362035], [-85.79699375289573, 36.18683488360549], [-85.79682575332173, 36.18683888367694], [-85.79665775283632, 36.18686188429735], [-85.79648975337908, 36.18691088357672], [-85.79620775306105, 36.187086883647815], [-85.79583375257864, 36.18736188431915], [-85.79551375308979, 36.18763588389321], [-85.79546775350246, 36.18770488398952], [-85.79544475284992, 36.18778088419129], [-85.79545275259392, 36.18786088433128], [-85.7956277535967, 36.18831888378645], [-85.79572775287028, 36.188704884221956], [-85.79574275316438, 36.188764884203856], [-85.79584175299348, 36.1891888843497], [-85.79586475296745, 36.189413884519105], [-85.79584975268685, 36.18973788434001], [-85.7958127530524, 36.18995688442376], [-85.79578075265441, 36.19015788443346], [-85.79565875338021, 36.19062688509339], [-85.79552175364702, 36.1910848849137], [-85.79549075351471, 36.191267885189404], [-85.79548275358253, 36.191450884756236], [-85.7955177534648, 36.191693884837115], [-85.7955217535686, 36.19174488444753], [-85.7956117534657, 36.19173688515645], [-85.79889975408845, 36.19145588458911], [-85.79933375438944, 36.191418884549705], [-85.79971075455958, 36.191757884999284], [-85.80019375486769, 36.1927898846901], [-85.8006277554063, 36.19393488554627], [-85.80083275478464, 36.195038885563534], [-85.80051275476096, 36.195691885167115], [-85.80019375529753, 36.19630488596499], [-85.79978375535374, 36.197053885381195], [-85.7995937552431, 36.197770886175036], [-85.7996207549164, 36.19843988570439], [-85.7997587548143, 36.19901288591907], [-85.79946875461053, 36.19947188622923], [-85.79923975460709, 36.19989088592081], [-85.79917075519074, 36.20033488661168], [-85.79912775501376, 36.2006158864685], [-85.79880775512075, 36.20135788642861], [-85.79875575493035, 36.20217188665999], [-85.79899175473061, 36.20363588690381], [-85.79901375509098, 36.203633886736796], [-85.79906175534866, 36.20363088710613], [-85.79908775456971, 36.203624886697845], [-85.79931275474237, 36.2035778875303], [-85.79937075476555, 36.20355788731403], [-85.79946375562548, 36.203527887439854], [-85.79946275479811, 36.20356088712753], [-85.79946275550816, 36.20366088703852], [-85.79946275517148, 36.20369488695262], [-85.7994587556581, 36.205794887663515], [-85.79945875501534, 36.20631588738553], [-85.80108775589562, 36.206284887249424], [-85.80175475555043, 36.2058338871899], [-85.80242175580084, 36.20529388759605], [-85.80331775579619, 36.20460188694895], [-85.80399375632439, 36.20423888718108], [-85.80457675668114, 36.20417588690642], [-85.80666575757378, 36.203950887061914], [-85.80682775762256, 36.20437488701036], [-85.80688375733224, 36.20452188741085], [-85.80728075753473, 36.20489088693501], [-85.80783475720229, 36.20526088667686], [-85.80783675752619, 36.20526188662306], [-85.80827275734681, 36.20539188666505], [-85.80854175801628, 36.205470887398555], [-85.80873075810082, 36.205525887199805], [-85.8089097574621, 36.205577886898986], [-85.80914775844505, 36.2057968869094], [-85.80935375806297, 36.206217886761216], [-85.80917275776798, 36.20660488734193], [-85.80914575827092, 36.20661888767151], [-85.80872575857167, 36.20684788771678], [-85.80870475759927, 36.20687788710589], [-85.80847575835489, 36.20712188777108], [-85.80815575803668, 36.20740388719286], [-85.8080217574056, 36.2075048870848], [-85.80771275821884, 36.20773988733642], [-85.80753775799607, 36.20788088745373], [-85.80671375730856, 36.20853688743768], [-85.80637775732495, 36.20883688828629], [-85.80593575749211, 36.209211887799576], [-85.80577375731173, 36.20932988785103], [-85.80556175772871, 36.20947188809287], [-85.8054927574591, 36.20951688811513], [-85.80540875733591, 36.20960088814779], [-85.80536275769077, 36.20966188776322], [-85.80524075704814, 36.2098868880486], [-85.80515075719929, 36.2100398881988], [-85.80514475762469, 36.2100488881274], [-85.80512875731121, 36.21007588843221], [-85.8051237572641, 36.21008588853675], [-85.80485875741786, 36.21072888829775], [-85.80456975694102, 36.211002888180204], [-85.80425175654484, 36.21110288835499], [-85.80393475710054, 36.211203888781114], [-85.8033277570275, 36.211251888203485], [-85.80280175663424, 36.21116288826213], [-85.80234475625245, 36.21131588847489], [-85.80161875581237, 36.211395888173605], [-85.80107275615514, 36.211467888813004], [-85.80058675553376, 36.21124988882867], [-85.80009475611094, 36.211108888938995], [-85.8000807559421, 36.21110488863109], [-85.79973275620543, 36.21106388822844], [-85.79932575535787, 36.21113588879178], [-85.7991067551322, 36.21139388870374], [-85.79883775581226, 36.21154688902786], [-85.79737575514537, 36.21143488858692], [-85.79299075329602, 36.211100888899715], [-85.79152975383909, 36.210989889123155], [-85.79143775358496, 36.21096688856913], [-85.79116375298392, 36.21089988887485], [-85.79107275341558, 36.210877889237715], [-85.7901007524391, 36.21084188937635], [-85.78718775151633, 36.21073688888632], [-85.78621675166733, 36.21070288909404], [-85.78508175151946, 36.21115288897472], [-85.78450475139742, 36.21138588890939], [-85.78448875091318, 36.21138488973127], [-85.78337175083416, 36.21133688971415], [-85.78294375141908, 36.21143288913811], [-85.78175275099034, 36.213633889431264], [-85.78148175087624, 36.21431888989053], [-85.78155875103174, 36.21502888971542], [-85.78157775057284, 36.215092889808744], [-85.78184375110823, 36.215964890024935], [-85.78230475147889, 36.21679289064034], [-85.78251375077232, 36.21763589095225], [-85.7829267517927, 36.218220890321206], [-85.7831067509187, 36.218474890890164], [-85.7831317513215, 36.21981489078535], [-85.78015675064935, 36.22070389125162], [-85.77863875049545, 36.22115889165452], [-85.77866175058486, 36.22120989109045], [-85.77873874979461, 36.221298891535916], [-85.77889875071267, 36.22151189166689], [-85.77891575056265, 36.221552891745844], [-85.77900875005176, 36.22164989176294], [-85.77905175043287, 36.22170389184993], [-85.77906875043656, 36.22173889152412], [-85.77927975008333, 36.221909891605435], [-85.77955375049314, 36.22211189141506], [-85.77958875044197, 36.22213689138486], [-85.77982075110421, 36.22229489164614], [-85.78003375091994, 36.2224668916836], [-85.78009275023818, 36.222538891918866], [-85.78025375115843, 36.22269989200655], [-85.78032075045083, 36.222789891594516], [-85.78038075062048, 36.22289989199674], [-85.78041475135336, 36.222981891700144], [-85.7804907513319, 36.223098892128924], [-85.78120975073564, 36.22373089153443], [-85.78127075073284, 36.2237738923642], [-85.78129475106735, 36.22380389174712], [-85.78142975071074, 36.22389589195413], [-85.78160775103741, 36.2240538918969], [-85.78168675169297, 36.224140892370826], [-85.78175275171469, 36.22423289184497], [-85.78182375155846, 36.224322892375376], [-85.7818227509704, 36.22435789246256], [-85.78185275177952, 36.22438289173948], [-85.78191175145919, 36.22443889244228], [-85.7820047516991, 36.22454789171412], [-85.78208175200265, 36.22467789219967], [-85.78210675149862, 36.22473389183847], [-85.78213275186123, 36.224849892524304], [-85.78214075102575, 36.2249528920652], [-85.78211875141183, 36.2250348920574], [-85.7821147515306, 36.22504989208839], [-85.78208075160641, 36.225090892495764], [-85.78193775096713, 36.225207892270205], [-85.7818787511754, 36.2252418918078], [-85.78161175169045, 36.22535889251855], [-85.78159075180677, 36.22537289207262], [-85.78150575116872, 36.2253868921282], [-85.78147675148074, 36.22539689196216], [-85.78138775086123, 36.22540689225919], [-85.78128575114646, 36.22543489260784], [-85.78121775085529, 36.22547589248292], [-85.78119275173174, 36.22549689267075], [-85.78115075103828, 36.22554489257436], [-85.78114975149359, 36.22556489261176], [-85.78117575090256, 36.22568889187218], [-85.78122175137021, 36.22573689257373], [-85.78123475120877, 36.22575089235769], [-85.78126875137329, 36.22581289260585], [-85.78132375108818, 36.22598089270179], [-85.78139575153801, 36.226307892864455], [-85.78142875115728, 36.2265138920803], [-85.78143575136409, 36.226711892703605], [-85.78144975173826, 36.2271018926422], [-85.78146775107304, 36.227334892464576], [-85.78149275169535, 36.227485892355276], [-85.78153075100458, 36.22767489255701], [-85.78169975214071, 36.22806689303768], [-85.78181075138134, 36.22823789323621], [-85.78181875216674, 36.22826589258937], [-85.78192875128065, 36.228505892403774], [-85.7819757512154, 36.228647892549], [-85.78203575185452, 36.22890989285716], [-85.78211475139351, 36.2291728925999], [-85.78214075192372, 36.229199893386166], [-85.7821907520255, 36.22928989263845], [-85.78225475136836, 36.22936689257456], [-85.78238575232965, 36.229495893213404], [-85.7823957523613, 36.229508893398595], [-85.78242775205668, 36.22955089322793], [-85.78245375193343, 36.22959889342489], [-85.7824867523418, 36.22970189276256], [-85.7824867522181, 36.22974289316673], [-85.78243975207202, 36.23011689325934], [-85.78244475166876, 36.23031289289293], [-85.78246175242406, 36.230367892917506], [-85.78250475215667, 36.23040889323717], [-85.78252075180664, 36.23043389322592], [-85.7825457516005, 36.23045689337087], [-85.78257175251952, 36.23046489349715], [-85.78262175203366, 36.23045089280774], [-85.78269875189213, 36.23040289323739], [-85.78283475243248, 36.23038189320019], [-85.78310975199365, 36.23030989351754], [-85.78326575250084, 36.230284893210964], [-85.78330375171646, 36.230274892881184], [-85.78334775174743, 36.23026789357154], [-85.78337575274679, 36.23026489313715], [-85.78343975208219, 36.23024689323755], [-85.7837107522448, 36.23020689297555], [-85.78412075229944, 36.23016089329402], [-85.78431575256316, 36.23014789266017], [-85.78445075296845, 36.2301478930022], [-85.78461175294709, 36.230167892709204], [-85.78471375218376, 36.230184893225484], [-85.78476475266278, 36.23020189291956], [-85.7848747530887, 36.23027389318376], [-85.78501775284155, 36.23034689295966], [-85.78509375264835, 36.23035989319941], [-85.78521375282389, 36.230394893066276], [-85.78523775326723, 36.23040889303171], [-85.78534375295884, 36.230439893468386], [-85.78549175314708, 36.23045589268732], [-85.78554275313388, 36.230483893320454], [-85.78564475330083, 36.230497892867035], [-85.78570775337073, 36.23050089307493], [-85.78577275301954, 36.23049789282604], [-85.78579675295724, 36.230496892667276], [-85.78585575276405, 36.23048389344264], [-85.78621175296453, 36.23021589276501], [-85.78627975297555, 36.23017389337485], [-85.78631275297583, 36.23014689333307], [-85.78646575348796, 36.23011889331886], [-85.7864917526971, 36.23011689258996], [-85.78500275260018, 36.23173389309748], [-85.78384975254389, 36.23298789388768], [-85.78289175236547, 36.234156894154054], [-85.78234275262484, 36.23463189385246], [-85.7813667523497, 36.235033893873386], [-85.78045975206675, 36.23553289400169], [-85.78019675122758, 36.23602889436207], [-85.78016975192756, 36.236081894043565], [-85.7799387512564, 36.236782895038104], [-85.77972775217071, 36.23732289479105], [-85.77989575135814, 36.23768689470826], [-85.78015275186024, 36.238017894889886], [-85.78289075266015, 36.24466689566531], [-85.78268975351433, 36.24517489598238], [-85.78187275248324, 36.24575489612099], [-85.78116575229019, 36.24619689651082], [-85.78075675214176, 36.2465108961104], [-85.7805477529362, 36.24677689634687], [-85.77977275274156, 36.248570897053305], [-85.77974975268063, 36.248624896890995], [-85.77967375278186, 36.24880089670527], [-85.77964875208613, 36.24886089681095], [-85.77962575182531, 36.24889689742128], [-85.77861275207341, 36.24905489705675], [-85.77762875156522, 36.24908589725999], [-85.77723175192087, 36.24890789745746], [-85.77720875168207, 36.24884689731342], [-85.77689675102894, 36.24799689658731], [-85.7756757512337, 36.245703896401025], [-85.77560375084096, 36.24562189653869], [-85.77556975074782, 36.2455548968787], [-85.77551575080457, 36.24550089623541], [-85.77548075122775, 36.24547689653007], [-85.77545875039615, 36.24544489648625], [-85.77543775113226, 36.24537589680012], [-85.77543575057196, 36.24528089609852], [-85.77542975072828, 36.24527489632176], [-85.77457475060507, 36.24525389626596], [-85.77448575029955, 36.24526189615658], [-85.77402075014082, 36.24519289668933], [-85.77383475011214, 36.245192896528124], [-85.77379175026694, 36.24522789612444], [-85.77367375089024, 36.245275896866005], [-85.7735817502226, 36.24533089644619], [-85.77346675011218, 36.245385896994776], [-85.77341175030762, 36.245419897028974], [-85.77338675052893, 36.24540589651017], [-85.77334375031657, 36.24541289675745], [-85.77328875055616, 36.24540989703696], [-85.77325875053324, 36.24539289685191], [-85.77311575029411, 36.24535089638189], [-85.77262475067397, 36.245309896879625], [-85.77239574954494, 36.24531089684081], [-85.77227675050696, 36.24532389625076], [-85.77215874960255, 36.24535889627339], [-85.77207474958034, 36.24540689647862], [-85.77203174990049, 36.245412896804154], [-85.77160875027698, 36.245646897095455], [-85.77157375038796, 36.245653896515016], [-85.77154975034513, 36.24567489649001], [-85.77149775010525, 36.245681897087], [-85.77144775033044, 36.24571589667014], [-85.77124375001353, 36.24577089704082], [-85.77085874920469, 36.24582889656398], [-85.77082975003474, 36.24583989686106], [-85.77075774994195, 36.245849897224375], [-85.77052474979689, 36.24590889685563], [-85.77045274960297, 36.245918897037015], [-85.77042374923117, 36.24592989723419], [-85.77023274953167, 36.2459598972512], [-85.77009774942238, 36.24597389688571], [-85.7698477494742, 36.245956897003225], [-85.76967774886717, 36.245907897112986], [-85.7693907494209, 36.245777897135255], [-85.76915474957677, 36.245605896905666], [-85.76909874881838, 36.245553896587275], [-85.76907774868872, 36.245524896559274], [-85.76903474948789, 36.24548289669376], [-85.76900174954453, 36.2454208970683], [-85.76897574927155, 36.24539389718823], [-85.76877274952118, 36.244933896901784], [-85.76866274898606, 36.24466589693392], [-85.76854474834352, 36.24445289668084], [-85.76848574847469, 36.24438289649268], [-85.76821374932177, 36.24416389686346], [-85.76811274837695, 36.24410189626832], [-85.76787574831141, 36.24389189685121], [-85.7670767479717, 36.24321389636585], [-85.76703774873472, 36.243180896777076], [-85.76702074856016, 36.24314089653822], [-85.76699574838258, 36.24311289597945], [-85.76697874831733, 36.24291389647788], [-85.76701674817997, 36.24268989675092], [-85.76707974863609, 36.242534896015634], [-85.76710074854098, 36.242263896191105], [-85.76709674852567, 36.24218489622336], [-85.7670797483403, 36.24206089652227], [-85.76699574862216, 36.24195789590735], [-85.76675374863105, 36.24176589635626], [-85.76637774794875, 36.24155989630055], [-85.76589574745805, 36.24130989653134], [-85.76570474838341, 36.241188895645], [-85.7653107472056, 36.240900896391686], [-85.76493074727095, 36.24059089624725], [-85.76479474778613, 36.240473895983584], [-85.76477874724546, 36.2404398958889], [-85.76474474737245, 36.240396896266134], [-85.76473574715186, 36.24038489606261], [-85.76462174750729, 36.2402538955588], [-85.764536747199, 36.240144896276654], [-85.76448974794181, 36.24009589612426], [-85.76447374763377, 36.24005589563397], [-85.7644317477387, 36.239999895480935], [-85.76432074755083, 36.23989689615877], [-85.76409274732526, 36.239718895536846], [-85.76404174732959, 36.239704895453606], [-85.76399974777206, 36.23966389602509], [-85.76395674752729, 36.23960889590695], [-85.76389774764048, 36.23956089585864], [-85.76388174766876, 36.23952689563611], [-85.7638597468117, 36.23949889575034], [-85.76380174699528, 36.23943789564229], [-85.76376174761896, 36.2393958960738], [-85.7636867475127, 36.239333895650375], [-85.76365274665402, 36.23927889589765], [-85.76350474750808, 36.23913689591749], [-85.76348274653924, 36.23910789559987], [-85.76337374662495, 36.23899789587555], [-85.76331474745855, 36.238914895573664], [-85.7632207474497, 36.23883889585306], [-85.7632037466728, 36.238804895373676], [-85.76314474716378, 36.238735895508526], [-85.76305974701826, 36.23866789544965], [-85.7630427474569, 36.23863389584935], [-85.76301774718048, 36.238603895508454], [-85.76298374675584, 36.238563895539826], [-85.76289974705763, 36.23849589552467], [-85.76288174713177, 36.238460895379475], [-85.76286574710424, 36.238440895537096], [-85.76275174680961, 36.23833289604407], [-85.76269574661188, 36.23826189571232], [-85.76253474642786, 36.23811089546023], [-85.76231974667223, 36.23793889566145], [-85.76222274662574, 36.237883895888466], [-85.76208574660855, 36.23779289534347], [-85.7620637463732, 36.23778989599743], [-85.76196874637053, 36.237739895446616], [-85.76184874638867, 36.237694895103616], [-85.76177374678079, 36.237671895771555], [-85.76165974696065, 36.237654895515384], [-85.76157874610097, 36.2376298952183], [-85.76145974672087, 36.2376088951828], [-85.76140174689067, 36.23758889511589], [-85.7612767466702, 36.23757389512001], [-85.76116374645879, 36.23754089511932], [-85.76113074591578, 36.237519895316346], [-85.76104574652423, 36.23749989576304], [-85.76101974574416, 36.23748589516997], [-85.76096174614504, 36.23747289560758], [-85.76092674624937, 36.237450895938515], [-85.76089374618326, 36.23744489516013], [-85.76080874574518, 36.237396895274806], [-85.76077474638765, 36.237389895730274], [-85.7607537465664, 36.23737689542861], [-85.76049474603789, 36.23725889581929], [-85.76041874589593, 36.237217895290414], [-85.76038574564573, 36.23721089581469], [-85.76036474593573, 36.23719789544476], [-85.76019874634324, 36.23712189558192], [-85.76002974568651, 36.237038895118594], [-85.76002574574873, 36.23703689546541], [-85.75953074587362, 36.23681289577591], [-85.75929374599993, 36.23669589535855], [-85.75907374520709, 36.23657889502817], [-85.75900574571764, 36.2365588954888], [-85.7589807454196, 36.23655889518115], [-85.7589207458157, 36.23660689548872], [-85.75885374573207, 36.23664089567626], [-85.75872274573065, 36.236727895254845], [-85.75865874536527, 36.236771895913215], [-85.75857474538081, 36.236778895518654], [-85.75851474573396, 36.23681289508717], [-85.7584807453416, 36.236819895428], [-85.75844774578098, 36.236840895591655], [-85.75843574568906, 36.236844895568005], [-85.75831174543714, 36.23688889591473], [-85.75828174537502, 36.236891895552404], [-85.75809974535129, 36.23695089586963], [-85.75807074536303, 36.236953895654985], [-85.75798174499447, 36.23697789546139], [-85.75787974480048, 36.23699189528881], [-85.75773774579166, 36.23698589594371], [-85.75768474543597, 36.23698489563182], [-85.75751774490024, 36.236966895630225], [-85.75750474545818, 36.23695389549803], [-85.75747774482471, 36.236961895547346], [-85.75740174566567, 36.236953895985586], [-85.75704674562334, 36.23689189564769], [-85.75688174447956, 36.23684089591512], [-85.75670274496466, 36.23675089517572], [-85.7566447454258, 36.236716895885735], [-85.75652574461009, 36.23661789532618], [-85.7564247451465, 36.23649089562163], [-85.75631374502976, 36.2363048958546], [-85.75628874521868, 36.236276895717126], [-85.75626374461126, 36.236228895576254], [-85.75618774433829, 36.23613289507901], [-85.75592574501803, 36.23589289506946], [-85.75593074453917, 36.23585489507911], [-85.75592774516367, 36.23583689514866], [-85.75580674453882, 36.23567889557946], [-85.7555357441778, 36.235501895602134], [-85.75545574439012, 36.235490895545524], [-85.75513774455696, 36.23539789559245], [-85.7550617447779, 36.23538489545092], [-85.75488374482998, 36.23532989580097], [-85.75484974455838, 36.23530889493883], [-85.75480774422086, 36.23529489567494], [-85.75477374422762, 36.235274895152315], [-85.75473174392437, 36.23526089496069], [-85.75463774401426, 36.23517489566435], [-85.75460474370371, 36.2351298953167], [-85.75458574390379, 36.23507289564208], [-85.75456474421239, 36.234993895680745], [-85.75454574409602, 36.23491689509073], [-85.75454974370228, 36.23469289540418], [-85.75458774435205, 36.23458689560906], [-85.75460974476154, 36.234466895196576], [-85.75458774370354, 36.23425789493916], [-85.7545707442188, 36.234209895349665], [-85.75454474411791, 36.23416189549392], [-85.75447374467261, 36.2340648955416], [-85.75438474386215, 36.23397589517902], [-85.7541437440175, 36.233782894918534], [-85.7537757443516, 36.233562895089825], [-85.75328074373179, 36.233205895339694], [-85.75315774371697, 36.23312389472413], [-85.75303074416877, 36.23308889467477], [-85.75286174312366, 36.23310289476836], [-85.75267074404047, 36.23312689465818], [-85.75164674377184, 36.23327889537904], [-85.75136774284313, 36.23331289521296], [-85.75073674262114, 36.233329895152224], [-85.75011474267419, 36.233388894946735], [-85.74943974221291, 36.23338089530084], [-85.74894374256799, 36.233247895315486], [-85.74888474216378, 36.23322689487109], [-85.74880874213957, 36.23321389528676], [-85.74876674286327, 36.23319989481311], [-85.74873674281623, 36.233196895320596], [-85.74869874207343, 36.23318589521182], [-85.74858474273356, 36.23316989555587], [-85.74841874236088, 36.23313189491192], [-85.74829874182997, 36.23310989563964], [-85.74815674278477, 36.23307689507845], [-85.74806374204015, 36.2330498950754], [-85.7480037421167, 36.23303689500585], [-85.74791974183267, 36.23299489562735], [-85.74788474225616, 36.23298889522032], [-85.74767274204623, 36.23288489534305], [-85.74754674254633, 36.232809895172586], [-85.74731674224846, 36.23263889500387], [-85.74724974167769, 36.23258389536833], [-85.74703674206168, 36.232387895044866], [-85.74702074236211, 36.23236489467752], [-85.74694374212177, 36.232281895340755], [-85.74668074169404, 36.231959895437164], [-85.74666374168957, 36.23192589525038], [-85.74643374125104, 36.23165789519548], [-85.74640774162161, 36.23161989535869], [-85.7463147411986, 36.23151389514217], [-85.7462897421241, 36.23147889486037], [-85.7462637412051, 36.23145489464765], [-85.74624274174967, 36.23142389519214], [-85.74618774145277, 36.23136289454866], [-85.746068741472, 36.23124589500146], [-85.74601774148272, 36.23120089496012], [-85.74599274205845, 36.23116989515938], [-85.74579674182651, 36.23100589482511], [-85.74564874188728, 36.23089589493432], [-85.74555174084362, 36.23084089513833], [-85.7454567408227, 36.23077489459476], [-85.74525474117104, 36.23063589517875], [-85.74488174117033, 36.23034689461533], [-85.74476274098623, 36.23026489470561], [-85.74466074134807, 36.23017289454517], [-85.74437274140435, 36.22985289494349], [-85.74421974061555, 36.22970889468173], [-85.74410074125171, 36.22957889472545], [-85.74382874033496, 36.2293218946252], [-85.7438127409643, 36.229297894348655], [-85.74370974103799, 36.22918089478354], [-85.74365074118556, 36.229122894552596], [-85.74353174106626, 36.22896789485346], [-85.74339574075572, 36.22876289485059], [-85.74338774013455, 36.228734894732696], [-85.7433537407895, 36.22868689430685], [-85.74330174070539, 36.228597894815714], [-85.74327674022531, 36.22857089407251], [-85.74325974007853, 36.228535894808076], [-85.74324274022382, 36.228514894313314], [-85.74314974042893, 36.22842589411466], [-85.7430987409569, 36.228384894249835], [-85.74305674054729, 36.22835689479153], [-85.7430137409416, 36.228336894293626], [-85.74285274023407, 36.22828989419222], [-85.74275073988179, 36.22828289436849], [-85.74235373972829, 36.22825489424531], [-85.7421507398205, 36.228221894315254], [-85.74211073998227, 36.2282088943278], [-85.7421077399079, 36.228207894769525], [-85.74207773977392, 36.22820489451546], [-85.7417937406353, 36.228118894627634], [-85.74176074024027, 36.22811189454026], [-85.7417177399791, 36.228091894478446], [-85.74159973963006, 36.22805089489043], [-85.7413117398728, 36.227941894077276], [-85.74119174040906, 36.22790689468908], [-85.74115074038738, 36.22788689420321], [-85.74106574017216, 36.22785889472052], [-85.74086274029122, 36.22780389454319], [-85.74071773931315, 36.22776989457905], [-85.74043673951194, 36.22771389439765], [-85.7403457399846, 36.22768889431993], [-85.74031574004985, 36.2276848941657], [-85.74025573969682, 36.22766889453311], [-85.74020173942655, 36.227654894082406], [-85.73993773942618, 36.22760489452725], [-85.73967573955126, 36.22753089449225], [-85.7396427396403, 36.22752489418843], [-85.73963073936257, 36.22751689425555], [-85.73819273893237, 36.22806489428787], [-85.73492773867322, 36.22931189543145], [-85.7339927374425, 36.229156895377656], [-85.73382373771535, 36.22912889505688], [-85.73230673768933, 36.22887789523629], [-85.73052073645637, 36.229897895618485], [-85.72920173649645, 36.230651895182966], [-85.72869573665228, 36.231539895538226], [-85.72531673573246, 36.23285989602609], [-85.72481973567426, 36.23305489625536], [-85.72429473589901, 36.23342489659058], [-85.72406673522708, 36.233228896258154], [-85.72362973558349, 36.233409896478896], [-85.72355173481397, 36.23333789651595], [-85.72348173472918, 36.233272896621145], [-85.72330273461142, 36.233107896546606], [-85.72291673444902, 36.23329789619883], [-85.72232173520749, 36.23264889640602], [-85.7216807344981, 36.23278589664107], [-85.72150873423772, 36.232822896662945], [-85.72108273454143, 36.23231589630794], [-85.71955573384007, 36.23224389649117], [-85.71869373413529, 36.23312489677324], [-85.71543073260506, 36.232545896801035], [-85.7131617316683, 36.232143896537536], [-85.7130987318316, 36.23213289614742], [-85.71018373082474, 36.23161589693944], [-85.70646973028781, 36.23095689698554], [-85.70724372977851, 36.228019896173926], [-85.70502272959982, 36.22759789619914], [-85.70495372975815, 36.22758489598155], [-85.70285372878418, 36.22550889530685], [-85.70284472906211, 36.225500895481964], [-85.70282072868555, 36.22547689527014], [-85.70281272852179, 36.225469895563315], [-85.70277972886524, 36.22543689605236], [-85.70271972915934, 36.225376895933536], [-85.70265772880846, 36.225353895350196], [-85.70232672840757, 36.22500689520692], [-85.70224272877945, 36.22505989587319], [-85.70162172800809, 36.225457895712964], [-85.70074872796225, 36.2258738957915], [-85.70028372747139, 36.226144896192224], [-85.7001977281775, 36.22615889606347], [-85.69967872782473, 36.22624689610551], [-85.69942972760076, 36.2262648961624], [-85.69847872799569, 36.22633389616124], [-85.69682372668814, 36.22629789599184], [-85.69529672611277, 36.226735895902635], [-85.6939687262281, 36.22735989621575], [-85.69317572611824, 36.22794589612844], [-85.6924237261988, 36.22838889710048], [-85.69219472610473, 36.228523896504306], [-85.69217872619235, 36.228533896326795], [-85.69206272588397, 36.22852189640234], [-85.69202372586095, 36.2285258966658], [-85.69200672530484, 36.2285288967709], [-85.6918737255676, 36.22851789694297], [-85.69162372534257, 36.22855189681603], [-85.69156272526705, 36.22856389685217], [-85.69141072611309, 36.22859589701408], [-85.69134872541032, 36.22860089634133], [-85.69119172549027, 36.22865989689293], [-85.69116572594443, 36.228670896615675], [-85.6910897255872, 36.22870889637381], [-85.69102972581084, 36.228737896781944], [-85.69095672543028, 36.228753897014826], [-85.69084972588409, 36.22878589713418], [-85.69072872568722, 36.22880889678725], [-85.6905367252892, 36.2288628969728], [-85.69049172488475, 36.22887689672863], [-85.69031572547838, 36.22892289679428], [-85.69031472549642, 36.228875896933836], [-85.690260724867, 36.22612889659595], [-85.68804272480524, 36.22619789612596], [-85.68783172422002, 36.22620489610113], [-85.6869297238201, 36.22559289664472], [-85.68596872323407, 36.22462389659015], [-85.68465972354382, 36.22491689644624], [-85.68328172332365, 36.22555889638983], [-85.6827667230683, 36.22510589607515], [-85.68170572264572, 36.22475389609631], [-85.68085772196545, 36.2244278959538], [-85.68081372250843, 36.224410896037874], [-85.67928672217757, 36.22463389644215], [-85.67842472212061, 36.2256038970878], [-85.67776072097496, 36.226045896910136], [-85.67703672184116, 36.22659489701631], [-85.67621372122345, 36.22714489722037], [-85.67530472126005, 36.22795289722281], [-85.6752027209077, 36.22804489721699], [-85.6750047211649, 36.22814489774408], [-85.67552772120726, 36.22351989624526], [-85.67554572114042, 36.223357896057216], [-85.67563872037553, 36.222534896453745], [-85.67426272062386, 36.22128489583017], [-85.67415172065387, 36.221183896411475], [-85.67329972035057, 36.22159089640322], [-85.67180271952397, 36.22042789632492], [-85.67114771899891, 36.220761895688376], [-85.6715937192113, 36.221251895821666], [-85.6719707199554, 36.221785896036316], [-85.67215971948649, 36.22245589615684], [-85.67202072010626, 36.223099896444815], [-85.67177271918366, 36.22362889702823], [-85.67020471895049, 36.22359789632011], [-85.66925471851755, 36.223579896658926], [-85.66918571872041, 36.22401889653327], [-85.66773571841094, 36.22390589640931], [-85.66758971792162, 36.22389389675476], [-85.66597271831004, 36.223794896727334], [-85.66597271840313, 36.22285589661727], [-85.66537171720817, 36.22282489708749], [-85.66375471708864, 36.22274489677116], [-85.66180871679991, 36.22242889662657], [-85.6608177159568, 36.22163289682408], [-85.66098571601898, 36.22063389675432], [-85.6594397163127, 36.21991789661416], [-85.65965771569681, 36.218588895675886], [-85.6586657157193, 36.21849389652155], [-85.65745671494416, 36.218379896020984], [-85.65645571509314, 36.21801289621554], [-85.65557771496694, 36.21748089594097], [-85.65525571411081, 36.217280895745056], [-85.65481971426075, 36.21701089637498], [-85.65440171435026, 36.21655289555001], [-85.65423971363249, 36.21637489609754], [-85.65414971403534, 36.2162758956635], [-85.65414771416384, 36.21627389550692], [-85.65410171408848, 36.21630789618789], [-85.65370771416151, 36.21657189559903], [-85.65282671422092, 36.21716589632722], [-85.65182471294611, 36.21753589627568], [-85.65188571341903, 36.21804089607744], [-85.65021571336368, 36.22060589693248], [-85.6497187134019, 36.22070189695279], [-85.64967671312728, 36.22070689684405], [-85.6449557122154, 36.221107897471896], [-85.64461671139921, 36.22091189718799], [-85.64327071133573, 36.22013289703783], [-85.64157171093179, 36.22110589749623], [-85.6414067111032, 36.22120089784451], [-85.64138471076875, 36.221368897090755], [-85.64125871118125, 36.22234189727146], [-85.6405947104217, 36.22222489720264], [-85.64024771075147, 36.2225098973085], [-85.63959271062689, 36.2230528981864], [-85.63916671007846, 36.22297189789261], [-85.63889070974957, 36.22269389815302], [-85.63860170959633, 36.22239989803232], [-85.63847271033569, 36.22195389757337], [-85.63814570933802, 36.22181989732811], [-85.63813770986944, 36.22182089806378], [-85.63760070957744, 36.221925897547514], [-85.63691670900425, 36.22231689789506], [-85.63646070911632, 36.22248589797388], [-85.63583570922468, 36.22241389752702], [-85.63549870944566, 36.22202989770639], [-85.63542970864799, 36.22159189764612], [-85.63546570905817, 36.22145589762416], [-85.63563770939473, 36.22082589787923], [-85.63657170935214, 36.21872889712203], [-85.63684670862519, 36.2181148973772], [-85.63695570958537, 36.217499896963126], [-85.63680770902286, 36.217062897037955], [-85.63609370826802, 36.215999896221426], [-85.63552870905087, 36.21549889610145], [-85.6346827085017, 36.214629895967875], [-85.63459770783263, 36.214543896267045], [-85.63470070811141, 36.21451389663294], [-85.63471570836964, 36.2145098963612], [-85.63482570816903, 36.21448889588998], [-85.63486770862099, 36.21447489602577], [-85.63499070871582, 36.21444389675665], [-85.63501570785813, 36.214442896234935], [-85.63508770786962, 36.21444089586612], [-85.6351217083768, 36.21442789644522], [-85.63512170823944, 36.21440689587601], [-85.63506170793741, 36.21433189589116], [-85.63505370806313, 36.21430389649319], [-85.63500370843597, 36.21424289583369], [-85.63498570803252, 36.21419389627817], [-85.6349747081854, 36.214183896278016], [-85.63489270843823, 36.214103896350636], [-85.63487470787575, 36.2140708963956], [-85.6348327085387, 36.21401489646536], [-85.63473070775078, 36.21390989607662], [-85.63467270861779, 36.213829896480355], [-85.63451970781009, 36.21367489612757], [-85.63437870863032, 36.21354789632323], [-85.63416270839855, 36.21335289631378], [-85.63293670792794, 36.21321889646375], [-85.629258706564, 36.21281689603457], [-85.62921070701277, 36.21281189642413], [-85.62900070612123, 36.21397789669678], [-85.62870470611331, 36.21568489714332], [-85.62565070565557, 36.2153058967021], [-85.62530270551822, 36.21596689694668], [-85.62105970405287, 36.2166288969903], [-85.62045770397172, 36.21677089778119], [-85.61993270362835, 36.21689489782129], [-85.6176327036771, 36.21519889709056], [-85.61718070281168, 36.2148648968477], [-85.61618070333115, 36.21456789684635], [-85.61600670321394, 36.21451689709718], [-85.61570470275481, 36.21507489699939], [-85.61519570253299, 36.215680897095716], [-85.61374470177842, 36.21545489759426], [-85.61372370174536, 36.2153838978201], [-85.6136637020733, 36.21517189762075], [-85.6136437027121, 36.21510189779369], [-85.61361370206554, 36.214975897455766], [-85.61358970171953, 36.214896897697336], [-85.61349670180394, 36.2145668975978], [-85.61327470177811, 36.21377189749542], [-85.61304370136462, 36.21296889652385], [-85.61297770159719, 36.21273989731931], [-85.61289670202402, 36.21243589689919], [-85.61282970202947, 36.21228689708559], [-85.61239970107803, 36.2111088963711], [-85.612305701982, 36.210621896389945], [-85.61218570122783, 36.209990896109865], [-85.61220970088831, 36.208284895938995], [-85.61220970104532, 36.20820889642682], [-85.61227570093797, 36.20758789554605], [-85.6122787011771, 36.2075678959115], [-85.61234670159823, 36.20717489541313], [-85.6124237017057, 36.206800895667314], [-85.61256870173784, 36.206285895516785], [-85.61266770139369, 36.20596589526171], [-85.61282170081984, 36.20556489587885], [-85.61290370107903, 36.205355894981615], [-85.6130947019101, 36.20492089563578], [-85.61310270116412, 36.204893894946004], [-85.61323270137129, 36.20460689492659], [-85.61344370140613, 36.20415889555821], [-85.6142467013465, 36.20245989511389], [-85.61450870180335, 36.20188289467004], [-85.61470470173971, 36.20145289492241], [-85.6148647014416, 36.20112489484551], [-85.61529070170963, 36.20019889432852], [-85.61597070178627, 36.19872189397212], [-85.6165717023911, 36.19742189332026], [-85.61700070198994, 36.196497893515726], [-85.61723870239118, 36.195985893225185], [-85.61758870157472, 36.19523489314083], [-85.61768970177503, 36.1950168929798], [-85.6178557021134, 36.19466289313468], [-85.61795270218808, 36.19444889328615], [-85.61806870163379, 36.194197892645946], [-85.61819170172213, 36.19393789260101], [-85.6182287022881, 36.193846893296346], [-85.61828970248328, 36.193715892593886], [-85.61854470179831, 36.193176892392316], [-85.61877870205633, 36.19268289272237], [-85.61880870247504, 36.19260689298931], [-85.61925970181947, 36.19164889204838], [-85.6194117024039, 36.19131389245652], [-85.61960570238405, 36.19089789255444], [-85.61996170212743, 36.19013889244836], [-85.62002970204583, 36.18999189231867], [-85.62023570230863, 36.18955189203064], [-85.62030470261224, 36.18940589164519], [-85.62048370200465, 36.189018891782624], [-85.62060970292117, 36.18873089140264], [-85.62065570268993, 36.188639891580344], [-85.62074670207495, 36.18842889128553], [-85.62083670245843, 36.188204891868786], [-85.62098370265392, 36.18786889196384], [-85.62128870303012, 36.18717489157745], [-85.62170870308674, 36.18619389144967], [-85.62241070268405, 36.18454589090182], [-85.62255670287718, 36.184214891160124], [-85.62266170268354, 36.18395889066207], [-85.62295070240943, 36.183304890249104], [-85.62298070303912, 36.183239890779205], [-85.62325070300619, 36.18267389065028], [-85.62332670292109, 36.18249589078038], [-85.62342570245441, 36.182295890257265], [-85.62352370307262, 36.18207388988777], [-85.62369070251063, 36.1817178904919], [-85.6237227027609, 36.18164989049898], [-85.62380770318573, 36.1814678897791], [-85.62399670262572, 36.1810698902274], [-85.62415670308283, 36.18071788965087], [-85.62427170312118, 36.18046789031178], [-85.62448270335946, 36.180007889733595], [-85.625047702792, 36.178779889876104]]]]}}]}