{
"type": "FeatureCollection",
"name": "putnam_county_boundary_2022",
"crs": { "type": "name", "properties": { "name": "urn:ogc:def:crs:OGC:1.3:CRS84" } },
"features": [
{ "type": "Feature", "properties": { "NAME": "Putnam", "STATEFP": "47", "COUNTYFP": "141" }, "geometry": { "type": "Polygon", "coordinates": [ [ [ -85.326902, 36.200977 ], [ -85.299504, 36.19232 ], [ -85.274077, 36.181628 ], [ -85.273111, 36.182354 ], [ -85.272826, 36.18479 ], [ -85.271428, 36.18576 ], [ -85.266036, 36.184217 ], [ -85.264252, 36.185054 ], [ -85.265472, 36.18628 ], [ -85.264839, 36.186836 ], [ -85.260308, 36.185817 ], [ -85.262217, 36.18246 ], [ -85.261652, 36.180805 ], [ -85.263312, 36.181704 ], [ -85.265953, 36.181634 ], [ -85.263077, 36.176957 ], [ -85.249261, 36.170627 ], [ -85.204156, 36.152489 ], [ -85.119583, 36.144719 ], [ -85.100213, 36.138561 ], [ -85.107319, 36.132899 ], [ -85.1115, 36.132968 ], [ -85.114657, 36.13126 ], [ -85.117768, 36.131336 ], [ -85.119615, 36.130079 ], [ -85.121735, 36.130227 ], [ -85.127064, 36.128753 ], [ -85.129376, 36.130171 ], [ -85.131575, 36.130259 ], [ -85.131748, 36.128246 ], [ -85.15275, 36.099544 ], [ -85.235757, 36.105752 ], [ -85.236148, 36.100554 ], [ -85.238432, 36.103579 ], [ -85.239108, 36.100247 ], [ -85.246362, 36.100698 ], [ -85.248219, 36.084534 ], [ -85.244361, 36.079789 ], [ -85.24453, 36.077608 ], [ -85.242694, 36.074834 ], [ -85.2432, 36.073372 ], [ -85.24253, 36.072433 ], [ -85.245905, 36.069514 ], [ -85.24745, 36.063117 ], [ -85.245376, 36.057772 ], [ -85.243249, 36.05524 ], [ -85.24406, 36.053806 ], [ -85.245319, 36.054201 ], [ -85.245961, 36.053519 ], [ -85.244351, 36.05313 ], [ -85.245872, 36.051717 ], [ -85.244105, 36.050751 ], [ -85.244531, 36.04958 ], [ -85.247847, 36.050233 ], [ -85.247927, 36.04915 ], [ -85.246681, 36.048151 ], [ -85.247695, 36.046672 ], [ -85.246274, 36.04603 ], [ -85.248472, 36.04471 ], [ -85.247977, 36.043623 ], [ -85.248854, 36.040485 ], [ -85.251364, 36.040521 ], [ -85.260407, 35.996645 ], [ -85.254881, 35.99649 ], [ -85.257012, 35.978492 ], [ -85.264472, 35.979224 ], [ -85.311302, 35.992997 ], [ -85.311678, 36.022564 ], [ -85.310638, 36.022563 ], [ -85.309363, 36.031592 ], [ -85.32537, 36.033052 ], [ -85.326278, 36.030227 ], [ -85.356619, 36.045893 ], [ -85.372621, 36.049747 ], [ -85.372181, 36.052388 ], [ -85.390603, 36.053929 ], [ -85.507677, 36.082012 ], [ -85.5454, 36.077798 ], [ -85.552158, 36.072943 ], [ -85.556701, 36.073835 ], [ -85.560459, 36.073471 ], [ -85.570285, 36.058826 ], [ -85.573875, 36.059632 ], [ -85.575213, 36.05567 ], [ -85.578403, 36.056968 ], [ -85.57776, 36.063229 ], [ -85.579087, 36.063246 ], [ -85.582127, 36.060658 ], [ -85.580121, 36.06185 ], [ -85.580527, 36.061108 ], [ -85.582834, 36.060418 ], [ -85.580915, 36.058915 ], [ -85.580798, 36.057588 ], [ -85.58119, 36.056428 ], [ -85.584258, 36.055408 ], [ -85.583361, 36.05163 ], [ -85.582093, 36.051235 ], [ -85.582151, 36.050032 ], [ -85.583042, 36.050473 ], [ -85.58259, 36.046826 ], [ -85.584811, 36.044198 ], [ -85.589298, 36.043403 ], [ -85.587989, 36.042394 ], [ -85.58665, 36.039419 ], [ -85.58371, 36.037028 ], [ -85.586435, 36.037505 ], [ -85.588032, 36.038795 ], [ -85.588672, 36.040494 ], [ -85.593805, 36.04243 ], [ -85.594086, 36.043726 ], [ -85.597435, 36.041935 ], [ -85.602159, 36.042006 ], [ -85.601995, 36.043616 ], [ -85.606177, 36.044024 ], [ -85.609618, 36.046125 ], [ -85.611138, 36.04605 ], [ -85.612424, 36.043416 ], [ -85.618512, 36.040909 ], [ -85.619979, 36.036721 ], [ -85.623432, 36.036562 ], [ -85.623923, 36.034448 ], [ -85.622036, 36.033726 ], [ -85.622385, 36.033167 ], [ -85.62498, 36.031513 ], [ -85.638191, 36.027674 ], [ -85.638779, 36.026748 ], [ -85.638464, 36.023633 ], [ -85.643274, 36.024191 ], [ -85.643509, 36.019334 ], [ -85.644986, 36.013302 ], [ -85.647528, 36.013853 ], [ -85.651048, 36.012328 ], [ -85.653444, 36.012867 ], [ -85.652481, 36.017209 ], [ -85.655388, 36.017468 ], [ -85.668236, 36.029841 ], [ -85.686743, 36.064802 ], [ -85.688333, 36.069524 ], [ -85.68996, 36.068695 ], [ -85.699752, 36.070823 ], [ -85.722648, 36.081986 ], [ -85.725155, 36.081956 ], [ -85.729787, 36.079725 ], [ -85.730972, 36.081687 ], [ -85.741878, 36.078795 ], [ -85.741584, 36.077892 ], [ -85.740534, 36.077713 ], [ -85.740104, 36.075615 ], [ -85.74173, 36.07506 ], [ -85.747144, 36.07743 ], [ -85.753054, 36.067985 ], [ -85.756943, 36.067099 ], [ -85.767136, 36.070087 ], [ -85.768557, 36.077306 ], [ -85.775976, 36.078328 ], [ -85.774285, 36.083838 ], [ -85.772466, 36.085022 ], [ -85.770391, 36.089503 ], [ -85.769835, 36.094981 ], [ -85.773514, 36.095017 ], [ -85.772056, 36.097222 ], [ -85.773222, 36.098836 ], [ -85.77628, 36.100458 ], [ -85.776782, 36.102337 ], [ -85.780269, 36.10055 ], [ -85.788197, 36.103162 ], [ -85.788566, 36.104493 ], [ -85.787872, 36.105269 ], [ -85.788838, 36.107018 ], [ -85.791875, 36.107812 ], [ -85.793515, 36.10965 ], [ -85.794176, 36.113045 ], [ -85.796786, 36.113961 ], [ -85.797088, 36.116099 ], [ -85.797972, 36.116808 ], [ -85.797498, 36.121787 ], [ -85.802592, 36.122646 ], [ -85.800381, 36.125099 ], [ -85.805505, 36.127076 ], [ -85.806021, 36.12977 ], [ -85.807415, 36.131582 ], [ -85.804571, 36.134127 ], [ -85.802761, 36.138284 ], [ -85.801617, 36.138689 ], [ -85.802248, 36.140604 ], [ -85.805121, 36.142397 ], [ -85.803975, 36.144904 ], [ -85.807249, 36.147807 ], [ -85.805284, 36.165154 ], [ -85.80451, 36.165194 ], [ -85.803631, 36.170344 ], [ -85.799212, 36.170252 ], [ -85.785735, 36.172354 ], [ -85.783956, 36.173086 ], [ -85.783732, 36.174819 ], [ -85.784165, 36.176012 ], [ -85.787172, 36.17641 ], [ -85.786863, 36.180198 ], [ -85.790664, 36.180483 ], [ -85.791253, 36.179541 ], [ -85.793617, 36.179059 ], [ -85.792915, 36.178277 ], [ -85.793009, 36.173504 ], [ -85.795786, 36.174192 ], [ -85.798782, 36.171695 ], [ -85.800399, 36.172019 ], [ -85.799806, 36.174404 ], [ -85.803052, 36.174731 ], [ -85.803603, 36.179808 ], [ -85.805241, 36.17993 ], [ -85.80479, 36.183044 ], [ -85.800487, 36.182812 ], [ -85.798484, 36.186245 ], [ -85.795463, 36.187698 ], [ -85.795517, 36.191738 ], [ -85.799329, 36.191412 ], [ -85.800623, 36.193928 ], [ -85.798803, 36.201351 ], [ -85.799454, 36.206309 ], [ -85.801083, 36.206278 ], [ -85.803989, 36.204232 ], [ -85.806661, 36.203944 ], [ -85.809349, 36.206211 ], [ -85.80393, 36.211197 ], [ -85.786212, 36.210696 ], [ -85.782939, 36.211426 ], [ -85.781477, 36.214312 ], [ -85.783127, 36.219808 ], [ -85.778634, 36.221152 ], [ -85.782102, 36.224727 ], [ -85.781145, 36.225558 ], [ -85.782457, 36.230361 ], [ -85.786487, 36.23011 ], [ -85.780165, 36.236075 ], [ -85.779723, 36.237316 ], [ -85.782886, 36.24466 ], [ -85.780543, 36.24677 ], [ -85.779621, 36.24889 ], [ -85.777227, 36.248901 ], [ -85.775425, 36.245268 ], [ -85.769386, 36.245771 ], [ -85.767033, 36.243174 ], [ -85.766991, 36.241951 ], [ -85.762315, 36.237932 ], [ -85.759001, 36.236552 ], [ -85.756698, 36.236744 ], [ -85.753153, 36.233117 ], [ -85.747668, 36.232878 ], [ -85.742848, 36.228283 ], [ -85.739626, 36.22751 ], [ -85.734923, 36.229305 ], [ -85.732302, 36.228871 ], [ -85.728691, 36.231533 ], [ -85.72429, 36.233418 ], [ -85.721078, 36.232309 ], [ -85.719551, 36.232237 ], [ -85.718689, 36.233118 ], [ -85.706465, 36.23095 ], [ -85.707239, 36.228013 ], [ -85.704949, 36.227578 ], [ -85.702322, 36.225 ], [ -85.700279, 36.226138 ], [ -85.695292, 36.226729 ], [ -85.690311, 36.228916 ], [ -85.690256, 36.226122 ], [ -85.687827, 36.226198 ], [ -85.685964, 36.224617 ], [ -85.683277, 36.225552 ], [ -85.680809, 36.224404 ], [ -85.679282, 36.224627 ], [ -85.675, 36.228138 ], [ -85.675634, 36.222528 ], [ -85.674147, 36.221177 ], [ -85.673295, 36.221584 ], [ -85.671798, 36.220421 ], [ -85.671143, 36.220755 ], [ -85.672155, 36.222449 ], [ -85.671768, 36.223622 ], [ -85.665968, 36.223788 ], [ -85.665968, 36.222849 ], [ -85.661804, 36.222422 ], [ -85.660813, 36.221626 ], [ -85.660981, 36.220627 ], [ -85.659435, 36.219911 ], [ -85.659653, 36.218582 ], [ -85.656451, 36.218006 ], [ -85.654143, 36.216267 ], [ -85.65182, 36.217529 ], [ -85.650211, 36.220599 ], [ -85.644951, 36.221101 ], [ -85.643266, 36.220126 ], [ -85.639588, 36.223046 ], [ -85.638133, 36.221814 ], [ -85.635831, 36.222407 ], [ -85.635425, 36.221585 ], [ -85.636951, 36.217493 ], [ -85.634158, 36.213346 ], [ -85.629206, 36.212805 ], [ -85.6287, 36.215678 ], [ -85.625646, 36.215299 ], [ -85.625298, 36.21596 ], [ -85.619928, 36.216888 ], [ -85.616002, 36.21451 ], [ -85.615191, 36.215674 ], [ -85.613029, 36.215124 ], [ -85.613046, 36.221248 ], [ -85.604328, 36.220707 ], [ -85.604097, 36.223638 ], [ -85.59905, 36.223535 ], [ -85.600212, 36.226177 ], [ -85.594696, 36.225894 ], [ -85.594818, 36.225195 ], [ -85.593577, 36.225147 ], [ -85.593502, 36.225718 ], [ -85.589949, 36.226373 ], [ -85.58948, 36.229736 ], [ -85.585495, 36.229529 ], [ -85.583637, 36.230662 ], [ -85.575113, 36.230471 ], [ -85.57495, 36.22709 ], [ -85.572272, 36.226388 ], [ -85.572802, 36.222295 ], [ -85.568196, 36.220985 ], [ -85.563666, 36.222654 ], [ -85.557527, 36.223177 ], [ -85.557571, 36.225104 ], [ -85.559579, 36.226122 ], [ -85.558385, 36.227855 ], [ -85.557964, 36.230686 ], [ -85.556524, 36.231183 ], [ -85.554564, 36.229771 ], [ -85.551099, 36.229588 ], [ -85.551103, 36.230974 ], [ -85.555945, 36.231376 ], [ -85.555607, 36.234015 ], [ -85.544748, 36.234278 ], [ -85.544519, 36.236315 ], [ -85.53986, 36.236014 ], [ -85.538656, 36.24085 ], [ -85.526197, 36.239626 ], [ -85.525933, 36.242385 ], [ -85.533697, 36.242577 ], [ -85.532957, 36.247938 ], [ -85.530151, 36.247685 ], [ -85.529874, 36.250424 ], [ -85.53484, 36.250927 ], [ -85.533915, 36.258743 ], [ -85.530781, 36.258747 ], [ -85.530562, 36.261212 ], [ -85.519857, 36.260524 ], [ -85.520217, 36.257514 ], [ -85.512571, 36.256879 ], [ -85.51151, 36.264542 ], [ -85.509413, 36.264556 ], [ -85.509775, 36.266622 ], [ -85.508283, 36.27772 ], [ -85.50549, 36.278105 ], [ -85.505508, 36.278758 ], [ -85.494, 36.279817 ], [ -85.493896, 36.281337 ], [ -85.497279, 36.282493 ], [ -85.497149, 36.28386 ], [ -85.494656, 36.283423 ], [ -85.494038, 36.287095 ], [ -85.490441, 36.286801 ], [ -85.490332, 36.287518 ], [ -85.493165, 36.290028 ], [ -85.494727, 36.290587 ], [ -85.494627, 36.296686 ], [ -85.496827, 36.296389 ], [ -85.496622, 36.300937 ], [ -85.497733, 36.302345 ], [ -85.492974, 36.302277 ], [ -85.492898, 36.303348 ], [ -85.490759, 36.303309 ], [ -85.489993, 36.299446 ], [ -85.484231, 36.300524 ], [ -85.484212, 36.302835 ], [ -85.483473, 36.303693 ], [ -85.471211, 36.301981 ], [ -85.468895, 36.304343 ], [ -85.466816, 36.305146 ], [ -85.467434, 36.30234 ], [ -85.466143, 36.301123 ], [ -85.464755, 36.301905 ], [ -85.464485, 36.303538 ], [ -85.458729, 36.303986 ], [ -85.459251, 36.302155 ], [ -85.462189, 36.303171 ], [ -85.463206, 36.302829 ], [ -85.462747, 36.299631 ], [ -85.459248, 36.298101 ], [ -85.462957, 36.295165 ], [ -85.463475, 36.293476 ], [ -85.456049, 36.288857 ], [ -85.457058, 36.287629 ], [ -85.453405, 36.284957 ], [ -85.453907, 36.28096 ], [ -85.465812, 36.281478 ], [ -85.466011, 36.279383 ], [ -85.463454, 36.279087 ], [ -85.46348, 36.276956 ], [ -85.457979, 36.276308 ], [ -85.457985, 36.277108 ], [ -85.45365, 36.27684 ], [ -85.45423, 36.271739 ], [ -85.456293, 36.271809 ], [ -85.456823, 36.267783 ], [ -85.452647, 36.26758 ], [ -85.452888, 36.26146 ], [ -85.449842, 36.261257 ], [ -85.449179, 36.259412 ], [ -85.443056, 36.259038 ], [ -85.442904, 36.259679 ], [ -85.440442, 36.259534 ], [ -85.440095, 36.260977 ], [ -85.435652, 36.262233 ], [ -85.43293, 36.25583 ], [ -85.436509, 36.253577 ], [ -85.43585, 36.247148 ], [ -85.432677, 36.245701 ], [ -85.422656, 36.245278 ], [ -85.423178, 36.241659 ], [ -85.419472, 36.241495 ], [ -85.419432, 36.236145 ], [ -85.407132, 36.234424 ], [ -85.406166, 36.232862 ], [ -85.402361, 36.23225 ], [ -85.396138, 36.229275 ], [ -85.395737, 36.231171 ], [ -85.394952, 36.231107 ], [ -85.394806, 36.229181 ], [ -85.38583, 36.225977 ], [ -85.378569, 36.227781 ], [ -85.377304, 36.224949 ], [ -85.374249, 36.223015 ], [ -85.369521, 36.226204 ], [ -85.365182, 36.226194 ], [ -85.365625, 36.220588 ], [ -85.326706, 36.217867 ], [ -85.325653, 36.210091 ], [ -85.323679, 36.204163 ], [ -85.326902, 36.200977 ] ] ] } }
]
}
